{
"type": "FeatureCollection",
"name": "Recorridos Yitos",
"crs": { "type": "name", "properties": { "name": "urn:ogc:def:crs:OGC:1.3:CRS84" } },
"features": [
{ "type": "Feature", "properties": { "Name": "541 A - Banfield a La Noria" }, "geometry": { "type": "LineString", "coordinates": [ [ -58.395947, -34.74355, 0.0 ], [ -58.396022, -34.743423, 0.0 ], [ -58.396124, -34.743389, 0.0 ], [ -58.395609, -34.740525, 0.0 ], [ -58.417809, -34.737184, 0.0 ], [ -58.41796, -34.738374, 0.0 ], [ -58.424483, -34.73781, 0.0 ], [ -58.424569, -34.737704, 0.0 ], [ -58.42606, -34.738312, 0.0 ], [ -58.426199, -34.73803, 0.0 ], [ -58.428764, -34.739458, 0.0 ], [ -58.432772, -34.734827, 0.0 ], [ -58.434478, -34.735779, 0.0 ], [ -58.437814, -34.731441, 0.0 ], [ -58.446955, -34.736255, 0.0 ], [ -58.448586, -34.734051, 0.0 ], [ -58.45365, -34.736608, 0.0 ], [ -58.458081, -34.730903, 0.0 ], [ -58.456783, -34.730277, 0.0 ], [ -58.461675, -34.724043, 0.0 ], [ -58.46042, -34.723338, 0.0 ], [ -58.467366, -34.714662, 0.0 ], [ -58.456767, -34.708847, 0.0 ], [ -58.456604, -34.708767, 0.0 ], [ -58.456255, -34.709014, 0.0 ], [ -58.455981, -34.709318, 0.0 ], [ -58.455509, -34.709327, 0.0 ], [ -58.45486, -34.709071, 0.0 ], [ -58.454324, -34.708705, 0.0 ], [ -58.454216, -34.708383, 0.0 ], [ -58.454088, -34.707951, 0.0 ], [ -58.45338, -34.707201, 0.0 ], [ -58.454801, -34.706333, 0.0 ], [ -58.455236, -34.706068, 0.0 ], [ -58.456148, -34.707113, 0.0 ] ] } },
{ "type": "Feature", "properties": { "Name": "541 A - La Noria a Banfield" }, "geometry": { "type": "LineString", "coordinates": [ [ -58.456223, -34.707054, 0.0 ], [ -58.456416, -34.70738, 0.0 ], [ -58.456062, -34.707601, 0.0 ], [ -58.456008, -34.707927, 0.0 ], [ -58.456373, -34.708068, 0.0 ], [ -58.456888, -34.708086, 0.0 ], [ -58.45692, -34.708403, 0.0 ], [ -58.45677, -34.708712, 0.0 ], [ -58.466308, -34.714046, 0.0 ], [ -58.465267, -34.715361, 0.0 ], [ -58.466447, -34.715978, 0.0 ], [ -58.46053, -34.723337, 0.0 ], [ -58.461806, -34.724042, 0.0 ], [ -58.458131, -34.728683, 0.0 ], [ -58.459443, -34.729443, 0.0 ], [ -58.453651, -34.736759, 0.0 ], [ -58.448695, -34.734237, 0.0 ], [ -58.447064, -34.736406, 0.0 ], [ -58.438298, -34.731848, 0.0 ], [ -58.434983, -34.736164, 0.0 ], [ -58.432839, -34.734953, 0.0 ], [ -58.428794, -34.739607, 0.0 ], [ -58.426284, -34.738144, 0.0 ], [ -58.426187, -34.738435, 0.0 ], [ -58.42461, -34.737791, 0.0 ], [ -58.417856, -34.7384, 0.0 ], [ -58.417749, -34.737262, 0.0 ], [ -58.397053, -34.740348, 0.0 ], [ -58.397712, -34.743826, 0.0 ], [ -58.396216, -34.744029, 0.0 ], [ -58.39599, -34.743927, 0.0 ], [ -58.395921, -34.743583, 0.0 ] ] } },
{ "type": "Feature", "properties": { "Name": "541 B - Banfield a La Noria" }, "geometry": { "type": "LineString", "coordinates": [ [ -58.395918, -34.743527, 0.0 ], [ -58.395982, -34.743402, 0.0 ], [ -58.396079, -34.743356, 0.0 ], [ -58.395557, -34.740505, 0.0 ], [ -58.417893, -34.737124, 0.0 ], [ -58.418006, -34.738341, 0.0 ], [ -58.423594, -34.737846, 0.0 ], [ -58.423479, -34.737236, 0.0 ], [ -58.423222, -34.737132, 0.0 ], [ -58.430627, -34.727355, 0.0 ], [ -58.43172, -34.727893, 0.0 ], [ -58.432693, -34.726478, 0.0 ], [ -58.433004, -34.725931, 0.0 ], [ -58.437693, -34.728321, 0.0 ], [ -58.435973, -34.73055, 0.0 ], [ -58.447018, -34.736252, 0.0 ], [ -58.45314, -34.728313, 0.0 ], [ -58.456863, -34.730222, 0.0 ], [ -58.461683, -34.724076, 0.0 ], [ -58.46037, -34.723355, 0.0 ], [ -58.467298, -34.714666, 0.0 ], [ -58.456643, -34.70872, 0.0 ], [ -58.456139, -34.709055, 0.0 ], [ -58.455924, -34.70936, 0.0 ], [ -58.455157, -34.709249, 0.0 ], [ -58.45433, -34.708798, 0.0 ], [ -58.454169, -34.708353, 0.0 ], [ -58.45404, -34.707965, 0.0 ], [ -58.45338, -34.707201, 0.0 ], [ -58.455242, -34.706096, 0.0 ], [ -58.456124, -34.707123, 0.0 ] ] } },
{ "type": "Feature", "properties": { "Name": "541 B - La Noria a Banfield" }, "geometry": { "type": "LineString", "coordinates": [ [ -58.456189, -34.707109, 0.0 ], [ -58.45635, -34.707347, 0.0 ], [ -58.456034, -34.707567, 0.0 ], [ -58.455948, -34.707907, 0.0 ], [ -58.4562, -34.708044, 0.0 ], [ -58.456817, -34.708132, 0.0 ], [ -58.456763, -34.708582, 0.0 ], [ -58.456758, -34.708758, 0.0 ], [ -58.466345, -34.714113, 0.0 ], [ -58.465354, -34.715362, 0.0 ], [ -58.46636, -34.716011, 0.0 ], [ -58.460487, -34.723324, 0.0 ], [ -58.461753, -34.724056, 0.0 ], [ -58.456859, -34.730262, 0.0 ], [ -58.453154, -34.728366, 0.0 ], [ -58.447026, -34.736332, 0.0 ], [ -58.437776, -34.731519, 0.0 ], [ -58.439453, -34.729316, 0.0 ], [ -58.438877, -34.729022, 0.0 ], [ -58.433124, -34.726054, 0.0 ], [ -58.431848, -34.728003, 0.0 ], [ -58.430653, -34.727385, 0.0 ], [ -58.423271, -34.737088, 0.0 ], [ -58.423516, -34.737205, 0.0 ], [ -58.423618, -34.737849, 0.0 ], [ -58.417906, -34.738354, 0.0 ], [ -58.417777, -34.737212, 0.0 ], [ -58.397009, -34.740338, 0.0 ], [ -58.397656, -34.743866, 0.0 ], [ -58.396186, -34.744045, 0.0 ], [ -58.395996, -34.7439, 0.0 ], [ -58.395942, -34.743591, 0.0 ] ] } },
{ "type": "Feature", "properties": { "Name": "543 A - Lomas a Cruce " }, "geometry": { "type": "LineString", "coordinates": [ [ -58.39776, -34.761231, 0.0 ], [ -58.397594, -34.759815, 0.0 ], [ -58.399801, -34.759491, 0.0 ], [ -58.400923, -34.759318, 0.0 ], [ -58.402452, -34.759116, 0.0 ], [ -58.40383, -34.758953, 0.0 ], [ -58.404082, -34.76016, 0.0 ], [ -58.415455, -34.758547, 0.0 ], [ -58.42231, -34.757586, 0.0 ], [ -58.43069, -34.756423, 0.0 ], [ -58.433887, -34.756039, 0.0 ], [ -58.438931, -34.7554, 0.0 ], [ -58.440579, -34.753258, 0.0 ], [ -58.444586, -34.755436, 0.0 ], [ -58.443111, -34.757668, 0.0 ], [ -58.448937, -34.760683, 0.0 ], [ -58.441845, -34.7701, 0.0 ], [ -58.457316, -34.778146, 0.0 ], [ -58.457871, -34.778461, 0.0 ], [ -58.458477, -34.77832, 0.0 ], [ -58.458907, -34.777662, 0.0 ] ] } },
{ "type": "Feature", "properties": { "Name": "543 A - Cruce a Lomas" }, "geometry": { "type": "LineString", "coordinates": [ [ -58.457609, -34.779605, 0.0 ], [ -58.458057, -34.778953, 0.0 ], [ -58.457724, -34.778622, 0.0 ], [ -58.441739, -34.770378, 0.0 ], [ -58.438252, -34.768492, 0.0 ], [ -58.438788, -34.76776, 0.0 ], [ -58.442179, -34.76947, 0.0 ], [ -58.448761, -34.760718, 0.0 ], [ -58.442898, -34.757709, 0.0 ], [ -58.444535, -34.75549, 0.0 ], [ -58.440606, -34.753387, 0.0 ], [ -58.438943, -34.755476, 0.0 ], [ -58.428954, -34.75679, 0.0 ], [ -58.429152, -34.757852, 0.0 ], [ -58.420712, -34.759078, 0.0 ], [ -58.40904, -34.760824, 0.0 ], [ -58.397823, -34.76226, 0.0 ], [ -58.397713, -34.761632, 0.0 ], [ -58.397775, -34.761252, 0.0 ] ] } },
{ "type": "Feature", "properties": { "Name": "543 B - Parque Baron a Lomas" }, "geometry": { "type": "LineString", "coordinates": [ [ -58.438697, -34.77437, 0.0 ], [ -58.438896, -34.774474, 0.0 ], [ -58.438372, -34.77515, 0.0 ], [ -58.433638, -34.7727, 0.0 ], [ -58.432485, -34.774211, 0.0 ], [ -58.430756, -34.773374, 0.0 ], [ -58.433343, -34.76995, 0.0 ], [ -58.432045, -34.769316, 0.0 ], [ -58.434527, -34.766013, 0.0 ], [ -58.436673, -34.767123, 0.0 ], [ -58.437553, -34.767828, 0.0 ], [ -58.439302, -34.765519, 0.0 ], [ -58.437588, -34.764673, 0.0 ], [ -58.437122, -34.765237, 0.0 ], [ -58.435684, -34.76455, 0.0 ], [ -58.436832, -34.763052, 0.0 ], [ -58.432381, -34.76061, 0.0 ], [ -58.432955, -34.759857, 0.0 ], [ -58.434103, -34.758869, 0.0 ], [ -58.43532, -34.757181, 0.0 ], [ -58.433314, -34.756185, 0.0 ], [ -58.427011, -34.757062, 0.0 ], [ -58.427182, -34.758144, 0.0 ], [ -58.405586, -34.761334, 0.0 ], [ -58.397754, -34.762374, 0.0 ], [ -58.397672, -34.761623, 0.0 ], [ -58.397714, -34.760975, 0.0 ] ] } },
{ "type": "Feature", "properties": { "Name": "543 B - Lomas a Parque Baron" }, "geometry": { "type": "LineString", "coordinates": [ [ -58.397696, -34.760891, 0.0 ], [ -58.397594, -34.759815, 0.0 ], [ -58.403878, -34.758942, 0.0 ], [ -58.404114, -34.760128, 0.0 ], [ -58.433319, -34.756085, 0.0 ], [ -58.435427, -34.757177, 0.0 ], [ -58.434114, -34.758963, 0.0 ], [ -58.433036, -34.759919, 0.0 ], [ -58.435794, -34.761475, 0.0 ], [ -58.435882, -34.761697, 0.0 ], [ -58.435507, -34.762248, 0.0 ], [ -58.436848, -34.762991, 0.0 ], [ -58.436915, -34.763036, 0.0 ], [ -58.435815, -34.76449, 0.0 ], [ -58.437022, -34.765129, 0.0 ], [ -58.437532, -34.764543, 0.0 ], [ -58.439425, -34.765522, 0.0 ], [ -58.43762, -34.767908, 0.0 ], [ -58.43847, -34.768353, 0.0 ], [ -58.437801, -34.76931, 0.0 ], [ -58.43529, -34.768059, 0.0 ], [ -58.4347055, -34.7679251, 0.0 ], [ -58.430883, -34.773341, 0.0 ], [ -58.43245, -34.77413, 0.0 ], [ -58.433608, -34.772587, 0.0 ], [ -58.437519, -34.77461, 0.0 ], [ -58.437932, -34.773984, 0.0 ], [ -58.438656, -34.774341, 0.0 ] ] } },
{ "type": "Feature", "properties": { "Name": "543 C - Trasradio a La Noria" }, "geometry": { "type": "LineString", "coordinates": [ [ -58.478516, -34.751159, 0.0 ], [ -58.47828, -34.751026, 0.0 ], [ -58.480008, -34.748721, 0.0 ], [ -58.480635, -34.747906, 0.0 ], [ -58.480684, -34.74776, 0.0 ], [ -58.480507, -34.74713, 0.0 ], [ -58.478429, -34.740787, 0.0 ], [ -58.478373, -34.740569, 0.0 ], [ -58.478276, -34.740436, 0.0 ], [ -58.477839, -34.74022, 0.0 ], [ -58.477736, -34.740167, 0.0 ], [ -58.478525, -34.739034, 0.0 ], [ -58.480644, -34.735803, 0.0 ], [ -58.476846, -34.734198, 0.0 ], [ -58.475279, -34.733546, 0.0 ], [ -58.474459, -34.733287, 0.0 ], [ -58.472662, -34.732304, 0.0 ], [ -58.476524, -34.727075, 0.0 ], [ -58.479149, -34.723546, 0.0 ], [ -58.47449, -34.719338, 0.0 ], [ -58.469405, -34.714611, 0.0 ], [ -58.468702, -34.715444, 0.0 ], [ -58.45667, -34.708749, 0.0 ], [ -58.456214, -34.709022, 0.0 ], [ -58.455924, -34.70936, 0.0 ], [ -58.455279, -34.709289, 0.0 ], [ -58.454324, -34.708705, 0.0 ], [ -58.454088, -34.707951, 0.0 ], [ -58.45338, -34.707201, 0.0 ], [ -58.455236, -34.706068, 0.0 ], [ -58.456148, -34.707113, 0.0 ] ] } },
{ "type": "Feature", "properties": { "Name": "543 C - La Noria a Trasradio" }, "geometry": { "type": "LineString", "coordinates": [ [ -58.456171, -34.707043, 0.0 ], [ -58.4563, -34.70725, 0.0 ], [ -58.457078, -34.706981, 0.0 ], [ -58.457389, -34.707074, 0.0 ], [ -58.457738, -34.707453, 0.0 ], [ -58.457856, -34.707744, 0.0 ], [ -58.457764, -34.707929, 0.0 ], [ -58.45677, -34.708712, 0.0 ], [ -58.467383, -34.714632, 0.0 ], [ -58.468413, -34.713393, 0.0 ], [ -58.479229, -34.723364, 0.0 ], [ -58.472797, -34.732266, 0.0 ], [ -58.474595, -34.733196, 0.0 ], [ -58.476484, -34.733902, 0.0 ], [ -58.480851, -34.735771, 0.0 ], [ -58.477934, -34.740165, 0.0 ], [ -58.478439, -34.740429, 0.0 ], [ -58.480684, -34.74776, 0.0 ], [ -58.478408, -34.750986, 0.0 ] ] } },
{ "type": "Feature", "properties": { "Name": "544 O - Lomas a Santa Catalina" }, "geometry": { "type": "LineString", "coordinates": [ [ -58.397672, -34.761623, 0.0 ], [ -58.397732, -34.761272, 0.0 ], [ -58.397649, -34.76051, 0.0 ], [ -58.397566, -34.759727, 0.0 ], [ -58.413827, -34.757497, 0.0 ], [ -58.413558, -34.756237, 0.0 ], [ -58.416691, -34.755814, 0.0 ], [ -58.416453, -34.754649, 0.0 ], [ -58.420597, -34.75409, 0.0 ], [ -58.420836, -34.753935, 0.0 ], [ -58.433267, -34.752223, 0.0 ], [ -58.433502, -34.753475, 0.0 ], [ -58.431753, -34.753707, 0.0 ], [ -58.432004, -34.755211, 0.0 ], [ -58.43224, -34.756207, 0.0 ], [ -58.432798, -34.756124, 0.0 ], [ -58.433386, -34.756076, 0.0 ], [ -58.438149, -34.758505, 0.0 ], [ -58.438042, -34.758672, 0.0 ], [ -58.440971, -34.760215, 0.0 ], [ -58.439349, -34.762675, 0.0 ], [ -58.439183, -34.7626, 0.0 ], [ -58.438737, -34.763256, 0.0 ], [ -58.440401, -34.764096, 0.0 ], [ -58.44134, -34.764444, 0.0 ], [ -58.442404, -34.765061, 0.0 ], [ -58.445623, -34.760696, 0.0 ], [ -58.451067, -34.75345, 0.0 ], [ -58.45317, -34.750718, 0.0 ], [ -58.451164, -34.749678, 0.0 ], [ -58.454736, -34.744829, 0.0 ], [ -58.458127, -34.740377, 0.0 ], [ -58.461313, -34.741999, 0.0 ], [ -58.464327, -34.743445, 0.0 ], [ -58.465239, -34.74385, 0.0 ], [ -58.469852, -34.746354, 0.0 ], [ -58.472106, -34.74761, 0.0 ], [ -58.475641, -34.742933, 0.0 ], [ -58.479063, -34.738128, 0.0 ], [ -58.480716, -34.735651, 0.0 ], [ -58.485833, -34.737899, 0.0 ], [ -58.488902, -34.739195, 0.0 ], [ -58.488773, -34.739389, 0.0 ], [ -58.485919, -34.738181, 0.0 ] ] } },
{ "type": "Feature", "properties": { "Name": "544 O - Santa Catalina a Lomas" }, "geometry": { "type": "LineString", "coordinates": [ [ -58.484375, -34.73745, 0.0 ], [ -58.480746, -34.735884, 0.0 ], [ -58.477882, -34.740171, 0.0 ], [ -58.47218, -34.747819, 0.0 ], [ -58.465116, -34.744015, 0.0 ], [ -58.458158, -34.740604, 0.0 ], [ -58.451403, -34.749652, 0.0 ], [ -58.45338, -34.750699, 0.0 ], [ -58.442421, -34.765206, 0.0 ], [ -58.441278, -34.764576, 0.0 ], [ -58.440259, -34.76417, 0.0 ], [ -58.438446, -34.763245, 0.0 ], [ -58.439111, -34.76243, 0.0 ], [ -58.439304, -34.76247, 0.0 ], [ -58.440806, -34.760345, 0.0 ], [ -58.437892, -34.758796, 0.0 ], [ -58.437795, -34.758743, 0.0 ], [ -58.437913, -34.758514, 0.0 ], [ -58.433337, -34.756222, 0.0 ], [ -58.432922, -34.756031, 0.0 ], [ -58.434638, -34.753457, 0.0 ], [ -58.43532, -34.752465, 0.0 ], [ -58.434644, -34.752116, 0.0 ], [ -58.434532, -34.752112, 0.0 ], [ -58.434296, -34.752152, 0.0 ], [ -58.429039, -34.752894, 0.0 ], [ -58.423688, -34.753652, 0.0 ], [ -58.420905, -34.754063, 0.0 ], [ -58.420669, -34.754178, 0.0 ], [ -58.416988, -34.754669, 0.0 ], [ -58.409861, -34.755721, 0.0 ], [ -58.403835, -34.756574, 0.0 ], [ -58.401856, -34.756854, 0.0 ], [ -58.402103, -34.757894, 0.0 ], [ -58.403572, -34.757691, 0.0 ], [ -58.404344, -34.761422, 0.0 ], [ -58.39792, -34.762275, 0.0 ], [ -58.397711, -34.762218, 0.0 ], [ -58.397655, -34.761649, 0.0 ] ] } },
{ "type": "Feature", "properties": { "Name": "544 C - Trasradio a La Noria" }, "geometry": { "type": "LineString", "coordinates": [ [ -58.47853, -34.751168, 0.0 ], [ -58.478254, -34.751027, 0.0 ], [ -58.479734, -34.749052, 0.0 ], [ -58.480616, -34.74789, 0.0 ], [ -58.480656, -34.747758, 0.0 ], [ -58.480059, -34.745837, 0.0 ], [ -58.479211, -34.743289, 0.0 ], [ -58.478354, -34.740583, 0.0 ], [ -58.478239, -34.740458, 0.0 ], [ -58.477863, -34.740264, 0.0 ], [ -58.477682, -34.74019, 0.0 ], [ -58.480562, -34.735832, 0.0 ], [ -58.475438, -34.733683, 0.0 ], [ -58.475197, -34.733547, 0.0 ], [ -58.474392, -34.733304, 0.0 ], [ -58.472713, -34.732365, 0.0 ], [ -58.47263, -34.73232, 0.0 ], [ -58.473966, -34.730413, 0.0 ], [ -58.475769, -34.728024, 0.0 ], [ -58.47805, -34.724919, 0.0 ], [ -58.479047, -34.72357, 0.0 ], [ -58.47129, -34.716498, 0.0 ], [ -58.469402, -34.714646, 0.0 ], [ -58.46871, -34.71551, 0.0 ], [ -58.456692, -34.708872, 0.0 ], [ -58.456323, -34.709029, 0.0 ], [ -58.456023, -34.709395, 0.0 ], [ -58.455277, -34.70932, 0.0 ], [ -58.454333, -34.708835, 0.0 ], [ -58.454199, -34.708094, 0.0 ], [ -58.454054, -34.707737, 0.0 ], [ -58.45377, -34.707367, 0.0 ], [ -58.453759, -34.707261, 0.0 ], [ -58.454285, -34.706943, 0.0 ], [ -58.454971, -34.706533, 0.0 ], [ -58.455164, -34.706489, 0.0 ], [ -58.455363, -34.706666, 0.0 ], [ -58.455792, -34.707151, 0.0 ] ] } },
{ "type": "Feature", "properties": { "Name": "544 C - La Noria a Trasradio" }, "geometry": { "type": "LineString", "coordinates": [ [ -58.455801, -34.707159, 0.0 ], [ -58.455947, -34.707353, 0.0 ], [ -58.457476, -34.706762, 0.0 ], [ -58.458705, -34.706154, 0.0 ], [ -58.45908, -34.706242, 0.0 ], [ -58.45952, -34.706551, 0.0 ], [ -58.459644, -34.706824, 0.0 ], [ -58.459263, -34.707349, 0.0 ], [ -58.457734, -34.709227, 0.0 ], [ -58.462674, -34.711979, 0.0 ], [ -58.467363, -34.714594, 0.0 ], [ -58.468425, -34.713324, 0.0 ], [ -58.47947, -34.7235, 0.0 ], [ -58.472861, -34.732261, 0.0 ], [ -58.474792, -34.733231, 0.0 ], [ -58.477603, -34.734315, 0.0 ], [ -58.480907, -34.735786, 0.0 ], [ -58.47802, -34.740129, 0.0 ], [ -58.478476, -34.740402, 0.0 ], [ -58.479994, -34.745176, 0.0 ], [ -58.480789, -34.747745, 0.0 ], [ -58.480779, -34.747886, 0.0 ], [ -58.478542, -34.750971, 0.0 ], [ -58.478456, -34.750971, 0.0 ] ] } },
{ "type": "Feature", "properties": { "Name": "544 C - DESVIO X FERIA TRASRADIO A LA NORIA" }, "geometry": { "type": "LineString", "coordinates": [ [ -58.475063, -34.728989, 0.0 ], [ -58.475575, -34.728306, 0.0 ], [ -58.468325, -34.724608, 0.0 ], [ -58.467548, -34.725537, 0.0 ], [ -58.463715, -34.723444, 0.0 ], [ -58.465578, -34.721057, 0.0 ], [ -58.463236, -34.71971, 0.0 ], [ -58.467233, -34.714705, 0.0 ], [ -58.466343, -34.714231, 0.0 ] ] } },
{ "type": "Feature", "properties": { "Name": "544 C - DESVIO X FERIA LA NORIA A TRASRADIO" }, "geometry": { "type": "LineString", "coordinates": [ [ -58.465286, -34.713496, 0.0 ], [ -58.466434, -34.714094, 0.0 ], [ -58.465389, -34.71536, 0.0 ], [ -58.466419, -34.715949, 0.0 ], [ -58.463472, -34.719683, 0.0 ], [ -58.465804, -34.721029, 0.0 ], [ -58.463959, -34.723404, 0.0 ], [ -58.467479, -34.725377, 0.0 ], [ -58.468291, -34.724426, 0.0 ], [ -58.47582, -34.72831, 0.0 ], [ -58.475222, -34.729091, 0.0 ] ] } },
{ "type": "Feature", "properties": { "Name": "544 P - Lomas a La Noria" }, "geometry": { "type": "LineString", "coordinates": [ [ -58.39769, -34.761636, 0.0 ], [ -58.397746, -34.761328, 0.0 ], [ -58.397557, -34.759797, 0.0 ], [ -58.403976, -34.758889, 0.0 ], [ -58.410492, -34.757978, 0.0 ], [ -58.413869, -34.757506, 0.0 ], [ -58.41359, -34.756261, 0.0 ], [ -58.416736, -34.755822, 0.0 ], [ -58.416497, -34.754654, 0.0 ], [ -58.420637, -34.754086, 0.0 ], [ -58.420836, -34.753935, 0.0 ], [ -58.428112, -34.752904, 0.0 ], [ -58.427688, -34.750647, 0.0 ], [ -58.427629, -34.750422, 0.0 ], [ -58.427466, -34.750127, 0.0 ], [ -58.42656, -34.746085, 0.0 ], [ -58.424366, -34.746376, 0.0 ], [ -58.425047, -34.741395, 0.0 ], [ -58.42576, -34.741395, 0.0 ], [ -58.42693, -34.741302, 0.0 ], [ -58.427692, -34.741346, 0.0 ], [ -58.428121, -34.741492, 0.0 ], [ -58.430722, -34.743145, 0.0 ], [ -58.431254, -34.742616, 0.0 ], [ -58.43193, -34.74303, 0.0 ], [ -58.434665, -34.739847, 0.0 ], [ -58.43569, -34.741068, 0.0 ], [ -58.438388, -34.737833, 0.0 ], [ -58.438656, -34.737965, 0.0 ], [ -58.442054, -34.733569, 0.0 ], [ -58.451967, -34.73878, 0.0 ], [ -58.453491, -34.736761, 0.0 ], [ -58.453586, -34.736629, 0.0 ], [ -58.456247, -34.737963, 0.0 ], [ -58.456078, -34.73823, 0.0 ], [ -58.456116, -34.738302, 0.0 ], [ -58.456483, -34.738501, 0.0 ], [ -58.458702, -34.739625, 0.0 ], [ -58.463841, -34.73269, 0.0 ], [ -58.463982, -34.732537, 0.0 ], [ -58.463934, -34.732394, 0.0 ], [ -58.463987, -34.732293, 0.0 ], [ -58.464092, -34.73226, 0.0 ], [ -58.464223, -34.732264, 0.0 ], [ -58.464293, -34.732352, 0.0 ], [ -58.464524, -34.732445, 0.0 ], [ -58.465326, -34.732855, 0.0 ], [ -58.466195, -34.73334, 0.0 ], [ -58.469564, -34.73505, 0.0 ], [ -58.469977, -34.734927, 0.0 ], [ -58.47194, -34.734168, 0.0 ], [ -58.471438, -34.7339, 0.0 ], [ -58.473016, -34.731715, 0.0 ], [ -58.475612, -34.728241, 0.0 ], [ -58.479158, -34.72357, 0.0 ], [ -58.471818, -34.717049, 0.0 ], [ -58.468349, -34.713619, 0.0 ], [ -58.467391, -34.714743, 0.0 ], [ -58.456679, -34.708832, 0.0 ], [ -58.456367, -34.708988, 0.0 ], [ -58.456105, -34.709321, 0.0 ], [ -58.455118, -34.709279, 0.0 ], [ -58.45427, -34.708856, 0.0 ], [ -58.454114, -34.708318, 0.0 ], [ -58.454002, -34.707961, 0.0 ], [ -58.453337, -34.707202, 0.0 ], [ -58.455305, -34.706056, 0.0 ], [ -58.456126, -34.707057, 0.0 ] ] } },
{ "type": "Feature", "properties": { "Name": "544 P - La Noria a Lomas" }, "geometry": { "type": "LineString", "coordinates": [ [ -58.456168, -34.707106, 0.0 ], [ -58.456307, -34.70727, 0.0 ], [ -58.457102, -34.707008, 0.0 ], [ -58.45736, -34.707085, 0.0 ], [ -58.457655, -34.707394, 0.0 ], [ -58.457757, -34.707592, 0.0 ], [ -58.457796, -34.707724, 0.0 ], [ -58.457728, -34.707933, 0.0 ], [ -58.456791, -34.70871, 0.0 ], [ -58.467354, -34.714628, 0.0 ], [ -58.468465, -34.713364, 0.0 ], [ -58.479348, -34.723463, 0.0 ], [ -58.47158, -34.733868, 0.0 ], [ -58.472218, -34.734194, 0.0 ], [ -58.4696, -34.735173, 0.0 ], [ -58.469343, -34.735257, 0.0 ], [ -58.46415, -34.732579, 0.0 ], [ -58.458767, -34.739858, 0.0 ], [ -58.455988, -34.738358, 0.0 ], [ -58.455938, -34.738212, 0.0 ], [ -58.456085, -34.738012, 0.0 ], [ -58.453647, -34.736778, 0.0 ], [ -58.452008, -34.738936, 0.0 ], [ -58.44203, -34.733807, 0.0 ], [ -58.438681, -34.738227, 0.0 ], [ -58.43837, -34.738072, 0.0 ], [ -58.435682, -34.741255, 0.0 ], [ -58.434633, -34.740036, 0.0 ], [ -58.431934, -34.743192, 0.0 ], [ -58.431268, -34.742756, 0.0 ], [ -58.43074, -34.743351, 0.0 ], [ -58.428159, -34.7418, 0.0 ], [ -58.427204, -34.741579, 0.0 ], [ -58.425445, -34.741641, 0.0 ], [ -58.424703, -34.746153, 0.0 ], [ -58.426699, -34.745889, 0.0 ], [ -58.427573, -34.749939, 0.0 ], [ -58.427777, -34.750384, 0.0 ], [ -58.428248, -34.753026, 0.0 ], [ -58.420819, -34.754044, 0.0 ], [ -58.420846, -34.754161, 0.0 ], [ -58.403371, -34.756656, 0.0 ], [ -58.401931, -34.756859, 0.0 ], [ -58.402127, -34.757908, 0.0 ], [ -58.403572, -34.757674, 0.0 ], [ -58.404352, -34.761454, 0.0 ], [ -58.397928, -34.762259, 0.0 ], [ -58.397758, -34.762207, 0.0 ], [ -58.397707, -34.761644, 0.0 ] ] } },
{ "type": "Feature", "properties": { "Name": "544 P - DESVIO X FERIA DE LA NORIA A LOMAS" }, "geometry": { "type": "LineString", "coordinates": [ [ -58.466185, -34.713937, 0.0 ], [ -58.466437, -34.71407, 0.0 ], [ -58.465374, -34.715365, 0.0 ], [ -58.466482, -34.715946, 0.0 ], [ -58.463443, -34.719676, 0.0 ], [ -58.465769, -34.721014, 0.0 ], [ -58.463913, -34.723415, 0.0 ], [ -58.467488, -34.725399, 0.0 ], [ -58.468282, -34.724394, 0.0 ], [ -58.470524, -34.725558, 0.0 ], [ -58.471651, -34.726193, 0.0 ], [ -58.472992, -34.726819, 0.0 ], [ -58.474472, -34.727568, 0.0 ], [ -58.475856, -34.728304, 0.0 ], [ -58.475276, -34.729094, 0.0 ] ] } },
{ "type": "Feature", "properties": { "Name": "544 P - DESVIO X FERIA DE LOMAS A LA NORIA" }, "geometry": { "type": "LineString", "coordinates": [ [ -58.475087, -34.728988, 0.0 ], [ -58.475596, -34.728296, 0.0 ], [ -58.468346, -34.724606, 0.0 ], [ -58.467531, -34.725589, 0.0 ], [ -58.466109, -34.724788, 0.0 ], [ -58.463746, -34.723434, 0.0 ], [ -58.465578, -34.721057, 0.0 ], [ -58.463389, -34.719822, 0.0 ], [ -58.463239, -34.719743, 0.0 ], [ -58.467302, -34.714707, 0.0 ], [ -58.46635, -34.714163, 0.0 ] ] } },
{ "type": "Feature", "properties": { "Name": "544 L - Lomas a La Noria" }, "geometry": { "type": "LineString", "coordinates": [ [ -58.397698, -34.761636, 0.0 ], [ -58.397737, -34.761436, 0.0 ], [ -58.397758, -34.76135, 0.0 ], [ -58.397613, -34.759822, 0.0 ], [ -58.398103, -34.759725, 0.0 ], [ -58.41391, -34.757521, 0.0 ], [ -58.41358, -34.756269, 0.0 ], [ -58.416742, -34.75583, 0.0 ], [ -58.416513, -34.754666, 0.0 ], [ -58.420657, -34.754037, 0.0 ], [ -58.420853, -34.753896, 0.0 ], [ -58.428084, -34.752883, 0.0 ], [ -58.427622, -34.75045, 0.0 ], [ -58.427419, -34.750083, 0.0 ], [ -58.426528, -34.746111, 0.0 ], [ -58.424291, -34.746398, 0.0 ], [ -58.424996, -34.741443, 0.0 ], [ -58.426836, -34.741241, 0.0 ], [ -58.428038, -34.741364, 0.0 ], [ -58.430725, -34.743081, 0.0 ], [ -58.431234, -34.742583, 0.0 ], [ -58.431922, -34.743041, 0.0 ], [ -58.434638, -34.739779, 0.0 ], [ -58.437878, -34.743526, 0.0 ], [ -58.438855, -34.744602, 0.0 ], [ -58.44232, -34.748595, 0.0 ], [ -58.443307, -34.749794, 0.0 ], [ -58.443731, -34.749442, 0.0 ], [ -58.444385, -34.748613, 0.0 ], [ -58.447046, -34.745144, 0.0 ], [ -58.450158, -34.741106, 0.0 ], [ -58.451813, -34.738951, 0.0 ], [ -58.453525, -34.736736, 0.0 ], [ -58.453614, -34.73666, 0.0 ], [ -58.456182, -34.737958, 0.0 ], [ -58.4562, -34.738071, 0.0 ], [ -58.456095, -34.73823, 0.0 ], [ -58.456159, -34.738338, 0.0 ], [ -58.458716, -34.739638, 0.0 ], [ -58.463914, -34.732518, 0.0 ], [ -58.463939, -34.732367, 0.0 ], [ -58.464027, -34.732254, 0.0 ], [ -58.464242, -34.732239, 0.0 ], [ -58.464354, -34.732369, 0.0 ], [ -58.469561, -34.735029, 0.0 ], [ -58.471964, -34.734176, 0.0 ], [ -58.471452, -34.733896, 0.0 ], [ -58.479065, -34.723541, 0.0 ], [ -58.469385, -34.714803, 0.0 ], [ -58.463108, -34.70848, 0.0 ], [ -58.461306, -34.706557, 0.0 ], [ -58.460741, -34.706157, 0.0 ], [ -58.459754, -34.706719, 0.0 ], [ -58.458869, -34.70776, 0.0 ], [ -58.458268, -34.707804, 0.0 ], [ -58.457925, -34.707799, 0.0 ], [ -58.456374, -34.709039, 0.0 ], [ -58.456026, -34.709427, 0.0 ], [ -58.454985, -34.709259, 0.0 ], [ -58.45425, -34.708827, 0.0 ], [ -58.45396, -34.707927, 0.0 ], [ -58.453268, -34.707178, 0.0 ], [ -58.455269, -34.706018, 0.0 ], [ -58.456151, -34.707089, 0.0 ] ] } },
{ "type": "Feature", "properties": { "Name": "544 L - La Noria a Lomas" }, "geometry": { "type": "LineString", "coordinates": [ [ -58.456162, -34.70712, 0.0 ], [ -58.456298, -34.707254, 0.0 ], [ -58.458614, -34.706153, 0.0 ], [ -58.459035, -34.706252, 0.0 ], [ -58.459467, -34.706552, 0.0 ], [ -58.459853, -34.706433, 0.0 ], [ -58.46054, -34.706063, 0.0 ], [ -58.460942, -34.70597, 0.0 ], [ -58.461414, -34.706111, 0.0 ], [ -58.46179, -34.706535, 0.0 ], [ -58.465, -34.710015, 0.0 ], [ -58.469613, -34.714442, 0.0 ], [ -58.479398, -34.723499, 0.0 ], [ -58.471624, -34.733865, 0.0 ], [ -58.472187, -34.734227, 0.0 ], [ -58.469305, -34.735319, 0.0 ], [ -58.464163, -34.732615, 0.0 ], [ -58.461553, -34.736106, 0.0 ], [ -58.456366, -34.733395, 0.0 ], [ -58.443928, -34.749498, 0.0 ], [ -58.443325, -34.74997, 0.0 ], [ -58.434627, -34.740072, 0.0 ], [ -58.431972, -34.743206, 0.0 ], [ -58.431237, -34.742792, 0.0 ], [ -58.430776, -34.743347, 0.0 ], [ -58.428527, -34.74199, 0.0 ], [ -58.427795, -34.741644, 0.0 ], [ -58.425365, -34.741615, 0.0 ], [ -58.424677, -34.746185, 0.0 ], [ -58.426748, -34.74587, 0.0 ], [ -58.42764, -34.74998, 0.0 ], [ -58.427908, -34.75065, 0.0 ], [ -58.428287, -34.753055, 0.0 ], [ -58.420838, -34.754245, 0.0 ], [ -58.411879, -34.755568, 0.0 ], [ -58.401908, -34.756864, 0.0 ], [ -58.402127, -34.757908, 0.0 ], [ -58.403595, -34.757677, 0.0 ], [ -58.404334, -34.761435, 0.0 ], [ -58.402172, -34.761737, 0.0 ], [ -58.401204, -34.761794, 0.0 ], [ -58.399789, -34.761984, 0.0 ], [ -58.397917, -34.762294, 0.0 ], [ -58.397724, -34.762208, 0.0 ], [ -58.397672, -34.761623, 0.0 ] ] } },
{ "type": "Feature", "properties": { "Name": "544 L - DESVIO X FERIA DE LOMAS A LA NORIA" }, "geometry": { "type": "LineString", "coordinates": [ [ -58.475083, -34.729007, 0.0 ], [ -58.47562, -34.728317, 0.0 ], [ -58.470062, -34.725539, 0.0 ], [ -58.468283, -34.724615, 0.0 ], [ -58.467594, -34.725589, 0.0 ], [ -58.463687, -34.723446, 0.0 ], [ -58.465548, -34.721025, 0.0 ], [ -58.463188, -34.719724, 0.0 ], [ -58.467159, -34.714732, 0.0 ], [ -58.45665, -34.708876, 0.0 ], [ -58.456339, -34.709061, 0.0 ], [ -58.456006, -34.709462, 0.0 ] ] } },
{ "type": "Feature", "properties": { "Name": "544 L - DESVIO X FERIA DE LA NORIA A LOMAS" }, "geometry": { "type": "LineString", "coordinates": [ [ -58.459676, -34.706888, 0.0 ], [ -58.45775, -34.709228, 0.0 ], [ -58.466302, -34.713978, 0.0 ], [ -58.466485, -34.714066, 0.0 ], [ -58.465417, -34.715349, 0.0 ], [ -58.466522, -34.715984, 0.0 ], [ -58.463518, -34.719697, 0.0 ], [ -58.46579, -34.721002, 0.0 ], [ -58.463969, -34.723418, 0.0 ], [ -58.467488, -34.725345, 0.0 ], [ -58.468282, -34.724366, 0.0 ], [ -58.475887, -34.728337, 0.0 ], [ -58.475289, -34.729108, 0.0 ], [ -58.475276, -34.729094, 0.0 ] ] } },
{ "type": "Feature", "properties": { "Name": "549 - Cruce a Temperley" }, "geometry": { "type": "LineString", "coordinates": [ [ -58.457595, -34.779574, 0.0 ], [ -58.458019, -34.77895, 0.0 ], [ -58.457571, -34.778597, 0.0 ], [ -58.454309, -34.776896, 0.0 ], [ -58.438339, -34.768551, 0.0 ], [ -58.427768, -34.782986, 0.0 ], [ -58.424965, -34.781946, 0.0 ], [ -58.41606, -34.777293, 0.0 ], [ -58.415438, -34.778104, 0.0 ], [ -58.416516, -34.778672, 0.0 ], [ -58.412773, -34.783458, 0.0 ], [ -58.406755, -34.780252, 0.0 ], [ -58.406626, -34.780409, 0.0 ], [ -58.406532, -34.780462, 0.0 ], [ -58.406381, -34.780749, 0.0 ], [ -58.406231, -34.780888, 0.0 ], [ -58.405963, -34.78126, 0.0 ], [ -58.40478, -34.780622, 0.0 ], [ -58.402422, -34.779356, 0.0 ], [ -58.402562, -34.779154, 0.0 ], [ -58.400014, -34.777794, 0.0 ], [ -58.397986, -34.776697, 0.0 ], [ -58.397342, -34.776358, 0.0 ], [ -58.396929, -34.776195, 0.0 ], [ -58.396816, -34.776041, 0.0 ], [ -58.396838, -34.775768, 0.0 ] ] } },
{ "type": "Feature", "properties": { "Name": "549 - Temperley a Cruce" }, "geometry": { "type": "LineString", "coordinates": [ [ -58.396855, -34.775703, 0.0 ], [ -58.396927, -34.775007, 0.0 ], [ -58.396975, -34.774749, 0.0 ], [ -58.396991, -34.774703, 0.0 ], [ -58.39958, -34.774915, 0.0 ], [ -58.402638, -34.776607, 0.0 ], [ -58.404218, -34.774642, 0.0 ], [ -58.405044, -34.773725, 0.0 ], [ -58.405274, -34.773862, 0.0 ], [ -58.40609, -34.778348, 0.0 ], [ -58.406572, -34.778533, 0.0 ], [ -58.407806, -34.779229, 0.0 ], [ -58.411754, -34.781352, 0.0 ], [ -58.413493, -34.782366, 0.0 ], [ -58.417205, -34.777607, 0.0 ], [ -58.423106, -34.780709, 0.0 ], [ -58.425337, -34.78189, 0.0 ], [ -58.427676, -34.782666, 0.0 ], [ -58.431281, -34.77766, 0.0 ], [ -58.438351, -34.768193, 0.0 ], [ -58.454659, -34.776707, 0.0 ], [ -58.457685, -34.778328, 0.0 ], [ -58.458457, -34.778187, 0.0 ], [ -58.458822, -34.777553, 0.0 ] ] } },
{ "type": "Feature", "properties": { "Name": "561 - Lomas a Ruta 4" }, "geometry": { "type": "LineString", "coordinates": [ [ -58.398076, -34.760227, 0.0 ], [ -58.397993, -34.759721, 0.0 ], [ -58.402406, -34.759107, 0.0 ], [ -58.405, -34.771065, 0.0 ], [ -58.414925, -34.776413, 0.0 ], [ -58.416171, -34.777096, 0.0 ], [ -58.413285, -34.780762, 0.0 ], [ -58.417785, -34.783204, 0.0 ], [ -58.41787, -34.783266, 0.0 ], [ -58.417, -34.784414, 0.0 ], [ -58.414543, -34.783056, 0.0 ], [ -58.412948, -34.785072, 0.0 ], [ -58.413986, -34.78564, 0.0 ], [ -58.414914, -34.786098, 0.0 ], [ -58.413545, -34.787884, 0.0 ], [ -58.415659, -34.789038, 0.0 ], [ -58.417086, -34.789796, 0.0 ], [ -58.417215, -34.789863, 0.0 ], [ -58.414031, -34.793845, 0.0 ], [ -58.410384, -34.791845, 0.0 ], [ -58.41003, -34.791704, 0.0 ], [ -58.409103, -34.791819, 0.0 ], [ -58.409238, -34.792632, 0.0 ], [ -58.409163, -34.794888, 0.0 ], [ -58.409195, -34.795328, 0.0 ], [ -58.408841, -34.796782, 0.0 ], [ -58.410794, -34.797866, 0.0 ], [ -58.410934, -34.797951, 0.0 ], [ -58.409212, -34.800224, 0.0 ], [ -58.415284, -34.803194, 0.0 ], [ -58.419554, -34.805308, 0.0 ], [ -58.424725, -34.80788, 0.0 ], [ -58.432309, -34.81189, 0.0 ], [ -58.432567, -34.812027, 0.0 ], [ -58.434369, -34.809569, 0.0 ], [ -58.436064, -34.807296, 0.0 ], [ -58.436628, -34.806592, 0.0 ], [ -58.437658, -34.807107, 0.0 ], [ -58.438859, -34.80564, 0.0 ], [ -58.438902, -34.804997, 0.0 ], [ -58.439031, -34.804654, 0.0 ], [ -58.439577, -34.804401, 0.0 ], [ -58.439931, -34.803775, 0.0 ], [ -58.440566, -34.802794, 0.0 ], [ -58.442604, -34.799869, 0.0 ], [ -58.443784, -34.798399, 0.0 ], [ -58.446381, -34.795138, 0.0 ], [ -58.448934, -34.792019, 0.0 ], [ -58.451616, -34.788583, 0.0 ], [ -58.453655, -34.785834, 0.0 ], [ -58.455371, -34.783419, 0.0 ], [ -58.456316, -34.782097, 0.0 ], [ -58.456552, -34.78111, 0.0 ], [ -58.457517, -34.779753, 0.0 ] ] } },
{ "type": "Feature", "properties": { "Name": "561 - Ruta 4 a Lomas" }, "geometry": { "type": "LineString", "coordinates": [ [ -58.438157, -34.804793, 0.0 ], [ -58.4364, -34.807049, 0.0 ], [ -58.435655, -34.808058, 0.0 ], [ -58.434096, -34.810126, 0.0 ], [ -58.432546, -34.812203, 0.0 ], [ -58.4276, -34.809552, 0.0 ], [ -58.417536, -34.804531, 0.0 ], [ -58.409133, -34.80033, 0.0 ], [ -58.408946, -34.800224, 0.0 ], [ -58.410126, -34.798683, 0.0 ], [ -58.408511, -34.797832, 0.0 ], [ -58.408291, -34.797731, 0.0 ], [ -58.408806, -34.795934, 0.0 ], [ -58.408946, -34.795361, 0.0 ], [ -58.408934, -34.794948, 0.0 ], [ -58.406421, -34.794708, 0.0 ], [ -58.40582, -34.791232, 0.0 ], [ -58.40581, -34.791148, 0.0 ], [ -58.40864, -34.790822, 0.0 ], [ -58.409923, -34.790687, 0.0 ], [ -58.41009, -34.791621, 0.0 ], [ -58.413898, -34.793634, 0.0 ], [ -58.416983, -34.789855, 0.0 ], [ -58.413346, -34.787895, 0.0 ], [ -58.414794, -34.786101, 0.0 ], [ -58.412767, -34.785096, 0.0 ], [ -58.414483, -34.782932, 0.0 ], [ -58.414697, -34.783046, 0.0 ], [ -58.41547, -34.782059, 0.0 ], [ -58.413115, -34.780782, 0.0 ], [ -58.415089, -34.778297, 0.0 ], [ -58.415958, -34.777177, 0.0 ], [ -58.409952, -34.773912, 0.0 ], [ -58.404652, -34.771092, 0.0 ], [ -58.403772, -34.766668, 0.0 ], [ -58.402724, -34.761674, 0.0 ], [ -58.398432, -34.762242, 0.0 ], [ -58.398244, -34.761133, 0.0 ], [ -58.398083, -34.760244, 0.0 ] ] } },
{ "type": "Feature", "properties": { "Name": "562 B - Lomas a Loma Verde" }, "geometry": { "type": "LineString", "coordinates": [ [ -58.398061, -34.760244, 0.0 ], [ -58.397985, -34.759723, 0.0 ], [ -58.403816, -34.758938, 0.0 ], [ -58.4049491, -34.764094, 0.0 ], [ -58.405255, -34.76554, 0.0 ], [ -58.413506, -34.769814, 0.0 ], [ -58.413715, -34.770017, 0.0 ], [ -58.414337, -34.773092, 0.0 ], [ -58.41276, -34.775208, 0.0 ], [ -58.42306, -34.780729, 0.0 ], [ -58.423882, -34.781178, 0.0 ], [ -58.421853, -34.784003, 0.0 ], [ -58.41734, -34.789756, 0.0 ], [ -58.419679, -34.791024, 0.0 ], [ -58.419952, -34.791143, 0.0 ], [ -58.421089, -34.79156, 0.0 ], [ -58.426089, -34.784876, 0.0 ], [ -58.430557, -34.787097, 0.0 ], [ -58.430799, -34.787238, 0.0 ], [ -58.427205, -34.79197, 0.0 ], [ -58.426661, -34.792661, 0.0 ], [ -58.426886, -34.792842, 0.0 ], [ -58.427026, -34.793177, 0.0 ], [ -58.429204, -34.793437, 0.0 ], [ -58.429907, -34.793776, 0.0 ], [ -58.430684, -34.792793, 0.0 ], [ -58.432755, -34.793833, 0.0 ], [ -58.432911, -34.793622, 0.0 ], [ -58.434279, -34.794287, 0.0 ], [ -58.434413, -34.794379, 0.0 ], [ -58.432659, -34.796635, 0.0 ], [ -58.430886, -34.796452, 0.0 ], [ -58.430837, -34.796549, 0.0 ], [ -58.430583, -34.796732, 0.0 ], [ -58.430317, -34.796804, 0.0 ], [ -58.429936, -34.79673, 0.0 ], [ -58.429464, -34.796461, 0.0 ], [ -58.429368, -34.79636, 0.0 ], [ -58.428874, -34.796338, 0.0 ], [ -58.428541, -34.796738, 0.0 ], [ -58.427114, -34.796659, 0.0 ], [ -58.426101, -34.796591, 0.0 ], [ -58.425946, -34.798551, 0.0 ], [ -58.42387, -34.801316, 0.0 ], [ -58.424111, -34.801669, 0.0 ], [ -58.424042, -34.801779, 0.0 ], [ -58.423527, -34.801744, 0.0 ], [ -58.423242, -34.80222, 0.0 ], [ -58.42821, -34.804739, 0.0 ], [ -58.428328, -34.804836, 0.0 ], [ -58.426745, -34.806906, 0.0 ], [ -58.426686, -34.80703, 0.0 ], [ -58.425377, -34.806523, 0.0 ], [ -58.422486, -34.805087, 0.0 ], [ -58.418152, -34.810791, 0.0 ], [ -58.42612, -34.814896, 0.0 ], [ -58.426753, -34.814024, 0.0 ], [ -58.42907, -34.815239, 0.0 ], [ -58.429194, -34.815318, 0.0 ], [ -58.428544, -34.816151, 0.0 ] ] } },
{ "type": "Feature", "properties": { "Name": "562 B - Loma Verde a Lomas" }, "geometry": { "type": "LineString", "coordinates": [ [ -58.428525, -34.816172, 0.0 ], [ -58.428442, -34.816276, 0.0 ], [ -58.424649, -34.814541, 0.0 ], [ -58.420425, -34.812289, 0.0 ], [ -58.417737, -34.810946, 0.0 ], [ -58.422404, -34.804907, 0.0 ], [ -58.425371, -34.806374, 0.0 ], [ -58.426583, -34.806859, 0.0 ], [ -58.428166, -34.804835, 0.0 ], [ -58.422925, -34.802236, 0.0 ], [ -58.423375, -34.801641, 0.0 ], [ -58.423214, -34.801483, 0.0 ], [ -58.423204, -34.801324, 0.0 ], [ -58.423289, -34.801214, 0.0 ], [ -58.423504, -34.801196, 0.0 ], [ -58.423692, -34.801236, 0.0 ], [ -58.424602, -34.800075, 0.0 ], [ -58.423276, -34.799397, 0.0 ], [ -58.424547, -34.797661, 0.0 ], [ -58.42577, -34.798309, 0.0 ], [ -58.425969, -34.796432, 0.0 ], [ -58.428356, -34.796613, 0.0 ], [ -58.42848, -34.796582, 0.0 ], [ -58.428708, -34.796269, 0.0 ], [ -58.42882, -34.796208, 0.0 ], [ -58.428936, -34.796194, 0.0 ], [ -58.429411, -34.796252, 0.0 ], [ -58.429482, -34.796366, 0.0 ], [ -58.429623, -34.796472, 0.0 ], [ -58.429946, -34.796655, 0.0 ], [ -58.430212, -34.796725, 0.0 ], [ -58.430378, -34.79673, 0.0 ], [ -58.430504, -34.796686, 0.0 ], [ -58.430689, -34.796573, 0.0 ], [ -58.430794, -34.796496, 0.0 ], [ -58.430804, -34.796435, 0.0 ], [ -58.430869, -34.796314, 0.0 ], [ -58.432636, -34.796458, 0.0 ], [ -58.434213, -34.794396, 0.0 ], [ -58.432969, -34.793762, 0.0 ], [ -58.432797, -34.793986, 0.0 ], [ -58.430727, -34.792964, 0.0 ], [ -58.429976, -34.793951, 0.0 ], [ -58.429203, -34.793563, 0.0 ], [ -58.427041, -34.793308, 0.0 ], [ -58.426848, -34.793488, 0.0 ], [ -58.42651, -34.793559, 0.0 ], [ -58.425947, -34.793449, 0.0 ], [ -58.425727, -34.793316, 0.0 ], [ -58.42555, -34.793004, 0.0 ], [ -58.425539, -34.792828, 0.0 ], [ -58.425636, -34.792665, 0.0 ], [ -58.425861, -34.792563, 0.0 ], [ -58.426226, -34.792532, 0.0 ], [ -58.426467, -34.792607, 0.0 ], [ -58.430416, -34.78725, 0.0 ], [ -58.426135, -34.785074, 0.0 ], [ -58.421136, -34.791735, 0.0 ], [ -58.419729, -34.791223, 0.0 ], [ -58.417106, -34.789742, 0.0 ], [ -58.423519, -34.781236, 0.0 ], [ -58.413742, -34.776044, 0.0 ], [ -58.413619, -34.775961, 0.0 ], [ -58.416811, -34.771845, 0.0 ], [ -58.403314, -34.764742, 0.0 ], [ -58.402673, -34.761713, 0.0 ], [ -58.40102, -34.761845, 0.0 ], [ -58.398391, -34.762222, 0.0 ], [ -58.398067, -34.760254, 0.0 ] ] } },
{ "type": "Feature", "properties": { "Name": "562 C - Loma Verde a Lomas" }, "geometry": { "type": "LineString", "coordinates": [ [ -58.428557, -34.81618, 0.0 ], [ -58.428455, -34.816306, 0.0 ], [ -58.425912, -34.815043, 0.0 ], [ -58.423568, -34.813916, 0.0 ], [ -58.417748, -34.810982, 0.0 ], [ -58.422395, -34.804835, 0.0 ], [ -58.425579, -34.806401, 0.0 ], [ -58.426566, -34.806798, 0.0 ], [ -58.428111, -34.804842, 0.0 ], [ -58.422889, -34.802242, 0.0 ], [ -58.423323, -34.801632, 0.0 ], [ -58.423172, -34.801478, 0.0 ], [ -58.423189, -34.801289, 0.0 ], [ -58.423248, -34.80121, 0.0 ], [ -58.423435, -34.801152, 0.0 ], [ -58.423704, -34.801152, 0.0 ], [ -58.424519, -34.800077, 0.0 ], [ -58.423226, -34.799417, 0.0 ], [ -58.424554, -34.797641, 0.0 ], [ -58.425745, -34.798262, 0.0 ], [ -58.425772, -34.797994, 0.0 ], [ -58.425941, -34.796366, 0.0 ], [ -58.428424, -34.79656, 0.0 ], [ -58.428714, -34.79619, 0.0 ], [ -58.428966, -34.796159, 0.0 ], [ -58.429427, -34.796225, 0.0 ], [ -58.429546, -34.796384, 0.0 ], [ -58.42969, -34.796485, 0.0 ], [ -58.429946, -34.796655, 0.0 ], [ -58.43027, -34.796696, 0.0 ], [ -58.430463, -34.796661, 0.0 ], [ -58.430731, -34.796494, 0.0 ], [ -58.430857, -34.796293, 0.0 ], [ -58.43263, -34.796437, 0.0 ], [ -58.434167, -34.794412, 0.0 ], [ -58.432973, -34.793798, 0.0 ], [ -58.432823, -34.794016, 0.0 ], [ -58.430736, -34.793005, 0.0 ], [ -58.430027, -34.793983, 0.0 ], [ -58.42918, -34.793595, 0.0 ], [ -58.427072, -34.793336, 0.0 ], [ -58.42683, -34.793525, 0.0 ], [ -58.426425, -34.793576, 0.0 ], [ -58.425768, -34.793415, 0.0 ], [ -58.425532, -34.79304, 0.0 ], [ -58.425486, -34.792796, 0.0 ], [ -58.425701, -34.792576, 0.0 ], [ -58.423818, -34.787819, 0.0 ], [ -58.426082, -34.78485, 0.0 ], [ -58.430566, -34.787032, 0.0 ], [ -58.432385, -34.784702, 0.0 ], [ -58.427402, -34.782918, 0.0 ], [ -58.430379, -34.778838, 0.0 ], [ -58.425443, -34.776439, 0.0 ], [ -58.418297, -34.77272, 0.0 ], [ -58.403148, -34.764753, 0.0 ], [ -58.402623, -34.76175, 0.0 ], [ -58.398404, -34.762274, 0.0 ], [ -58.398107, -34.760414, 0.0 ] ] } },
{ "type": "Feature", "properties": { "Name": "562 C - Lomas a Loma Verde" }, "geometry": { "type": "LineString", "coordinates": [ [ -58.398102, -34.760407, 0.0 ], [ -58.398012, -34.759746, 0.0 ], [ -58.403866, -34.75893, 0.0 ], [ -58.405201, -34.765494, 0.0 ], [ -58.419772, -34.773103, 0.0 ], [ -58.425393, -34.7761, 0.0 ], [ -58.431037, -34.778884, 0.0 ], [ -58.428021, -34.782804, 0.0 ], [ -58.432784, -34.784655, 0.0 ], [ -58.430614, -34.787388, 0.0 ], [ -58.426135, -34.785129, 0.0 ], [ -58.424036, -34.787832, 0.0 ], [ -58.424127, -34.788184, 0.0 ], [ -58.42586, -34.792608, 0.0 ], [ -58.426391, -34.79255, 0.0 ], [ -58.426809, -34.792748, 0.0 ], [ -58.426986, -34.79296, 0.0 ], [ -58.427067, -34.793136, 0.0 ], [ -58.429212, -34.793409, 0.0 ], [ -58.429953, -34.793762, 0.0 ], [ -58.430658, -34.792784, 0.0 ], [ -58.432734, -34.793797, 0.0 ], [ -58.432911, -34.79359, 0.0 ], [ -58.434415, -34.794341, 0.0 ], [ -58.432726, -34.796622, 0.0 ], [ -58.430918, -34.796476, 0.0 ], [ -58.430813, -34.796589, 0.0 ], [ -58.430577, -34.796756, 0.0 ], [ -58.430309, -34.79682, 0.0 ], [ -58.429904, -34.796738, 0.0 ], [ -58.429464, -34.796492, 0.0 ], [ -58.429347, -34.796376, 0.0 ], [ -58.428883, -34.79636, 0.0 ], [ -58.428652, -34.79666, 0.0 ], [ -58.428408, -34.796752, 0.0 ], [ -58.42615, -34.796629, 0.0 ], [ -58.426013, -34.798431, 0.0 ], [ -58.423919, -34.801318, 0.0 ], [ -58.424139, -34.801605, 0.0 ], [ -58.424107, -34.801829, 0.0 ], [ -58.424048, -34.801834, 0.0 ], [ -58.423586, -34.801794, 0.0 ], [ -58.423232, -34.802177, 0.0 ], [ -58.428427, -34.804798, 0.0 ], [ -58.426721, -34.807088, 0.0 ], [ -58.422491, -34.805162, 0.0 ], [ -58.418088, -34.810877, 0.0 ], [ -58.426064, -34.814882, 0.0 ], [ -58.4267, -34.814008, 0.0 ], [ -58.429269, -34.815336, 0.0 ], [ -58.428601, -34.816159, 0.0 ] ] } }
]
}
