{
"type": "FeatureCollection",
"name": "Recorridos Provinciales",
"crs": { "type": "name", "properties": { "name": "urn:ogc:def:crs:OGC:1.3:CRS84" } },
"features": [
{ "type": "Feature", "properties": { "Name": "239 P - Desde Estacion Banfield", "Descripci__n": "", "nombre": "" }, "geometry": { "type": "LineString", "coordinates": [ [ -58.3951844, -34.7447673, 0.0 ], [ -58.3951925, -34.7449855, 0.0 ], [ -58.3951603, -34.7451707, 0.0 ], [ -58.3950825, -34.7452236, 0.0 ], [ -58.3950611, -34.7451729, 0.0 ], [ -58.3948948, -34.7444389, 0.0 ], [ -58.3946024, -34.7430967, 0.0 ], [ -58.3789651, -34.7450979, 0.0 ], [ -58.3743008, -34.7512181, 0.0 ], [ -58.370772, -34.7493532, 0.0 ], [ -58.3701568, -34.7528736, 0.0 ], [ -58.3553307, -34.7451394, 0.0 ], [ -58.3527216, -34.7486854, 0.0 ], [ -58.3512115, -34.7478281, 0.0 ], [ -58.3505356, -34.747535, 0.0 ], [ -58.3476098, -34.7460457, 0.0 ], [ -58.3475683, -34.7461129, 0.0 ], [ -58.3465651, -34.7456622, 0.0 ], [ -58.3469996, -34.7445184, 0.0 ], [ -58.3466268, -34.7443509, 0.0 ], [ -58.3486009, -34.741695, 0.0 ], [ -58.347182, -34.7409743, 0.0 ], [ -58.3470866, -34.7409168, 0.0 ], [ -58.3474568, -34.7398401, 0.0 ] ] } },
{ "type": "Feature", "properties": { "Name": "239 P - Desde Caguazu", "Descripci__n": "", "nombre": "" }, "geometry": { "type": "LineString", "coordinates": [ [ -58.3475313, -34.7410131, 0.0 ], [ -58.3487544, -34.7416545, 0.0 ], [ -58.3467615, -34.7443279, 0.0 ], [ -58.3471242, -34.7445053, 0.0 ], [ -58.3467084, -34.7456294, 0.0 ], [ -58.3475346, -34.7460018, 0.0 ], [ -58.3475882, -34.7459401, 0.0 ], [ -58.3505386, -34.7474388, 0.0 ], [ -58.3512789, -34.747787, 0.0 ], [ -58.3526742, -34.74853, 0.0 ], [ -58.3552996, -34.7450189, 0.0 ], [ -58.3602053, -34.7474917, 0.0 ], [ -58.3647543, -34.7498542, 0.0 ], [ -58.3700556, -34.7526667, 0.0 ], [ -58.3706779, -34.7492199, 0.0 ], [ -58.3742747, -34.7510777, 0.0 ], [ -58.3788613, -34.7451294, 0.0 ], [ -58.3788559, -34.7450236, 0.0 ], [ -58.3844048, -34.7442948, 0.0 ], [ -58.3859444, -34.7441096, 0.0 ], [ -58.3862019, -34.7452954, 0.0 ], [ -58.3933098, -34.7443697, 0.0 ], [ -58.3949621, -34.7440546, 0.0 ], [ -58.3947588, -34.7438969, 0.0 ], [ -58.3949828, -34.7439046, 0.0 ], [ -58.3950794, -34.7439663, 0.0 ], [ -58.395184, -34.7447509, 0.0 ] ] } },
{ "type": "Feature", "properties": { "Name": "239 W - Desde Estacion Banfield", "Descripci__n": "", "nombre": "" }, "geometry": { "type": "LineString", "coordinates": [ [ -58.3951976, -34.7445862, 0.0 ], [ -58.3952124, -34.7448363, 0.0 ], [ -58.3952258, -34.7450589, 0.0 ], [ -58.395203, -34.7451603, 0.0 ], [ -58.395144, -34.7452363, 0.0 ], [ -58.3950582, -34.7452517, 0.0 ], [ -58.3946116, -34.7431002, 0.0 ], [ -58.3803487, -34.7449048, 0.0 ], [ -58.3802696, -34.744917, 0.0 ], [ -58.3800899, -34.743923, 0.0 ], [ -58.3787785, -34.7443092, 0.0 ], [ -58.3763511, -34.7450762, 0.0 ], [ -58.3708995, -34.742244, 0.0 ], [ -58.3668391, -34.7455002, 0.0 ], [ -58.3639613, -34.7493845, 0.0 ], [ -58.3565609, -34.7589102, 0.0 ], [ -58.3606325, -34.760896, 0.0 ], [ -58.3635615, -34.7623036, 0.0 ], [ -58.3621184, -34.7642471, 0.0 ], [ -58.3620487, -34.7643132, 0.0 ], [ -58.3610938, -34.7638725, 0.0 ], [ -58.3594765, -34.7660385, 0.0 ] ] } },
{ "type": "Feature", "properties": { "Name": "239 W - Desde Jujuy", "Descripci__n": "", "nombre": "" }, "geometry": { "type": "LineString", "coordinates": [ [ -58.3574266, -34.7649861, 0.0 ], [ -58.3578943, -34.7643786, 0.0 ], [ -58.3592569, -34.7628406, 0.0 ], [ -58.3605531, -34.7610202, 0.0 ], [ -58.3563635, -34.7589489, 0.0 ], [ -58.3583131, -34.7561826, 0.0 ], [ -58.3594963, -34.7549206, 0.0 ], [ -58.3637074, -34.7494597, 0.0 ], [ -58.3661428, -34.7461582, 0.0 ], [ -58.3666042, -34.7454882, 0.0 ], [ -58.3689925, -34.7435846, 0.0 ], [ -58.3708772, -34.742107, 0.0 ], [ -58.3762094, -34.744862, 0.0 ], [ -58.3802381, -34.7437292, 0.0 ], [ -58.3868041, -34.7417279, 0.0 ] ] } },
{ "type": "Feature", "properties": { "Name": "247 - Desde Recondo y Pio Baroja", "Descripci__n": "", "nombre": "" }, "geometry": { "type": "LineString", "coordinates": [ [ -58.4474537, -34.7126395, 0.0 ], [ -58.4341479, -34.7056229, 0.0 ] ] } },
{ "type": "Feature", "properties": { "Name": "247 - Desde Recondo y Hornos", "Descripci__n": "", "nombre": "" }, "geometry": { "type": "LineString", "coordinates": [ [ -58.4342339, -34.7055133, 0.0 ], [ -58.4473871, -34.712456, 0.0 ] ] } },
{ "type": "Feature", "properties": { "Name": "247 RAMAL 7 y 2 - Desde Eva Peron y Donato", "Descripci__n": "", "nombre": "" }, "geometry": { "type": "LineString", "coordinates": [ [ -58.3409362, -34.7509096, 0.0 ], [ -58.3495928, -34.75547, 0.0 ], [ -58.3465431, -34.7595345, 0.0 ] ] } },
{ "type": "Feature", "properties": { "Name": "247 RAMAL 7 y 2 - Desde San Cristobal y Garay", "Descripci__n": "", "nombre": "" }, "geometry": { "type": "LineString", "coordinates": [ [ -58.3464315, -34.7594645, 0.0 ], [ -58.3494174, -34.755496, 0.0 ], [ -58.3422592, -34.7517626, 0.0 ], [ -58.3402744, -34.7507357, 0.0 ], [ -58.3394577, -34.7505131, 0.0 ] ] } },
{ "type": "Feature", "properties": { "Name": "266 RAMAL 1 - Desde Estacion Lomas", "Descripci__n": "", "nombre": "" }, "geometry": { "type": "LineString", "coordinates": [ [ -58.3962477, -34.7612728, 0.0 ], [ -58.3895314, -34.7622093, 0.0 ], [ -58.3896495, -34.7629849, 0.0 ], [ -58.3878063, -34.7656558, 0.0 ], [ -58.3800011, -34.7615551, 0.0 ], [ -58.3763506, -34.7670593, 0.0 ], [ -58.3751934, -34.7683267, 0.0 ], [ -58.339423, -34.7505521, 0.0 ] ] } },
{ "type": "Feature", "properties": { "Name": "266 RAMAL 1 - Desde Eva Peron", "Descripci__n": "", "nombre": "" }, "geometry": { "type": "LineString", "coordinates": [ [ -58.3423153, -34.7516155, 0.0 ], [ -58.3461107, -34.7536033, 0.0 ], [ -58.3483583, -34.7548021, 0.0 ], [ -58.3564329, -34.7588402, 0.0 ], [ -58.3751751, -34.7681687, 0.0 ], [ -58.3761836, -34.7670538, 0.0 ], [ -58.3768488, -34.766005, 0.0 ], [ -58.3799548, -34.7613953, 0.0 ], [ -58.3896107, -34.766503, 0.0 ], [ -58.3915038, -34.7639866, 0.0 ], [ -58.3912785, -34.7639205, 0.0 ], [ -58.3906284, -34.7606664, 0.0 ], [ -58.3960481, -34.759976, 0.0 ] ] } },
{ "type": "Feature", "properties": { "Name": "266 RAMAL 2 - Desde Balcarce", "Descripci__n": "", "nombre": "" }, "geometry": { "type": "LineString", "coordinates": [ [ -58.3964902, -34.7612621, 0.0 ], [ -58.3886609, -34.7623573, 0.0 ], [ -58.3884718, -34.7623826, 0.0 ], [ -58.3775498, -34.7566809, 0.0 ], [ -58.3701226, -34.7528238, 0.0 ], [ -58.3689485, -34.7522157, 0.0 ], [ -58.3621638, -34.7616472, 0.0 ], [ -58.3625367, -34.7618345, 0.0 ], [ -58.359467, -34.7660371, 0.0 ] ] } },
{ "type": "Feature", "properties": { "Name": "266 RAMAL 2 - Desde Jujuy", "Descripci__n": "", "nombre": "" }, "geometry": { "type": "LineString", "coordinates": [ [ -58.3574266, -34.7649861, 0.0 ], [ -58.3592228, -34.7629121, 0.0 ], [ -58.3606269, -34.7609124, 0.0 ], [ -58.3620661, -34.7616069, 0.0 ], [ -58.3689274, -34.752092, 0.0 ], [ -58.3754063, -34.7554395, 0.0 ], [ -58.3872636, -34.7616015, 0.0 ], [ -58.3874889, -34.7611784, 0.0 ], [ -58.3876015, -34.7610506, 0.0 ], [ -58.3878322, -34.7610286, 0.0 ], [ -58.3960424, -34.7599918, 0.0 ] ] } },
{ "type": "Feature", "properties": { "Name": "266 RAMAL 4 - Desde Estacion Lomas", "Descripci__n": "", "nombre": "" }, "geometry": { "type": "LineString", "coordinates": [ [ -58.3966415, -34.7612145, 0.0 ], [ -58.3885098, -34.7623877, 0.0 ], [ -58.3851607, -34.7606205, 0.0 ], [ -58.3839148, -34.7624604, 0.0 ], [ -58.3828205, -34.7618523, 0.0 ], [ -58.3786631, -34.7681012, 0.0 ], [ -58.3764315, -34.7669158, 0.0 ], [ -58.3751574, -34.7683766, 0.0 ], [ -58.3744708, -34.7693241, 0.0 ], [ -58.3738269, -34.7701005, 0.0 ], [ -58.3702987, -34.7748649, 0.0 ], [ -58.3747136, -34.7770063, 0.0 ], [ -58.375993, -34.777621, 0.0 ], [ -58.374668, -34.7793768, 0.0 ] ] } },
{ "type": "Feature", "properties": { "Name": "266 RAMAL 4 - Desde Riglos", "Descripci__n": "", "nombre": "" }, "geometry": { "type": "LineString", "coordinates": [ [ -58.3750719, -34.7786535, 0.0 ], [ -58.3758068, -34.7776665, 0.0 ], [ -58.3701594, -34.774809, 0.0 ], [ -58.3750916, -34.7682898, 0.0 ], [ -58.3751913, -34.7681657, 0.0 ], [ -58.3775945, -34.7694745, 0.0 ], [ -58.379754, -34.7661173, 0.0 ], [ -58.383949, -34.759866, 0.0 ], [ -58.3872548, -34.7616079, 0.0 ], [ -58.3875056, -34.7611727, 0.0 ], [ -58.3875512, -34.7611176, 0.0 ], [ -58.3876303, -34.7610735, 0.0 ], [ -58.3960531, -34.7599996, 0.0 ] ] } },
{ "type": "Feature", "properties": { "Name": "266 RAMAL 5 - Desde Estacion Lomas", "Descripci__n": "", "nombre": "" }, "geometry": { "type": "LineString", "coordinates": [ [ -58.3969207, -34.7606065, 0.0 ], [ -58.3969905, -34.7606682, 0.0 ], [ -58.3970146, -34.7607938, 0.0 ], [ -58.3970481, -34.7610042, 0.0 ], [ -58.3970079, -34.7611276, 0.0 ], [ -58.3969194, -34.7611739, 0.0 ], [ -58.3922923, -34.7619157, 0.0 ], [ -58.3909572, -34.762069, 0.0 ], [ -58.3901759, -34.7584719, 0.0 ], [ -58.3885451, -34.7586482, 0.0 ], [ -58.3707942, -34.7493882, 0.0 ], [ -58.3701711, -34.7528416, 0.0 ], [ -58.3471775, -34.7409579, 0.0 ], [ -58.345666, -34.7451466, 0.0 ], [ -58.3526746, -34.7485605, 0.0 ], [ -58.3527895, -34.7486204, 0.0 ], [ -58.3486055, -34.7542058, 0.0 ], [ -58.3481576, -34.7547369, 0.0 ], [ -58.3480557, -34.7548404, 0.0 ], [ -58.3421267, -34.7517055, 0.0 ], [ -58.3402759, -34.7507634, 0.0 ], [ -58.3394391, -34.7505298, 0.0 ] ] } },
{ "type": "Feature", "properties": { "Name": "266 RAMAL 5 - Desde Eva Peron", "Descripci__n": "", "nombre": "" }, "geometry": { "type": "LineString", "coordinates": [ [ -58.3395367, -34.7504187, 0.0 ], [ -58.3404917, -34.7506642, 0.0 ], [ -58.3423478, -34.7516603, 0.0 ], [ -58.3460546, -34.7536305, 0.0 ], [ -58.3473166, -34.7543093, 0.0 ], [ -58.3480086, -34.7546861, 0.0 ], [ -58.3484056, -34.7542718, 0.0 ], [ -58.3486684, -34.7538839, 0.0 ], [ -58.3526062, -34.7486317, 0.0 ], [ -58.3505341, -34.7475531, 0.0 ], [ -58.3476176, -34.7460664, 0.0 ], [ -58.347564, -34.7461612, 0.0 ], [ -58.3455091, -34.7451968, 0.0 ], [ -58.3459436, -34.7440331, 0.0 ], [ -58.3471023, -34.7408108, 0.0 ], [ -58.3638065, -34.7493756, 0.0 ], [ -58.3700753, -34.7526771, 0.0 ], [ -58.3707023, -34.7492083, 0.0 ], [ -58.3880937, -34.75827, 0.0 ], [ -58.3886377, -34.7585601, 0.0 ], [ -58.389197, -34.7608529, 0.0 ], [ -58.3960695, -34.7599821, 0.0 ] ] } },
{ "type": "Feature", "properties": { "Name": "266 RAMAL 6 - Desde Estacion Lomas", "Descripci__n": "", "nombre": "" }, "geometry": { "type": "LineString", "coordinates": [ [ -58.3965513, -34.7616089, 0.0 ], [ -58.3967869, -34.7643241, 0.0 ], [ -58.3968092, -34.7648129, 0.0 ], [ -58.3938364, -34.7651283, 0.0 ], [ -58.3937032, -34.7651875, 0.0 ], [ -58.3916182, -34.7640685, 0.0 ], [ -58.3896173, -34.7666773, 0.0 ], [ -58.3891882, -34.766435, 0.0 ], [ -58.3858569, -34.7709694, 0.0 ], [ -58.3860929, -34.771084, 0.0 ], [ -58.3809833, -34.7775834, 0.0 ], [ -58.3813029, -34.7776879, 0.0 ], [ -58.3795, -34.7801944, 0.0 ] ] } },
{ "type": "Feature", "properties": { "Name": "266 RAMAL 6 - Desde Achupallas", "Descripci__n": "", "nombre": "" }, "geometry": { "type": "LineString", "coordinates": [ [ -58.3784827, -34.7813637, 0.0 ], [ -58.3810952, -34.7777464, 0.0 ], [ -58.3808001, -34.7776318, 0.0 ], [ -58.3858695, -34.77115, 0.0 ], [ -58.3856549, -34.7709914, 0.0 ], [ -58.3891418, -34.7662719, 0.0 ], [ -58.3895656, -34.7665142, 0.0 ], [ -58.3915325, -34.7639963, 0.0 ], [ -58.3913019, -34.7638817, 0.0 ], [ -58.3906622, -34.7606767, 0.0 ], [ -58.3960559, -34.7599935, 0.0 ] ] } },
{ "type": "Feature", "properties": { "Name": "266 RAMAL 7/8 - Desde Estacion Banfield", "Descripci__n": "", "nombre": "" }, "geometry": { "type": "LineString", "coordinates": [ [ -58.3952726, -34.7449686, 0.0 ], [ -58.3952391, -34.7450722, 0.0 ], [ -58.395172, -34.745178, 0.0 ], [ -58.3951251, -34.7452188, 0.0 ], [ -58.3950433, -34.7452386, 0.0 ], [ -58.3945766, -34.7431228, 0.0 ], [ -58.3933588, -34.7432771, 0.0 ], [ -58.3937773, -34.745534, 0.0 ], [ -58.3942517, -34.7481016, 0.0 ], [ -58.3946916, -34.7504443, 0.0 ], [ -58.3952951, -34.7539857, 0.0 ], [ -58.3959281, -34.7575557, 0.0 ], [ -58.3965028, -34.7611347, 0.0 ], [ -58.3968092, -34.7648129, 0.0 ], [ -58.3938364, -34.7651283, 0.0 ], [ -58.3936972, -34.7651737, 0.0 ], [ -58.3901015, -34.769777, 0.0 ], [ -58.3785214, -34.7638164, 0.0 ], [ -58.37353, -34.7616356, 0.0 ], [ -58.3784736, -34.7607717, 0.0 ], [ -58.3713113, -34.7571206, 0.0 ], [ -58.3701642, -34.7565343, 0.0 ], [ -58.3688209, -34.7585871, 0.0 ], [ -58.3689282, -34.7593584, 0.0 ], [ -58.3681664, -34.7603963, 0.0 ], [ -58.3690998, -34.760837, 0.0 ], [ -58.369529, -34.7622472, 0.0 ], [ -58.3683434, -34.7636442, 0.0 ], [ -58.3664981, -34.7628047, 0.0 ], [ -58.3659321, -34.7636464, 0.0 ], [ -58.3624493, -34.7619222, 0.0 ], [ -58.3594859, -34.7660403, 0.0 ] ] } },
{ "type": "Feature", "properties": { "Name": "266 RAMAL 7/8 - Desde Jujuy", "Descripci__n": "", "nombre": "" }, "geometry": { "type": "LineString", "coordinates": [ [ -58.3574431, -34.765021, 0.0 ], [ -58.3579581, -34.7643203, 0.0 ], [ -58.359212, -34.7629123, 0.0 ], [ -58.3606372, -34.7609213, 0.0 ], [ -58.3686626, -34.7648536, 0.0 ], [ -58.3687217, -34.7647611, 0.0 ], [ -58.3683891, -34.7640604, 0.0 ], [ -58.3682163, -34.7636253, 0.0 ], [ -58.3694099, -34.7622415, 0.0 ], [ -58.3684142, -34.7569441, 0.0 ], [ -58.3683605, -34.7565122, 0.0 ], [ -58.3763896, -34.7606297, 0.0 ], [ -58.37652, -34.760695, 0.0 ], [ -58.3754766, -34.7621317, 0.0 ], [ -58.3898735, -34.7695645, 0.0 ], [ -58.393583, -34.7651093, 0.0 ], [ -58.3941463, -34.7649418, 0.0 ], [ -58.3965134, -34.7647176, 0.0 ], [ -58.3961789, -34.760928, 0.0 ], [ -58.3944408, -34.7513112, 0.0 ], [ -58.3934323, -34.7457619, 0.0 ], [ -58.3932791, -34.7443888, 0.0 ], [ -58.39482, -34.7441707, 0.0 ], [ -58.3947596, -34.7439095, 0.0 ], [ -58.3949789, -34.7439273, 0.0 ], [ -58.3950647, -34.7439956, 0.0 ], [ -58.3952525, -34.7449587, 0.0 ] ] } },
{ "type": "Feature", "properties": { "Name": "271 A - Desde Ejercito", "Descripci__n": "", "nombre": "" }, "geometry": { "type": "LineString", "coordinates": [ [ -58.4432138, -34.721565, 0.0 ], [ -58.4397182, -34.7197294, 0.0 ], [ -58.4370149, -34.7182038, 0.0 ], [ -58.432883, -34.7160729, 0.0 ], [ -58.4300803, -34.7196885, 0.0 ], [ -58.4243153, -34.7272799, 0.0 ], [ -58.4231727, -34.7287568, 0.0 ], [ -58.4241137, -34.7291801, 0.0 ], [ -58.4236201, -34.7298877, 0.0 ], [ -58.423547, -34.7299968, 0.0 ], [ -58.4189068, -34.7275432, 0.0 ], [ -58.418314, -34.7282697, 0.0 ], [ -58.4171837, -34.7276869, 0.0 ] ] } },
{ "type": "Feature", "properties": { "Name": "271 A - Desde Cementerio Lomas", "Descripci__n": "", "nombre": "" }, "geometry": { "type": "LineString", "coordinates": [ [ -58.4205072, -34.7282557, 0.0 ], [ -58.4225099, -34.7293052, 0.0 ], [ -58.4248461, -34.7263656, 0.0 ], [ -58.428923, -34.7210307, 0.0 ], [ -58.432206, -34.7167625, 0.0 ], [ -58.4328534, -34.715925, 0.0 ], [ -58.4429841, -34.7214631, 0.0 ] ] } },
{ "type": "Feature", "properties": { "Name": "278 A - Desde Banfield", "Descripci__n": "", "nombre": "" }, "geometry": { "type": "LineString", "coordinates": [ [ -58.3947564, -34.743904, 0.0 ], [ -58.394598, -34.7431069, 0.0 ], [ -58.387381, -34.7440258, 0.0 ], [ -58.3887217, -34.7525008, 0.0 ], [ -58.3890463, -34.7548808, 0.0 ], [ -58.3893842, -34.7573269, 0.0 ], [ -58.3899904, -34.7572123, 0.0 ], [ -58.390742, -34.7606619, 0.0 ], [ -58.396321, -34.7599413, 0.0 ], [ -58.3964846, -34.7612745, 0.0 ], [ -58.3968185, -34.764713, 0.0 ], [ -58.3965757, -34.7702968, 0.0 ], [ -58.3950644, -34.7723843, 0.0 ], [ -58.3936884, -34.774365, 0.0 ], [ -58.3957993, -34.7745677, 0.0 ], [ -58.395643, -34.7760009, 0.0 ], [ -58.392757, -34.7757079, 0.0 ], [ -58.3913622, -34.774933, 0.0 ], [ -58.3901853, -34.7764476, 0.0 ], [ -58.3889639, -34.775743, 0.0 ], [ -58.381529, -34.7717218, 0.0 ], [ -58.3663516, -34.7638694, 0.0 ], [ -58.3407526, -34.7509803, 0.0 ], [ -58.3401383, -34.7507027, 0.0 ], [ -58.3394249, -34.7505153, 0.0 ] ] } },
{ "type": "Feature", "properties": { "Name": "278 A - Desde Eva Peron y Donato", "Descripci__n": "", "nombre": "" }, "geometry": { "type": "LineString", "coordinates": [ [ -58.3403736, -34.7506704, 0.0 ], [ -58.3405802, -34.7507431, 0.0 ], [ -58.3557293, -34.7585093, 0.0 ], [ -58.3620487, -34.7615747, 0.0 ], [ -58.3668119, -34.7639254, 0.0 ], [ -58.3914882, -34.7770129, 0.0 ], [ -58.3931753, -34.7779448, 0.0 ], [ -58.3935347, -34.778099, 0.0 ], [ -58.3936849, -34.778218, 0.0 ], [ -58.3938485, -34.7783149, 0.0 ], [ -58.3940953, -34.778381, 0.0 ], [ -58.3943796, -34.7785572, 0.0 ], [ -58.3948678, -34.7788392, 0.0 ], [ -58.3951789, -34.778989, 0.0 ], [ -58.3952701, -34.7788965, 0.0 ], [ -58.3952916, -34.7785, 0.0 ], [ -58.3953077, -34.77798, 0.0 ], [ -58.3954686, -34.7770635, 0.0 ], [ -58.3955304, -34.7760052, 0.0 ], [ -58.3927381, -34.775724, 0.0 ], [ -58.3925235, -34.7756029, 0.0 ], [ -58.3947927, -34.7723708, 0.0 ], [ -58.39625, -34.7703333, 0.0 ], [ -58.3964379, -34.766641, 0.0 ], [ -58.3965344, -34.7648827, 0.0 ], [ -58.3964379, -34.7636928, 0.0 ], [ -58.3962448, -34.7612613, 0.0 ], [ -58.3910529, -34.7620053, 0.0 ], [ -58.3909609, -34.7620237, 0.0 ], [ -58.3909287, -34.7619301, 0.0 ], [ -58.3898605, -34.7573247, 0.0 ], [ -58.3898391, -34.7572277, 0.0 ], [ -58.3899598, -34.7572035, 0.0 ], [ -58.3897318, -34.7561083, 0.0 ] ] } },
{ "type": "Feature", "properties": { "Name": "278 B - Desde Estacion Banfield", "Descripci__n": "", "nombre": "" }, "geometry": { "type": "LineString", "coordinates": [ [ -58.3951776, -34.7445128, 0.0 ], [ -58.3952285, -34.745037, 0.0 ], [ -58.3951976, -34.7451274, 0.0 ], [ -58.3951453, -34.7451957, 0.0 ], [ -58.3950501, -34.7452166, 0.0 ], [ -58.394608, -34.7430975, 0.0 ], [ -58.3873702, -34.74401, 0.0 ], [ -58.3877958, -34.7464108, 0.0 ], [ -58.3850009, -34.7467502, 0.0 ], [ -58.3853174, -34.7486147, 0.0 ], [ -58.3852638, -34.7487293, 0.0 ], [ -58.3808688, -34.7545277, 0.0 ], [ -58.3787018, -34.7572893, 0.0 ], [ -58.3689634, -34.752256, 0.0 ], [ -58.3621638, -34.7616472, 0.0 ], [ -58.3620841, -34.761752, 0.0 ], [ -58.3561697, -34.7588536, 0.0 ], [ -58.3521969, -34.7568784, 0.0 ], [ -58.3495136, -34.7555493, 0.0 ], [ -58.346572, -34.7595309, 0.0 ] ] } },
{ "type": "Feature", "properties": { "Name": "278 B - Desde San Cristobal", "Descripci__n": "", "nombre": "" }, "geometry": { "type": "LineString", "coordinates": [ [ -58.3464315, -34.7594645, 0.0 ], [ -58.3494145, -34.7554912, 0.0 ], [ -58.3494681, -34.7554008, 0.0 ], [ -58.3620619, -34.761596, 0.0 ], [ -58.3689144, -34.7520853, 0.0 ], [ -58.3787022, -34.7571604, 0.0 ], [ -58.3851964, -34.7486402, 0.0 ], [ -58.384617, -34.7454467, 0.0 ], [ -58.3942883, -34.7442492, 0.0 ], [ -58.3948314, -34.7441798, 0.0 ], [ -58.3947588, -34.7438969, 0.0 ], [ -58.3948824, -34.7439054, 0.0 ], [ -58.3949669, -34.743912, 0.0 ], [ -58.3950647, -34.7439956, 0.0 ], [ -58.3951007, -34.7441452, 0.0 ], [ -58.3951839, -34.7444978, 0.0 ] ] } },
{ "type": "Feature", "properties": { "Name": "278 S - Desde Estacion Banfield", "Descripci__n": "", "nombre": "" }, "geometry": { "type": "LineString", "coordinates": [ [ -58.3951017, -34.7440859, 0.0 ], [ -58.3952162, -34.7450012, 0.0 ], [ -58.3952029, -34.7451148, 0.0 ], [ -58.3951647, -34.7451792, 0.0 ], [ -58.3951211, -34.7452128, 0.0 ], [ -58.3950447, -34.7452327, 0.0 ], [ -58.3946106, -34.7430971, 0.0 ], [ -58.3873629, -34.7440156, 0.0 ], [ -58.3877958, -34.7464108, 0.0 ], [ -58.3823924, -34.7470983, 0.0 ], [ -58.382033, -34.7469352, 0.0 ], [ -58.3797316, -34.7498553, 0.0 ], [ -58.3859597, -34.7530927, 0.0 ], [ -58.3847636, -34.7545376, 0.0 ], [ -58.3860162, -34.7551877, 0.0 ], [ -58.3889247, -34.7549174, 0.0 ], [ -58.3950659, -34.7540664, 0.0 ], [ -58.3952859, -34.7540356, 0.0 ], [ -58.3965049, -34.7613285, 0.0 ], [ -58.3968402, -34.7649554, 0.0 ], [ -58.3965757, -34.7702968, 0.0 ], [ -58.3937288, -34.7743283, 0.0 ], [ -58.3957915, -34.7746037, 0.0 ], [ -58.3956426, -34.7760093, 0.0 ], [ -58.3927475, -34.7756913, 0.0 ], [ -58.39136, -34.7749213, 0.0 ], [ -58.3901825, -34.7764343, 0.0 ], [ -58.3624661, -34.7619002, 0.0 ], [ -58.3594765, -34.7660385, 0.0 ] ] } },
{ "type": "Feature", "properties": { "Name": "278 S - Desde Rio Negro y Garay", "Descripci__n": "", "nombre": "" }, "geometry": { "type": "LineString", "coordinates": [ [ -58.3554919, -34.7639982, 0.0 ], [ -58.3559211, -34.7634121, 0.0 ], [ -58.3571281, -34.7617727, 0.0 ], [ -58.3585174, -34.7598887, 0.0 ], [ -58.3914777, -34.7770288, 0.0 ], [ -58.3932936, -34.7780092, 0.0 ], [ -58.3936127, -34.7781766, 0.0 ], [ -58.3939561, -34.7783528, 0.0 ], [ -58.394168, -34.7784498, 0.0 ], [ -58.3951242, -34.7789917, 0.0 ], [ -58.3952113, -34.7789642, 0.0 ], [ -58.3952663, -34.7789201, 0.0 ], [ -58.3952972, -34.7779056, 0.0 ], [ -58.3954313, -34.777042, 0.0 ], [ -58.3955399, -34.7759866, 0.0 ], [ -58.3927588, -34.7756988, 0.0 ], [ -58.3925576, -34.7755925, 0.0 ], [ -58.3962747, -34.7702695, 0.0 ], [ -58.3963262, -34.7698798, 0.0 ], [ -58.3965461, -34.7648187, 0.0 ], [ -58.3964691, -34.763649, 0.0 ], [ -58.396251, -34.7612843, 0.0 ], [ -58.3952794, -34.7553398, 0.0 ], [ -58.3888273, -34.7562411, 0.0 ], [ -58.3881783, -34.7563248, 0.0 ], [ -58.3878913, -34.7562896, 0.0 ], [ -58.3877089, -34.756186, 0.0 ], [ -58.3846436, -34.7545465, 0.0 ], [ -58.3858069, -34.7531215, 0.0 ], [ -58.3796034, -34.7498862, 0.0 ], [ -58.3819445, -34.74688, 0.0 ], [ -58.3819955, -34.7467786, 0.0 ], [ -58.381848, -34.7458221, 0.0 ], [ -58.3936061, -34.7443511, 0.0 ], [ -58.394829, -34.7441844, 0.0 ], [ -58.3949034, -34.74418, 0.0 ], [ -58.3948525, -34.7438979, 0.0 ], [ -58.3950214, -34.7439332, 0.0 ], [ -58.3950932, -34.7440293, 0.0 ], [ -58.3951059, -34.7440663, 0.0 ] ] } },
{ "type": "Feature", "properties": { "Name": "281 L - Desde Caguazu", "Descripci__n": "", "nombre": "" }, "geometry": { "type": "LineString", "coordinates": [ [ -58.3472385, -34.7408038, 0.0 ], [ -58.3448616, -34.7471149, 0.0 ], [ -58.3437234, -34.750179, 0.0 ], [ -58.343423, -34.7510605, 0.0 ], [ -58.3433371, -34.7512567, 0.0 ], [ -58.3432084, -34.7522462, 0.0 ], [ -58.3404014, -34.7507896, 0.0 ], [ -58.3394391, -34.7505298, 0.0 ] ] } },
{ "type": "Feature", "properties": { "Name": "281 L - Desde Donato", "Descripci__n": "", "nombre": "" }, "geometry": { "type": "LineString", "coordinates": [ [ -58.3395016, -34.7504227, 0.0 ], [ -58.340435, -34.7506695, 0.0 ], [ -58.3414864, -34.7512139, 0.0 ], [ -58.3431011, -34.7520711, 0.0 ], [ -58.3432245, -34.7512546, 0.0 ], [ -58.3432587, -34.7510667, 0.0 ], [ -58.3433941, -34.7506899, 0.0 ], [ -58.3437589, -34.7496717, 0.0 ], [ -58.3445689, -34.7475428, 0.0 ], [ -58.3454286, -34.7454606, 0.0 ], [ -58.3459436, -34.7440331, 0.0 ], [ -58.3474671, -34.7397609, 0.0 ] ] } },
{ "type": "Feature", "properties": { "Name": "283 B1 - Desde Ejercito y Hornos", "Descripci__n": "", "nombre": "" }, "geometry": { "type": "LineString", "coordinates": [ [ -58.4281742, -34.7134683, 0.0 ], [ -58.4293597, -34.71409, 0.0 ], [ -58.4370201, -34.7180718, 0.0 ], [ -58.4371489, -34.7181468, 0.0 ], [ -58.4341958, -34.7218395, 0.0 ], [ -58.457617, -34.7337944, 0.0 ], [ -58.461593, -34.735747, 0.0 ] ] } },
{ "type": "Feature", "properties": { "Name": "283 B1 - Desde Homero e Itati", "Descripci__n": "", "nombre": "" }, "geometry": { "type": "LineString", "coordinates": [ [ -58.4610855, -34.7363186, 0.0 ], [ -58.4613644, -34.7360012, 0.0 ], [ -58.433979, -34.7218931, 0.0 ], [ -58.4368592, -34.7181427, 0.0 ], [ -58.428077, -34.7136187, 0.0 ] ] } },
{ "type": "Feature", "properties": { "Name": "283 B2 - Desde Hornos y Martin Rodriguez", "Descripci__n": "", "nombre": "" }, "geometry": { "type": "LineString", "coordinates": [ [ -58.418137, -34.7265882, 0.0 ], [ -58.4179332, -34.7268395, 0.0 ], [ -58.4225121, -34.7292477, 0.0 ], [ -58.4299257, -34.719442, 0.0 ], [ -58.4615221, -34.7358033, 0.0 ] ] } },
{ "type": "Feature", "properties": { "Name": "283 B2 - Desde Homero e Itati", "Descripci__n": "", "nombre": "" }, "geometry": { "type": "LineString", "coordinates": [ [ -58.4612076, -34.7362601, 0.0 ], [ -58.4614008, -34.7359912, 0.0 ], [ -58.4300111, -34.7198009, 0.0 ], [ -58.4232037, -34.7287424, 0.0 ], [ -58.4241317, -34.7291745, 0.0 ], [ -58.4235523, -34.7299813, 0.0 ], [ -58.4189068, -34.7275432, 0.0 ], [ -58.4182919, -34.7283112, 0.0 ], [ -58.4171546, -34.7276939, 0.0 ] ] } },
{ "type": "Feature", "properties": { "Name": "283 B3 - Desde Terminal La Noria", "Descripci__n": "", "nombre": "" }, "geometry": { "type": "LineString", "coordinates": [ [ -58.4543389, -34.7071556, 0.0 ], [ -58.4553072, -34.7065757, 0.0 ], [ -58.4556827, -34.7069726, 0.0 ], [ -58.4558892, -34.7072085, 0.0 ], [ -58.4559804, -34.7073585, 0.0 ], [ -58.4569916, -34.7069726, 0.0 ], [ -58.4572383, -34.7069594, 0.0 ], [ -58.4574368, -34.707074, 0.0 ], [ -58.457709, -34.707401, 0.0 ], [ -58.4578284, -34.7075371, 0.0 ], [ -58.457856, -34.707744, 0.0 ], [ -58.457802, -34.707932, 0.0 ], [ -58.456758, -34.708758, 0.0 ], [ -58.456312, -34.708988, 0.0 ], [ -58.4546098, -34.7111443, 0.0 ], [ -58.4544083, -34.7111939, 0.0 ], [ -58.4538612, -34.711701, 0.0 ], [ -58.4517047, -34.7144394, 0.0 ], [ -58.45156, -34.714665, 0.0 ], [ -58.4516916, -34.714862, 0.0 ], [ -58.4526381, -34.7153918, 0.0 ], [ -58.4535554, -34.7142674, 0.0 ], [ -58.4524611, -34.7136457, 0.0 ], [ -58.4528902, -34.7131209, 0.0 ], [ -58.452844, -34.713007, 0.0 ], [ -58.4525844, -34.7129225, 0.0 ], [ -58.451136, -34.714704, 0.0 ], [ -58.4509107, -34.7146158, 0.0 ], [ -58.4457701, -34.7117871, 0.0 ], [ -58.4431308, -34.7104994, 0.0 ], [ -58.4395556, -34.7085, 0.0 ], [ -58.4364646, -34.7124141, 0.0 ], [ -58.4352845, -34.7118144, 0.0 ], [ -58.4322922, -34.7158987, 0.0 ], [ -58.428077, -34.7136187, 0.0 ] ] } },
{ "type": "Feature", "properties": { "Name": "283 B3 - Desde Ejercito y Hornos", "Descripci__n": "", "nombre": "" }, "geometry": { "type": "LineString", "coordinates": [ [ -58.4282657, -34.7134184, 0.0 ], [ -58.4322675, -34.715535, 0.0 ], [ -58.4352501, -34.7116104, 0.0 ], [ -58.4364303, -34.7122101, 0.0 ], [ -58.4394666, -34.7082413, 0.0 ], [ -58.4510483, -34.7145384, 0.0 ], [ -58.4513863, -34.7145384, 0.0 ], [ -58.4537359, -34.7116457, 0.0 ], [ -58.4543206, -34.7106712, 0.0 ], [ -58.4551038, -34.7096834, 0.0 ], [ -58.455297, -34.7094055, 0.0 ], [ -58.4552326, -34.7092159, 0.0 ], [ -58.4546854, -34.708969, 0.0 ], [ -58.4542831, -34.7086647, 0.0 ], [ -58.454215, -34.708109, 0.0 ], [ -58.454077, -34.70775, 0.0 ], [ -58.4539344, -34.7075975, 0.0 ], [ -58.4538432, -34.7074431, 0.0 ], [ -58.4543206, -34.707183, 0.0 ] ] } },
{ "type": "Feature", "properties": { "Name": "318 - Turdera - Desde Turdera", "Descripci__n": "", "nombre": "" }, "geometry": { "type": "LineString", "coordinates": [ [ -58.4077492, -34.7948438, 0.0 ], [ -58.4051944, -34.7946111, 0.0 ], [ -58.4035274, -34.7944738, 0.0 ], [ -58.403468, -34.7940863, 0.0 ], [ -58.4025453, -34.7935973, 0.0 ], [ -58.3992489, -34.7917867, 0.0 ], [ -58.399163, -34.7917294, 0.0 ], [ -58.4013466, -34.7888674, 0.0 ], [ -58.4019125, -34.7882022, 0.0 ], [ -58.4019581, -34.7881251, 0.0 ], [ -58.4025831, -34.7884379, 0.0 ], [ -58.4026957, -34.7885018, 0.0 ], [ -58.4027762, -34.7891098, 0.0 ], [ -58.4031356, -34.7914711, 0.0 ], [ -58.4085805, -34.7907971, 0.0 ], [ -58.4078885, -34.7877264, 0.0 ], [ -58.4075666, -34.7860699, 0.0 ], [ -58.4071938, -34.7846534, 0.0 ], [ -58.4044472, -34.7831642, 0.0 ], [ -58.4023872, -34.7821509, 0.0 ], [ -58.4010278, -34.7813611, 0.0 ], [ -58.4009442, -34.7812565, 0.0 ], [ -58.4019957, -34.7797892, 0.0 ], [ -58.402562, -34.779154, 0.0 ], [ -58.3987716, -34.7772117, 0.0 ], [ -58.3973564, -34.7763814, 0.0 ], [ -58.3970014, -34.7762158, 0.0 ], [ -58.396929, -34.776195, 0.0 ], [ -58.396816, -34.776041, 0.0 ], [ -58.3968995, -34.7751011, 0.0 ], [ -58.396991, -34.774703, 0.0 ], [ -58.3975003, -34.7747307, 0.0 ], [ -58.3978544, -34.7712298, 0.0 ], [ -58.3984021, -34.7654499, 0.0 ], [ -58.3985871, -34.7634144, 0.0 ], [ -58.398405, -34.762178, 0.0 ], [ -58.3981944, -34.761, 0.0 ] ] } },
{ "type": "Feature", "properties": { "Name": "318 Turdera - Hacia Turdera", "Descripci__n": "", "nombre": "" }, "geometry": { "type": "LineString", "coordinates": [ [ -58.4024338, -34.7591976, 0.0 ], [ -58.4026967, -34.7603655, 0.0 ], [ -58.404114, -34.760128, 0.0 ], [ -58.404345, -34.761337, 0.0 ], [ -58.404601, -34.7624941, 0.0 ], [ -58.4046274, -34.7626123, 0.0 ], [ -58.4016667, -34.7630318, 0.0 ], [ -58.398727, -34.7634284, 0.0 ], [ -58.3986841, -34.7646447, 0.0 ], [ -58.398491, -34.766522, 0.0 ], [ -58.3978902, -34.7724181, 0.0 ], [ -58.397225, -34.7776704, 0.0 ], [ -58.3971821, -34.7781154, 0.0 ], [ -58.3978794, -34.7784591, 0.0 ], [ -58.4015111, -34.7804771, 0.0 ], [ -58.4017096, -34.780248, 0.0 ], [ -58.4052291, -34.7821357, 0.0 ], [ -58.4056847, -34.7835612, 0.0 ], [ -58.4059369, -34.7835722, 0.0 ], [ -58.4060468, -34.7836427, 0.0 ], [ -58.4061031, -34.7836582, 0.0 ], [ -58.4072377, -34.7834995, 0.0 ], [ -58.4082006, -34.7879472, 0.0 ], [ -58.4088611, -34.79075, 0.0 ], [ -58.4097778, -34.7906918, 0.0 ], [ -58.409923, -34.790687, 0.0 ], [ -58.41009, -34.791621, 0.0 ], [ -58.41003, -34.791704, 0.0 ], [ -58.4033252, -34.7925092, 0.0 ], [ -58.4031797, -34.792525, 0.0 ], [ -58.4031111, -34.7919167, 0.0 ], [ -58.4026944, -34.7893889, 0.0 ], [ -58.4025941, -34.7885469, 0.0 ], [ -58.4019933, -34.7882473, 0.0 ], [ -58.3993611, -34.7916667, 0.0 ], [ -58.4034614, -34.7939518, 0.0 ], [ -58.4075973, -34.7935377, 0.0 ], [ -58.4078056, -34.7946944, 0.0 ] ] } },
{ "type": "Feature", "properties": { "Name": "318 MONTE/ADRO - Desde Yrigoyen y 30 de septiembre", "Descripci__n": "", "nombre": "" }, "geometry": { "type": "LineString", "coordinates": [ [ -58.4085983, -34.7966554, 0.0 ], [ -58.4088505, -34.7957744, 0.0 ], [ -58.408946, -34.795361, 0.0 ], [ -58.4089341, -34.7934241, 0.0 ], [ -58.4090092, -34.7926663, 0.0 ], [ -58.4071216, -34.7846579, 0.0 ], [ -58.4053045, -34.7836633, 0.0 ], [ -58.4009003, -34.7812951, 0.0 ], [ -58.4025331, -34.7791633, 0.0 ], [ -58.3988521, -34.7771906, 0.0 ], [ -58.397806, -34.7766134, 0.0 ], [ -58.3971193, -34.7763094, 0.0 ], [ -58.3968297, -34.7761904, 0.0 ], [ -58.3967546, -34.7759657, 0.0 ], [ -58.3968781, -34.7749693, 0.0 ], [ -58.3969567, -34.7746695, 0.0 ], [ -58.3974842, -34.7746961, 0.0 ], [ -58.3977448, -34.7725196, 0.0 ], [ -58.3980039, -34.7700168, 0.0 ], [ -58.3984223, -34.7652222, 0.0 ], [ -58.3983579, -34.7625957, 0.0 ], [ -58.3979515, -34.7596913, 0.0 ], [ -58.402156, -34.759127, 0.0 ], [ -58.4012869, -34.7549008, 0.0 ], [ -58.3999136, -34.7488448, 0.0 ], [ -58.3987441, -34.742612, 0.0 ], [ -58.3976069, -34.737331, 0.0 ], [ -58.3972792, -34.7353698, 0.0 ], [ -58.397259, -34.735237, 0.0 ], [ -58.4131297, -34.7327925, 0.0 ], [ -58.4133764, -34.7325809, 0.0 ], [ -58.4177723, -34.7267817, 0.0 ], [ -58.4345053, -34.7357496, 0.0 ], [ -58.447924, -34.7185764, 0.0 ], [ -58.4506598, -34.7150797, 0.0 ], [ -58.4510729, -34.7146431, 0.0 ], [ -58.4515396, -34.7143477, 0.0 ], [ -58.4537978, -34.7115172, 0.0 ], [ -58.4543146, -34.7105807, 0.0 ], [ -58.4551979, -34.709524, 0.0 ], [ -58.455257, -34.709406, 0.0 ], [ -58.455175, -34.709241, 0.0 ], [ -58.4549029, -34.7091359, 0.0 ], [ -58.454429, -34.7088808, 0.0 ], [ -58.4542198, -34.7085964, 0.0 ], [ -58.454135, -34.708294, 0.0 ], [ -58.4541884, -34.7080501, 0.0 ], [ -58.454101, -34.7078557, 0.0 ], [ -58.4538432, -34.7074431, 0.0 ], [ -58.4551519, -34.7068192, 0.0 ] ] } },
{ "type": "Feature", "properties": { "Name": "318 MONTE/ADRO - Desde La Noria", "Descripci__n": "", "nombre": "" }, "geometry": { "type": "LineString", "coordinates": [ [ -58.4551204, -34.7068171, 0.0 ], [ -58.455393, -34.706681, 0.0 ], [ -58.4556827, -34.7069726, 0.0 ], [ -58.4558892, -34.7072085, 0.0 ], [ -58.4559614, -34.707335, 0.0 ], [ -58.4568721, -34.706989, 0.0 ], [ -58.4572261, -34.706978, 0.0 ], [ -58.4574407, -34.7070948, 0.0 ], [ -58.4577009, -34.7073528, 0.0 ], [ -58.4578732, -34.7076384, 0.0 ], [ -58.4577445, -34.7079978, 0.0 ], [ -58.456791, -34.70871, 0.0 ], [ -58.456317, -34.709005, 0.0 ], [ -58.45547, -34.7099998, 0.0 ], [ -58.4546304, -34.7110866, 0.0 ], [ -58.4543128, -34.711291, 0.0 ], [ -58.4522587, -34.7137097, 0.0 ], [ -58.45156, -34.714665, 0.0 ], [ -58.4514808, -34.7150943, 0.0 ], [ -58.4506976, -34.7161084, 0.0 ], [ -58.4497475, -34.7173944, 0.0 ], [ -58.4480095, -34.719555, 0.0 ], [ -58.446469, -34.721438, 0.0 ], [ -58.4454238, -34.7228354, 0.0 ], [ -58.4446192, -34.7239112, 0.0 ], [ -58.4427309, -34.7261113, 0.0 ], [ -58.4402033, -34.7295101, 0.0 ], [ -58.4386432, -34.7317457, 0.0 ], [ -58.4357169, -34.7352905, 0.0 ], [ -58.434983, -34.736164, 0.0 ], [ -58.4338581, -34.7355688, 0.0 ], [ -58.4189486, -34.7275385, 0.0 ], [ -58.4182942, -34.7282769, 0.0 ], [ -58.4171585, -34.7277197, 0.0 ], [ -58.4157207, -34.7296644, 0.0 ], [ -58.4135589, -34.7325785, 0.0 ], [ -58.4133497, -34.7328518, 0.0 ], [ -58.3975937, -34.7353231, 0.0 ], [ -58.4026826, -34.7603331, 0.0 ], [ -58.4041015, -34.7601524, 0.0 ], [ -58.4043157, -34.7613312, 0.0 ], [ -58.4046059, -34.7625977, 0.0 ], [ -58.4032058, -34.7627971, 0.0 ], [ -58.3999509, -34.7632775, 0.0 ], [ -58.3986957, -34.7634192, 0.0 ], [ -58.3986608, -34.7645805, 0.0 ], [ -58.3984892, -34.7663652, 0.0 ], [ -58.3978669, -34.7736669, 0.0 ], [ -58.39722, -34.7781077, 0.0 ], [ -58.4014996, -34.7804909, 0.0 ], [ -58.4017162, -34.780261, 0.0 ], [ -58.4052215, -34.7821498, 0.0 ], [ -58.4056847, -34.7835612, 0.0 ], [ -58.4059217, -34.7835801, 0.0 ], [ -58.4060933, -34.7836792, 0.0 ], [ -58.4072574, -34.7835206, 0.0 ], [ -58.4086031, -34.7892362, 0.0 ], [ -58.4092558, -34.7925711, 0.0 ], [ -58.4091564, -34.7954073, 0.0 ], [ -58.408112, -34.7997046, 0.0 ], [ -58.4080047, -34.8012199, 0.0 ], [ -58.4053708, -34.8045764, 0.0 ], [ -58.4161905, -34.8098288, 0.0 ], [ -58.4275592, -34.8157144, 0.0 ], [ -58.4302565, -34.8170056, 0.0 ] ] } },
{ "type": "Feature", "properties": { "Name": "318 LANORIA/CLAYPOLE - Desde Wilde", "Descripci__n": "", "nombre": "" }, "geometry": { "type": "LineString", "coordinates": [ [ -58.4275563, -34.8156952, 0.0 ], [ -58.4305062, -34.811798, 0.0 ], [ -58.4321048, -34.8126415, 0.0 ], [ -58.4347542, -34.8090539, 0.0 ], [ -58.4277854, -34.8055009, 0.0 ], [ -58.4276399, -34.8053893, 0.0 ], [ -58.4309865, -34.8011021, 0.0 ], [ -58.4082769, -34.7893736, 0.0 ], [ -58.4072135, -34.7846257, 0.0 ], [ -58.4009219, -34.7812829, 0.0 ], [ -58.4025425, -34.7791574, 0.0 ], [ -58.3972532, -34.7763507, 0.0 ], [ -58.3968375, -34.7761569, 0.0 ], [ -58.3967945, -34.7759564, 0.0 ], [ -58.3969737, -34.7746932, 0.0 ], [ -58.3974739, -34.774734, 0.0 ], [ -58.3984696, -34.764013, 0.0 ], [ -58.3979145, -34.7597128, 0.0 ], [ -58.4021176, -34.7590958, 0.0 ], [ -58.3972877, -34.7352477, 0.0 ], [ -58.4132035, -34.7327852, 0.0 ], [ -58.4133779, -34.7325956, 0.0 ], [ -58.4134717, -34.732481, 0.0 ], [ -58.4177686, -34.7268067, 0.0 ], [ -58.4345145, -34.735788, 0.0 ], [ -58.4354782, -34.7344302, 0.0 ], [ -58.4406817, -34.7277599, 0.0 ], [ -58.4419167, -34.7257222, 0.0 ], [ -58.443203, -34.7244443, 0.0 ], [ -58.4509922, -34.7146673, 0.0 ], [ -58.4516842, -34.7141734, 0.0 ], [ -58.4537978, -34.7115172, 0.0 ], [ -58.4543146, -34.7105807, 0.0 ], [ -58.4551979, -34.709524, 0.0 ], [ -58.4552319, -34.709368, 0.0 ], [ -58.455175, -34.709241, 0.0 ], [ -58.4547829, -34.7090676, 0.0 ], [ -58.454286, -34.708824, 0.0 ], [ -58.4541955, -34.7085164, 0.0 ], [ -58.4540775, -34.7080975, 0.0 ], [ -58.4540989, -34.7078902, 0.0 ], [ -58.4539514, -34.7076873, 0.0 ], [ -58.4538119, -34.7074977, 0.0 ], [ -58.4551708, -34.7068012, 0.0 ] ] } },
{ "type": "Feature", "properties": { "Name": "318 LANORIA/CLAYPOLE - Desde La Noria", "Descripci__n": "", "nombre": "" }, "geometry": { "type": "LineString", "coordinates": [ [ -58.4576059, -34.7082335, 0.0 ], [ -58.456293, -34.709123, 0.0 ], [ -58.455047, -34.7105884, 0.0 ], [ -58.454057, -34.711508, 0.0 ], [ -58.451911, -34.714242, 0.0 ], [ -58.4515861, -34.7145568, 0.0 ], [ -58.4514808, -34.7150943, 0.0 ], [ -58.4506911, -34.7160122, 0.0 ], [ -58.4458899, -34.7219931, 0.0 ], [ -58.4429288, -34.7258378, 0.0 ], [ -58.4384249, -34.7315299, 0.0 ], [ -58.4355978, -34.7354094, 0.0 ], [ -58.4350399, -34.7362073, 0.0 ], [ -58.4338168, -34.7355593, 0.0 ], [ -58.4189017, -34.7275039, 0.0 ], [ -58.4183385, -34.7282975, 0.0 ], [ -58.4171744, -34.7276736, 0.0 ], [ -58.4166554, -34.7284165, 0.0 ], [ -58.4164113, -34.7286744, 0.0 ], [ -58.413337, -34.7328237, 0.0 ], [ -58.4132002, -34.7329031, 0.0 ], [ -58.4102069, -34.7332756, 0.0 ], [ -58.4088121, -34.7335181, 0.0 ], [ -58.3975711, -34.7353073, 0.0 ], [ -58.402406, -34.759107, 0.0 ], [ -58.4026351, -34.7603456, 0.0 ], [ -58.404114, -34.760128, 0.0 ], [ -58.4046129, -34.7625936, 0.0 ], [ -58.3986808, -34.7633881, 0.0 ], [ -58.3986075, -34.7652804, 0.0 ], [ -58.3980336, -34.7712603, 0.0 ], [ -58.3971579, -34.778108, 0.0 ], [ -58.4014938, -34.7805058, 0.0 ], [ -58.4017003, -34.7802905, 0.0 ], [ -58.4051997, -34.7821483, 0.0 ], [ -58.4056736, -34.7835729, 0.0 ], [ -58.4058459, -34.7835784, 0.0 ], [ -58.4059331, -34.7835911, 0.0 ], [ -58.4060002, -34.7836291, 0.0 ], [ -58.406078, -34.7836775, 0.0 ], [ -58.4072398, -34.7835309, 0.0 ], [ -58.408491, -34.7892501, 0.0 ], [ -58.4321632, -34.8015297, 0.0 ], [ -58.4322532, -34.8016023, 0.0 ], [ -58.4315209, -34.8026287, 0.0 ], [ -58.4314539, -34.802719, 0.0 ], [ -58.4303595, -34.8021552, 0.0 ], [ -58.4278513, -34.8054102, 0.0 ], [ -58.4349292, -34.8090391, 0.0 ], [ -58.4321342, -34.8127448, 0.0 ], [ -58.4305146, -34.811927, 0.0 ], [ -58.4276446, -34.8157604, 0.0 ] ] } },
{ "type": "Feature", "properties": { "Name": "323 C - Desde Granaderos y Roma", "Descripci__n": "", "nombre": "" }, "geometry": { "type": "LineString", "coordinates": [ [ -58.3720909, -34.7413333, 0.0 ], [ -58.3779129, -34.7444643, 0.0 ], [ -58.3844656, -34.7425292, 0.0 ], [ -58.3869225, -34.741771, 0.0 ], [ -58.3927028, -34.7408826, 0.0 ], [ -58.3929286, -34.7408348, 0.0 ], [ -58.3941704, -34.7473934, 0.0 ], [ -58.3958226, -34.7570194, 0.0 ], [ -58.3965513, -34.7616089, 0.0 ], [ -58.3967561, -34.7634802, 0.0 ], [ -58.3968402, -34.7649554, 0.0 ], [ -58.3966112, -34.7702755, 0.0 ], [ -58.3936537, -34.7743734, 0.0 ], [ -58.3958047, -34.7746226, 0.0 ], [ -58.3956961, -34.7759698, 0.0 ], [ -58.3953778, -34.7784988, 0.0 ], [ -58.395359, -34.7788403, 0.0 ], [ -58.3956192, -34.7790562, 0.0 ], [ -58.3957721, -34.7792853, 0.0 ], [ -58.3957346, -34.7794329, 0.0 ], [ -58.3955656, -34.7795342, 0.0 ], [ -58.3924113, -34.7833564, 0.0 ], [ -58.3911404, -34.7850299, 0.0 ], [ -58.3894962, -34.7841377, 0.0 ], [ -58.3894828, -34.784607, 0.0 ], [ -58.3889196, -34.785129, 0.0 ], [ -58.3878789, -34.7865036, 0.0 ] ] } },
{ "type": "Feature", "properties": { "Name": "323 C - Desde 30 de Septiembre", "Descripci__n": "", "nombre": "" }, "geometry": { "type": "LineString", "coordinates": [ [ -58.386863, -34.785964, 0.0 ], [ -58.389, -34.7871389, 0.0 ], [ -58.3904035, -34.7879025, 0.0 ], [ -58.3914389, -34.7865984, 0.0 ], [ -58.3903016, -34.7860301, 0.0 ], [ -58.3902744, -34.7859978, 0.0 ], [ -58.3911434, -34.7848281, 0.0 ], [ -58.3924416, -34.7831715, 0.0 ], [ -58.3948181, -34.7802327, 0.0 ], [ -58.3954806, -34.7795079, 0.0 ], [ -58.3955557, -34.7793912, 0.0 ], [ -58.3956066, -34.7792281, 0.0 ], [ -58.3954913, -34.7791092, 0.0 ], [ -58.3952982, -34.7790078, 0.0 ], [ -58.3952848, -34.7788096, 0.0 ], [ -58.3953035, -34.7780407, 0.0 ], [ -58.3955516, -34.7760028, 0.0 ], [ -58.392861, -34.775696, 0.0 ], [ -58.3927491, -34.7756751, 0.0 ], [ -58.392564, -34.7755858, 0.0 ], [ -58.393722, -34.7738993, 0.0 ], [ -58.3956538, -34.771176, 0.0 ], [ -58.3963163, -34.7701735, 0.0 ], [ -58.3965443, -34.7650617, 0.0 ], [ -58.396547, -34.7646606, 0.0 ], [ -58.3948872, -34.7529512, 0.0 ], [ -58.3935783, -34.7460399, 0.0 ], [ -58.3926932, -34.7409928, 0.0 ], [ -58.386972, -34.7418788, 0.0 ], [ -58.3815218, -34.7435142, 0.0 ], [ -58.3801629, -34.7439039, 0.0 ], [ -58.3780166, -34.7445462, 0.0 ], [ -58.3777243, -34.7445066, 0.0 ], [ -58.3763051, -34.7437094, 0.0 ], [ -58.3751544, -34.7430768, 0.0 ], [ -58.3733413, -34.7421093, 0.0 ], [ -58.3720055, -34.741426, 0.0 ] ] } },
{ "type": "Feature", "properties": { "Name": "338 - Desde Eva Peron", "Descripci__n": "", "nombre": "" }, "geometry": { "type": "LineString", "coordinates": [ [ -58.3438383, -34.7524296, 0.0 ], [ -58.3843715, -34.7731206, 0.0 ] ] } },
{ "type": "Feature", "properties": { "Name": "405 - Desde La Noria ", "Descripci__n": "", "nombre": "" }, "geometry": { "type": "LineString", "coordinates": [ [ -58.454161, -34.7074553, 0.0 ], [ -58.4554699, -34.7066968, 0.0 ], [ -58.4559098, -34.7072062, 0.0 ], [ -58.4559876, -34.7073275, 0.0 ], [ -58.4568647, -34.706957, 0.0 ], [ -58.457326, -34.7069129, 0.0 ], [ -58.4576854, -34.7072834, 0.0 ], [ -58.4578946, -34.7077508, 0.0 ], [ -58.4577659, -34.708011, 0.0 ], [ -58.4570149, -34.7085887, 0.0 ], [ -58.4565052, -34.7089371, 0.0 ], [ -58.4562317, -34.7091135, 0.0 ], [ -58.4550461, -34.7106834, 0.0 ], [ -58.4546614, -34.7111808, 0.0 ], [ -58.4543128, -34.711291, 0.0 ], [ -58.4538514, -34.7117849, 0.0 ], [ -58.4523263, -34.713702, 0.0 ], [ -58.4516021, -34.7146434, 0.0 ], [ -58.4517362, -34.7148771, 0.0 ], [ -58.4526696, -34.7154239, 0.0 ], [ -58.4535976, -34.7142686, 0.0 ], [ -58.4524611, -34.7136457, 0.0 ], [ -58.4528788, -34.7131574, 0.0 ], [ -58.4528814, -34.7130271, 0.0 ], [ -58.45264, -34.712919, 0.0 ], [ -58.4525032, -34.7129499, 0.0 ], [ -58.4518273, -34.7138715, 0.0 ], [ -58.4511353, -34.7146476, 0.0 ], [ -58.4508456, -34.7145462, 0.0 ], [ -58.4353852, -34.7063007, 0.0 ], [ -58.4341566, -34.7056752, 0.0 ] ] } },
{ "type": "Feature", "properties": { "Name": "405 - Desde Recondo y Hornos", "Descripci__n": "", "nombre": "" }, "geometry": { "type": "LineString", "coordinates": [ [ -58.4342097, -34.7055405, 0.0 ], [ -58.4510674, -34.7145607, 0.0 ], [ -58.451392, -34.7145696, 0.0 ], [ -58.4517406, -34.7141793, 0.0 ], [ -58.4538113, -34.7115931, 0.0 ], [ -58.4542512, -34.7106979, 0.0 ], [ -58.4552865, -34.7094367, 0.0 ], [ -58.455175, -34.709241, 0.0 ], [ -58.4545586, -34.7089365, 0.0 ], [ -58.4542635, -34.708716, 0.0 ], [ -58.454184, -34.708432, 0.0 ], [ -58.4541884, -34.7080501, 0.0 ], [ -58.4540355, -34.707737, 0.0 ], [ -58.453917, -34.707566, 0.0 ], [ -58.4541267, -34.7074878, 0.0 ] ] } },
{ "type": "Feature", "properties": { "Name": "306 - Desde La Noria", "Descripci__n": "", "nombre": "" }, "geometry": { "type": "LineString", "coordinates": [ [ -58.4552747, -34.7069587, 0.0 ], [ -58.4555268, -34.7068077, 0.0 ], [ -58.4559661, -34.7073193, 0.0 ], [ -58.457123, -34.7069049, 0.0 ], [ -58.4578901, -34.706583, 0.0 ], [ -58.4585607, -34.7062126, 0.0 ], [ -58.4588343, -34.7061949, 0.0 ], [ -58.4591471, -34.7062936, 0.0 ], [ -58.459422, -34.706503, 0.0 ], [ -58.4596336, -34.7067506, 0.0 ], [ -58.4595209, -34.707099, 0.0 ], [ -58.4594083, -34.7072489, 0.0 ], [ -58.4587479, -34.7080198, 0.0 ], [ -58.4597028, -34.7085489, 0.0 ], [ -58.4613657, -34.7065116, 0.0 ], [ -58.4615197, -34.7064529, 0.0 ], [ -58.4618523, -34.7067748, 0.0 ], [ -58.4629091, -34.7077803, 0.0 ], [ -58.479366, -34.723507, 0.0 ], [ -58.472834, -34.732275, 0.0 ], [ -58.474595, -34.733196, 0.0 ], [ -58.4779465, -34.7343772, 0.0 ], [ -58.481057, -34.7358684, 0.0 ], [ -58.4875381, -34.7384681, 0.0 ], [ -58.4885895, -34.7388737, 0.0 ] ] } },
{ "type": "Feature", "properties": { "Name": "306 - Desde Olimpo", "Descripci__n": "", "nombre": "" }, "geometry": { "type": "LineString", "coordinates": [ [ -58.488703, -34.7393062, 0.0 ], [ -58.4820833, -34.7364673, 0.0 ], [ -58.480746, -34.735884, 0.0 ], [ -58.4774485, -34.734435, 0.0 ], [ -58.4757372, -34.7337384, 0.0 ], [ -58.4744015, -34.7332491, 0.0 ], [ -58.4726552, -34.7322899, 0.0 ], [ -58.479149, -34.723546, 0.0 ], [ -58.4739059, -34.718778, 0.0 ], [ -58.4708858, -34.715837, 0.0 ], [ -58.4662724, -34.7116037, 0.0 ], [ -58.4614596, -34.7066003, 0.0 ], [ -58.4611914, -34.7063533, 0.0 ], [ -58.46076, -34.706151, 0.0 ], [ -58.4605477, -34.7062166, 0.0 ], [ -58.4599147, -34.7066399, 0.0 ], [ -58.459622, -34.706886, 0.0 ], [ -58.4591958, -34.7074161, 0.0 ], [ -58.458883, -34.7078, 0.0 ], [ -58.458385, -34.7078122, 0.0 ], [ -58.4579915, -34.7077755, 0.0 ], [ -58.4575999, -34.7081503, 0.0 ], [ -58.45667, -34.708749, 0.0 ], [ -58.4562587, -34.7091254, 0.0 ], [ -58.455981, -34.709318, 0.0 ], [ -58.4555775, -34.7093586, 0.0 ], [ -58.45527, -34.709274, 0.0 ], [ -58.4548694, -34.7091602, 0.0 ], [ -58.4544095, -34.7088509, 0.0 ], [ -58.454191, -34.70861, 0.0 ], [ -58.4541586, -34.7083883, 0.0 ], [ -58.454263, -34.708048, 0.0 ], [ -58.454701, -34.7078087, 0.0 ], [ -58.4558302, -34.7073809, 0.0 ], [ -58.4559026, -34.7073015, 0.0 ], [ -58.4556907, -34.7071383, 0.0 ], [ -58.4555566, -34.7069575, 0.0 ], [ -58.4552804, -34.7070061, 0.0 ] ] } },
{ "type": "Feature", "properties": { "Name": "406 - Desde Boedo", "Descripci__n": "", "nombre": "" }, "geometry": { "type": "LineString", "coordinates": [ [ -58.3986828, -34.7596213, 0.0 ], [ -58.4024233, -34.7591195, 0.0 ], [ -58.4026752, -34.7603516, 0.0 ], [ -58.4085644, -34.7595435, 0.0 ], [ -58.4103027, -34.7678446, 0.0 ], [ -58.4268117, -34.7654275, 0.0 ], [ -58.4287804, -34.7651785, 0.0 ], [ -58.4290433, -34.7651697, 0.0 ], [ -58.4294054, -34.765293, 0.0 ], [ -58.4298774, -34.7655531, 0.0 ], [ -58.4319535, -34.7667914, 0.0 ], [ -58.4335091, -34.7676507, 0.0 ], [ -58.434564, -34.765976, 0.0 ], [ -58.436673, -34.767123, 0.0 ], [ -58.4374279, -34.767736, 0.0 ], [ -58.4388843, -34.7685144, 0.0 ], [ -58.4567715, -34.7778672, 0.0 ], [ -58.457685, -34.778328, 0.0 ], [ -58.4581019, -34.7784135, 0.0 ], [ -58.4586383, -34.7780875, 0.0 ], [ -58.4591521, -34.7772381, 0.0 ] ] } },
{ "type": "Feature", "properties": { "Name": "406 - Desde Juan XXIII", "Descripci__n": "", "nombre": "" }, "geometry": { "type": "LineString", "coordinates": [ [ -58.4577042, -34.779422, 0.0 ], [ -58.4579802, -34.7789781, 0.0 ], [ -58.45771, -34.778656, 0.0 ], [ -58.4558642, -34.7777432, 0.0 ], [ -58.4423351, -34.7706314, 0.0 ], [ -58.4384106, -34.7685589, 0.0 ], [ -58.4378321, -34.7693414, 0.0 ], [ -58.4363377, -34.7686087, 0.0 ], [ -58.4352541, -34.7680535, 0.0 ], [ -58.4340203, -34.7678904, 0.0 ], [ -58.4333712, -34.7677362, 0.0 ], [ -58.4332746, -34.7676789, 0.0 ], [ -58.4305227, -34.7660838, 0.0 ], [ -58.4295383, -34.7654668, 0.0 ], [ -58.4291843, -34.765317, 0.0 ], [ -58.4289751, -34.7652641, 0.0 ], [ -58.4284601, -34.765317, 0.0 ], [ -58.4279773, -34.7653963, 0.0 ], [ -58.4101841, -34.7679658, 0.0 ], [ -58.4086848, -34.7608024, 0.0 ], [ -58.3985171, -34.7621772, 0.0 ] ] } }
]
}
