{
"type": "FeatureCollection",
"name": "Recorridos Autobuses",
"crs": { "type": "name", "properties": { "name": "urn:ogc:def:crs:OGC:1.3:CRS84" } },
"features": [
{ "type": "Feature", "properties": { "Name": "540 - La Noria a Lomas", "nombre": "540 - La Noria a Lomas" }, "geometry": { "type": "LineString", "coordinates": [ [ -58.454424, -34.707445, 0.0 ], [ -58.454089, -34.707637, 0.0 ], [ -58.454116, -34.707716, 0.0 ], [ -58.454223, -34.707813, 0.0 ], [ -58.454462, -34.707895, 0.0 ], [ -58.456105, -34.707271, 0.0 ], [ -58.458044, -34.706471, 0.0 ], [ -58.45864, -34.706173, 0.0 ], [ -58.458996, -34.706196, 0.0 ], [ -58.459422, -34.706503, 0.0 ], [ -58.459593, -34.706536, 0.0 ], [ -58.459864, -34.706448, 0.0 ], [ -58.460223, -34.706234, 0.0 ], [ -58.460608, -34.70603, 0.0 ], [ -58.460833, -34.705969, 0.0 ], [ -58.461313, -34.706058, 0.0 ], [ -58.461552, -34.706225, 0.0 ], [ -58.468217, -34.713166, 0.0 ], [ -58.474467, -34.719017, 0.0 ], [ -58.471318, -34.721449, 0.0 ], [ -58.470138, -34.72241, 0.0 ], [ -58.468981, -34.723856, 0.0 ], [ -58.466417, -34.727074, 0.0 ], [ -58.466957, -34.727857, 0.0 ], [ -58.467086, -34.728307, 0.0 ], [ -58.466893, -34.72873, 0.0 ], [ -58.464244, -34.732206, 0.0 ], [ -58.464314, -34.732471, 0.0 ], [ -58.464061, -34.732797, 0.0 ], [ -58.454865, -34.745055, 0.0 ], [ -58.453403, -34.744337, 0.0 ], [ -58.443924, -34.756574, 0.0 ], [ -58.443854, -34.756662, 0.0 ], [ -58.442384, -34.755938, 0.0 ], [ -58.434673, -34.766044, 0.0 ], [ -58.436808, -34.767203, 0.0 ], [ -58.437358, -34.767702, 0.0 ], [ -58.437338, -34.768076, 0.0 ], [ -58.436736, -34.768833, 0.0 ], [ -58.435306, -34.76809, 0.0 ], [ -58.433869, -34.767879, 0.0 ], [ -58.433462, -34.767769, 0.0 ], [ -58.432979, -34.767518, 0.0 ], [ -58.431487, -34.766685, 0.0 ], [ -58.430115, -34.76587, 0.0 ], [ -58.42952, -34.765495, 0.0 ], [ -58.429225, -34.765345, 0.0 ], [ -58.428999, -34.765301, 0.0 ], [ -58.428662, -34.765315, 0.0 ], [ -58.427804, -34.765425, 0.0 ], [ -58.416792, -34.767038, 0.0 ], [ -58.409556, -34.768054, 0.0 ], [ -58.403267, -34.764686, 0.0 ], [ -58.402711, -34.761686, 0.0 ], [ -58.397867, -34.762247, 0.0 ], [ -58.397769, -34.762204, 0.0 ], [ -58.397729, -34.762019, 0.0 ], [ -58.397683, -34.761622, 0.0 ], [ -58.397762, -34.761276, 0.0 ], [ -58.397659, -34.760228, 0.0 ] ] } },
{ "type": "Feature", "properties": { "Name": "540 - Lomas a La Noria", "nombre": "540 - Lomas a La Noria" }, "geometry": { "type": "LineString", "coordinates": [ [ -58.397648, -34.760227, 0.0 ], [ -58.397602, -34.759819, 0.0 ], [ -58.40381, -34.758904, 0.0 ], [ -58.404345, -34.761337, 0.0 ], [ -58.405209, -34.76552, 0.0 ], [ -58.409622, -34.767866, 0.0 ], [ -58.417794, -34.766689, 0.0 ], [ -58.427672, -34.765272, 0.0 ], [ -58.428668, -34.76513, 0.0 ], [ -58.429065, -34.765112, 0.0 ], [ -58.429398, -34.765227, 0.0 ], [ -58.429655, -34.76535, 0.0 ], [ -58.431028, -34.766205, 0.0 ], [ -58.433314, -34.767527, 0.0 ], [ -58.434564, -34.765976, 0.0 ], [ -58.442369, -34.75576, 0.0 ], [ -58.443767, -34.75651, 0.0 ], [ -58.446176, -34.753285, 0.0 ], [ -58.452098, -34.745695, 0.0 ], [ -58.453351, -34.744122, 0.0 ], [ -58.454736, -34.744829, 0.0 ], [ -58.458538, -34.739807, 0.0 ], [ -58.461593, -34.735747, 0.0 ], [ -58.463956, -34.732594, 0.0 ], [ -58.463913, -34.732367, 0.0 ], [ -58.464021, -34.73222, 0.0 ], [ -58.464096, -34.732189, 0.0 ], [ -58.46431, -34.731896, 0.0 ], [ -58.466599, -34.728849, 0.0 ], [ -58.466814, -34.728511, 0.0 ], [ -58.466894, -34.72822, 0.0 ], [ -58.466792, -34.727914, 0.0 ], [ -58.466218, -34.72708, 0.0 ], [ -58.467343, -34.725538, 0.0 ], [ -58.468717, -34.723951, 0.0 ], [ -58.469999, -34.722346, 0.0 ], [ -58.470691, -34.721764, 0.0 ], [ -58.474199, -34.719096, 0.0 ], [ -58.468889, -34.714243, 0.0 ], [ -58.464981, -34.710333, 0.0 ], [ -58.461516, -34.706726, 0.0 ], [ -58.461161, -34.706386, 0.0 ], [ -58.460673, -34.706162, 0.0 ], [ -58.459771, -34.706762, 0.0 ], [ -58.458883, -34.7078, 0.0 ], [ -58.458355, -34.707857, 0.0 ], [ -58.458173, -34.707785, 0.0 ], [ -58.457953, -34.707822, 0.0 ], [ -58.457802, -34.707932, 0.0 ], [ -58.456544, -34.708866, 0.0 ], [ -58.45601, -34.70936, 0.0 ], [ -58.455442, -34.709371, 0.0 ], [ -58.455002, -34.70921, 0.0 ], [ -58.454279, -34.708788, 0.0 ], [ -58.454156, -34.708408, 0.0 ], [ -58.454277, -34.708053, 0.0 ], [ -58.454698, -34.70776, 0.0 ], [ -58.455758, -34.70738, 0.0 ], [ -58.455873, -34.707332, 0.0 ], [ -58.45572, -34.707116, 0.0 ], [ -58.455468, -34.706825, 0.0 ], [ -58.454442, -34.707438, 0.0 ] ] } },
{ "type": "Feature", "properties": { "Name": "540 - DESVIO X FERIA DE LA NORIA A LOMAS", "nombre": "540 - DESVIO X FERIA DE LA NORIA A LOMAS" }, "geometry": { "type": "LineString", "coordinates": [ [ -58.455981, -34.709318, 0.0 ], [ -58.456312, -34.708988, 0.0 ], [ -58.456744, -34.708693, 0.0 ], [ -58.46185, -34.711532, 0.0 ], [ -58.466412, -34.714076, 0.0 ], [ -58.465408, -34.715362, 0.0 ], [ -58.466435, -34.71596, 0.0 ], [ -58.462468, -34.720904, 0.0 ], [ -58.465936, -34.722832, 0.0 ], [ -58.46695, -34.721531, 0.0 ], [ -58.467058, -34.721329, 0.0 ], [ -58.4671, -34.721148, 0.0 ], [ -58.467953, -34.720548, 0.0 ], [ -58.470062, -34.722466, 0.0 ], [ -58.469667, -34.72302, 0.0 ] ] } },
{ "type": "Feature", "properties": { "Name": "540 - DESVIO X FERIA DE LOMAS A LA NORIA", "nombre": "540 - DESVIO X FERIA DE LOMAS A LA NORIA" }, "geometry": { "type": "LineString", "coordinates": [ [ -58.467016, -34.726013, 0.0 ], [ -58.467414, -34.72548, 0.0 ], [ -58.464944, -34.724092, 0.0 ], [ -58.466825, -34.721726, 0.0 ], [ -58.466693, -34.72158, 0.0 ], [ -58.465908, -34.721179, 0.0 ], [ -58.46532, -34.720866, 0.0 ], [ -58.463287, -34.719716, 0.0 ], [ -58.46728, -34.714705, 0.0 ], [ -58.456708, -34.708832, 0.0 ], [ -58.456317, -34.709005, 0.0 ], [ -58.456004, -34.709408, 0.0 ], [ -58.455148, -34.709306, 0.0 ], [ -58.454286, -34.708824, 0.0 ], [ -58.454138, -34.708338, 0.0 ], [ -58.454239, -34.70802, 0.0 ], [ -58.454496, -34.707833, 0.0 ], [ -58.455838, -34.70732, 0.0 ], [ -58.455462, -34.706862, 0.0 ], [ -58.454464, -34.707454, 0.0 ] ] } },
{ "type": "Feature", "properties": { "Name": "540 L - Desde La Noria a Lomas", "nombre": "" }, "geometry": { "type": "LineString", "coordinates": [ [ -58.4629213, -34.7078235, 0.0 ], [ -58.4731741, -34.717862, 0.0 ], [ -58.478391, -34.7225799, 0.0 ], [ -58.4828128, -34.7265359, 0.0 ], [ -58.4839178, -34.7274574, 0.0 ], [ -58.4832044, -34.7280746, 0.0 ], [ -58.4831829, -34.7284538, 0.0 ], [ -58.4831913, -34.7299, 0.0 ], [ -58.483143, -34.7302395, 0.0 ], [ -58.4786329, -34.7335968, 0.0 ], [ -58.4776485, -34.7343948, 0.0 ], [ -58.4778551, -34.7344719, 0.0 ], [ -58.4722554, -34.7415373, 0.0 ], [ -58.470094, -34.740354, 0.0 ], [ -58.4666335, -34.7448483, 0.0 ], [ -58.4653856, -34.7441695, 0.0 ], [ -58.4651562, -34.7439854, 0.0 ], [ -58.464943, -34.743894, 0.0 ], [ -58.4581554, -34.7405886, 0.0 ], [ -58.4547979, -34.7450038, 0.0 ], [ -58.4533974, -34.7442996, 0.0 ], [ -58.4438271, -34.7566352, 0.0 ], [ -58.4423774, -34.7559069, 0.0 ], [ -58.43463, -34.7660638, 0.0 ], [ -58.436678, -34.7671592, 0.0 ], [ -58.4370066, -34.7674192, 0.0 ], [ -58.4373164, -34.7677056, 0.0 ], [ -58.4373137, -34.7680758, 0.0 ], [ -58.4367226, -34.7688025, 0.0 ], [ -58.43529, -34.768059, 0.0 ], [ -58.434569, -34.7679685, 0.0 ], [ -58.4338126, -34.7678451, 0.0 ], [ -58.4334291, -34.7677261, 0.0 ], [ -58.4333084, -34.7676666, 0.0 ], [ -58.4295506, -34.7654808, 0.0 ], [ -58.4292797, -34.7653398, 0.0 ], [ -58.428998, -34.7652605, 0.0 ], [ -58.4285662, -34.7652891, 0.0 ], [ -58.4095968, -34.7680334, 0.0 ], [ -58.4033714, -34.7646997, 0.0 ], [ -58.4027196, -34.7616592, 0.0 ], [ -58.4010942, -34.7617961, 0.0 ], [ -58.399796, -34.7619636, 0.0 ], [ -58.3979909, -34.7622367, 0.0 ], [ -58.3978789, -34.7622342, 0.0 ], [ -58.3978075, -34.7622157, 0.0 ], [ -58.3977629, -34.7621529, 0.0 ], [ -58.3977107, -34.7616374, 0.0 ], [ -58.3977797, -34.761303, 0.0 ], [ -58.3976513, -34.760591, 0.0 ], [ -58.3976346, -34.7602287, 0.0 ] ] } },
{ "type": "Feature", "properties": { "Name": "540 L - Desde Lomas a La Noria", "nombre": "" }, "geometry": { "type": "LineString", "coordinates": [ [ -58.3976369, -34.7602139, 0.0 ], [ -58.3976226, -34.7598047, 0.0 ], [ -58.403836, -34.7589385, 0.0 ], [ -58.4041681, -34.7604292, 0.0 ], [ -58.405194, -34.7654961, 0.0 ], [ -58.405312, -34.7655788, 0.0 ], [ -58.4095907, -34.7679145, 0.0 ], [ -58.4098616, -34.7678781, 0.0 ], [ -58.4276685, -34.7653018, 0.0 ], [ -58.4289291, -34.7651652, 0.0 ], [ -58.4292644, -34.7652225, 0.0 ], [ -58.4295943, -34.7653635, 0.0 ], [ -58.4327079, -34.7672143, 0.0 ], [ -58.4333919, -34.7675845, 0.0 ], [ -58.434623, -34.7659386, 0.0 ], [ -58.4423687, -34.7557808, 0.0 ], [ -58.4437862, -34.7565069, 0.0 ], [ -58.4533737, -34.7441737, 0.0 ], [ -58.4547748, -34.7448915, 0.0 ], [ -58.4581396, -34.7404668, 0.0 ], [ -58.4666143, -34.7447336, 0.0 ], [ -58.4700822, -34.7402463, 0.0 ], [ -58.4722501, -34.7413946, 0.0 ], [ -58.4722459, -34.7414109, 0.0 ], [ -58.4776823, -34.7345046, 0.0 ], [ -58.4775026, -34.7344352, 0.0 ], [ -58.4776635, -34.7342522, 0.0 ], [ -58.4820441, -34.7308896, 0.0 ], [ -58.4829641, -34.7302305, 0.0 ], [ -58.4830821, -34.7300475, 0.0 ], [ -58.483066, -34.729071, 0.0 ], [ -58.4831143, -34.7280128, 0.0 ], [ -58.483715, -34.7275052, 0.0 ], [ -58.4822183, -34.7262432, 0.0 ], [ -58.4808021, -34.7250175, 0.0 ], [ -58.4790915, -34.7235178, 0.0 ], [ -58.474395, -34.7192306, 0.0 ], [ -58.470494, -34.7157205, 0.0 ], [ -58.4662016, -34.7114857, 0.0 ], [ -58.4615569, -34.7066809, 0.0 ] ] } },
{ "type": "Feature", "properties": { "Name": "542 - La Noria a Lomas", "nombre": "542 - La Noria a Lomas" }, "geometry": { "type": "LineString", "coordinates": [ [ -58.454276, -34.707539, 0.0 ], [ -58.454112, -34.707641, 0.0 ], [ -58.454191, -34.70776, 0.0 ], [ -58.454311, -34.707826, 0.0 ], [ -58.45448, -34.707863, 0.0 ], [ -58.4554, -34.70757, 0.0 ], [ -58.456693, -34.707054, 0.0 ], [ -58.457091, -34.706951, 0.0 ], [ -58.457375, -34.70703, 0.0 ], [ -58.457709, -34.707401, 0.0 ], [ -58.457841, -34.70761, 0.0 ], [ -58.457814, -34.707784, 0.0 ], [ -58.457709, -34.708047, 0.0 ], [ -58.456709, -34.708796, 0.0 ], [ -58.455907, -34.709482, 0.0 ], [ -58.454872, -34.710876, 0.0 ], [ -58.454357, -34.711252, 0.0 ], [ -58.454057, -34.711508, 0.0 ], [ -58.453472, -34.712222, 0.0 ], [ -58.452844, -34.713007, 0.0 ], [ -58.451911, -34.714242, 0.0 ], [ -58.45156, -34.714665, 0.0 ], [ -58.451511, -34.714974, 0.0 ], [ -58.450331, -34.716534, 0.0 ], [ -58.449151, -34.718078, 0.0 ], [ -58.447628, -34.719965, 0.0 ], [ -58.446469, -34.721438, 0.0 ], [ -58.444613, -34.723783, 0.0 ], [ -58.443154, -34.725432, 0.0 ], [ -58.440899, -34.728558, 0.0 ], [ -58.439139, -34.730798, 0.0 ], [ -58.436834, -34.733807, 0.0 ], [ -58.435766, -34.735244, 0.0 ], [ -58.434988, -34.736196, 0.0 ], [ -58.433942, -34.738123, 0.0 ], [ -58.433436, -34.739011, 0.0 ], [ -58.432514, -34.740197, 0.0 ], [ -58.431628, -34.741321, 0.0 ], [ -58.430244, -34.743115, 0.0 ], [ -58.429944, -34.743521, 0.0 ], [ -58.42982, -34.743979, 0.0 ], [ -58.429912, -34.744742, 0.0 ], [ -58.43048, -34.74699, 0.0 ], [ -58.430641, -34.747594, 0.0 ], [ -58.431344, -34.748356, 0.0 ], [ -58.433048, -34.749319, 0.0 ], [ -58.435655, -34.750676, 0.0 ], [ -58.436202, -34.750967, 0.0 ], [ -58.436438, -34.751523, 0.0 ], [ -58.436116, -34.752166, 0.0 ], [ -58.433996, -34.755211, 0.0 ], [ -58.432897, -34.75674, 0.0 ], [ -58.43251, -34.757348, 0.0 ], [ -58.431947, -34.758671, 0.0 ], [ -58.431647, -34.759305, 0.0 ], [ -58.431277, -34.759936, 0.0 ], [ -58.430756, -34.760019, 0.0 ], [ -58.415672, -34.762289, 0.0 ], [ -58.406135, -34.763628, 0.0 ], [ -58.405641, -34.761217, 0.0 ], [ -58.397902, -34.762261, 0.0 ], [ -58.397743, -34.762208, 0.0 ], [ -58.397679, -34.761639, 0.0 ], [ -58.397736, -34.761328, 0.0 ], [ -58.39767, -34.760526, 0.0 ] ] } },
{ "type": "Feature", "properties": { "Name": "542 - Lomas a La Noria", "nombre": "542 - Lomas a La Noria" }, "geometry": { "type": "LineString", "coordinates": [ [ -58.397666, -34.76052, 0.0 ], [ -58.397605, -34.7598, 0.0 ], [ -58.403863, -34.758896, 0.0 ], [ -58.4048166, -34.7637086, 0.0 ], [ -58.429771, -34.759987, 0.0 ], [ -58.430426, -34.759916, 0.0 ], [ -58.431048, -34.759493, 0.0 ], [ -58.431381, -34.75885, 0.0 ], [ -58.432058, -34.757226, 0.0 ], [ -58.433829, -34.754772, 0.0 ], [ -58.4356, -34.752105, 0.0 ], [ -58.435782, -34.751589, 0.0 ], [ -58.435567, -34.751113, 0.0 ], [ -58.434966, -34.750814, 0.0 ], [ -58.432414, -34.749496, 0.0 ], [ -58.43103, -34.748781, 0.0 ], [ -58.430301, -34.748032, 0.0 ], [ -58.430043, -34.747486, 0.0 ], [ -58.429411, -34.7446, 0.0 ], [ -58.429358, -34.744023, 0.0 ], [ -58.429438, -34.74356, 0.0 ], [ -58.429214, -34.742917, 0.0 ], [ -58.428897, -34.742481, 0.0 ], [ -58.429267, -34.742088, 0.0 ], [ -58.429975, -34.742494, 0.0 ], [ -58.430104, -34.742529, 0.0 ], [ -58.430303, -34.742353, 0.0 ], [ -58.431379, -34.740934, 0.0 ], [ -58.43305, -34.738658, 0.0 ], [ -58.43357, -34.737714, 0.0 ], [ -58.434236, -34.736374, 0.0 ], [ -58.434831, -34.735276, 0.0 ], [ -58.437397, -34.731929, 0.0 ], [ -58.440078, -34.728469, 0.0 ], [ -58.441773, -34.726121, 0.0 ], [ -58.44416, -34.723026, 0.0 ], [ -58.44518, -34.721703, 0.0 ], [ -58.445727, -34.721201, 0.0 ], [ -58.446253, -34.72053, 0.0 ], [ -58.447982, -34.71843, 0.0 ], [ -58.449527, -34.716331, 0.0 ], [ -58.450485, -34.715255, 0.0 ], [ -58.451061, -34.714589, 0.0 ], [ -58.451426, -34.7145, 0.0 ], [ -58.452584, -34.712966, 0.0 ], [ -58.45356, -34.711864, 0.0 ], [ -58.453679, -34.71162, 0.0 ], [ -58.454102, -34.710941, 0.0 ], [ -58.454768, -34.710015, 0.0 ], [ -58.455224, -34.709446, 0.0 ], [ -58.455116, -34.709256, 0.0 ], [ -58.45429, -34.708809, 0.0 ], [ -58.454191, -34.70861, 0.0 ], [ -58.454135, -34.708294, 0.0 ], [ -58.454277, -34.707998, 0.0 ], [ -58.454537, -34.707824, 0.0 ], [ -58.455882, -34.707343, 0.0 ], [ -58.455463, -34.706838, 0.0 ], [ -58.454295, -34.707528, 0.0 ] ] } },
{ "type": "Feature", "properties": { "Name": "548 B - La Noria al Penal", "nombre": "548 B - La Noria al Penal" }, "geometry": { "type": "LineString", "coordinates": [ [ -58.454766, -34.707261, 0.0 ], [ -58.45551, -34.706814, 0.0 ], [ -58.455852, -34.707182, 0.0 ], [ -58.455889, -34.707244, 0.0 ], [ -58.455955, -34.707361, 0.0 ], [ -58.456823, -34.707045, 0.0 ], [ -58.457116, -34.706964, 0.0 ], [ -58.457375, -34.70703, 0.0 ], [ -58.45769, -34.707339, 0.0 ], [ -58.457841, -34.707586, 0.0 ], [ -58.457854, -34.707686, 0.0 ], [ -58.457764, -34.707929, 0.0 ], [ -58.456293, -34.709123, 0.0 ], [ -58.45588, -34.709555, 0.0 ], [ -58.454539, -34.711208, 0.0 ], [ -58.454057, -34.711508, 0.0 ], [ -58.45353, -34.712112, 0.0 ], [ -58.452412, -34.713604, 0.0 ], [ -58.45155, -34.714645, 0.0 ], [ -58.45156, -34.714931, 0.0 ], [ -58.449876, -34.717113, 0.0 ], [ -58.44639, -34.721595, 0.0 ], [ -58.442787, -34.726143, 0.0 ], [ -58.44938, -34.729554, 0.0 ], [ -58.453078, -34.731458, 0.0 ], [ -58.456895, -34.73346, 0.0 ], [ -58.460897, -34.735541, 0.0 ], [ -58.461616, -34.73595, 0.0 ], [ -58.458258, -34.740503, 0.0 ], [ -58.459786, -34.741303, 0.0 ], [ -58.464551, -34.743579, 0.0 ], [ -58.465205, -34.743884, 0.0 ], [ -58.465908, -34.744316, 0.0 ], [ -58.466637, -34.744681, 0.0 ], [ -58.468514, -34.742201, 0.0 ], [ -58.470074, -34.740237, 0.0 ], [ -58.47263, -34.74157, 0.0 ], [ -58.474443, -34.742531, 0.0 ], [ -58.475564, -34.743109, 0.0 ], [ -58.475678, -34.74321, 0.0 ], [ -58.472282, -34.747718, 0.0 ], [ -58.473569, -34.748344, 0.0 ], [ -58.478406, -34.750994, 0.0 ], [ -58.476031, -34.754213, 0.0 ], [ -58.474008, -34.756876, 0.0 ], [ -58.473376, -34.756729, 0.0 ], [ -58.47317, -34.756722, 0.0 ], [ -58.472778, -34.756795, 0.0 ], [ -58.471584, -34.757014, 0.0 ], [ -58.470924, -34.754352, 0.0 ], [ -58.470662, -34.753334, 0.0 ], [ -58.470919, -34.752928, 0.0 ], [ -58.470892, -34.752743, 0.0 ], [ -58.470457, -34.752267, 0.0 ], [ -58.470382, -34.752113, 0.0 ], [ -58.470259, -34.75165, 0.0 ], [ -58.470016, -34.75063, 0.0 ], [ -58.465384, -34.756858, 0.0 ] ] } },
{ "type": "Feature", "properties": { "Name": "548 B - Penal a La Noria", "nombre": "548 B - Penal a La Noria" }, "geometry": { "type": "LineString", "coordinates": [ [ -58.465319, -34.756803, 0.0 ], [ -58.475491, -34.743182, 0.0 ], [ -58.470094, -34.740354, 0.0 ], [ -58.466632, -34.74487, 0.0 ], [ -58.465006, -34.743977, 0.0 ], [ -58.463863, -34.743444, 0.0 ], [ -58.461324, -34.742224, 0.0 ], [ -58.458221, -34.740684, 0.0 ], [ -58.458019, -34.740576, 0.0 ], [ -58.461467, -34.735975, 0.0 ], [ -58.445841, -34.727949, 0.0 ], [ -58.441925, -34.725877, 0.0 ], [ -58.444544, -34.722571, 0.0 ], [ -58.44522, -34.721716, 0.0 ], [ -58.445695, -34.721264, 0.0 ], [ -58.446229, -34.720611, 0.0 ], [ -58.447532, -34.718911, 0.0 ], [ -58.449356, -34.716503, 0.0 ], [ -58.451028, -34.714655, 0.0 ], [ -58.451446, -34.71447, 0.0 ], [ -58.453678, -34.711746, 0.0 ], [ -58.454166, -34.710776, 0.0 ], [ -58.455103, -34.709621, 0.0 ], [ -58.455257, -34.709406, 0.0 ], [ -58.455175, -34.709241, 0.0 ], [ -58.45433, -34.708798, 0.0 ], [ -58.454201, -34.70859, 0.0 ], [ -58.454194, -34.708352, 0.0 ], [ -58.454215, -34.708109, 0.0 ], [ -58.454086, -34.70779, 0.0 ], [ -58.453917, -34.707566, 0.0 ], [ -58.45454, -34.7072, 0.0 ] ] } },
{ "type": "Feature", "properties": { "Name": "548 B - DESVIO X FERIA DE LA NORIA AL PENAL", "nombre": "548 B - DESVIO X FERIA DE LA NORIA AL PENAL" }, "geometry": { "type": "LineString", "coordinates": [ [ -58.450186, -34.729992, 0.0 ], [ -58.451447, -34.730643, 0.0 ], [ -58.450948, -34.731306, 0.0 ], [ -58.448746, -34.734119, 0.0 ], [ -58.451144, -34.735353, 0.0 ], [ -58.452404, -34.735994, 0.0 ], [ -58.456165, -34.737962, 0.0 ], [ -58.456192, -34.738103, 0.0 ], [ -58.456085, -34.738277, 0.0 ], [ -58.458725, -34.73966, 0.0 ], [ -58.458844, -34.739722, 0.0 ], [ -58.458208, -34.740521, 0.0 ], [ -58.459007, -34.740912, 0.0 ] ] } },
{ "type": "Feature", "properties": { "Name": "548 B - DESVIO X FERIA DEL PENAL A LA NORIA", "nombre": "548 B - DESVIO X FERIA DEL PENAL A LA NORIA" }, "geometry": { "type": "LineString", "coordinates": [ [ -58.458935, -34.741007, 0.0 ], [ -58.458059, -34.74055, 0.0 ], [ -58.458668, -34.739732, 0.0 ], [ -58.456152, -34.738466, 0.0 ], [ -58.456004, -34.738386, 0.0 ], [ -58.455954, -34.738205, 0.0 ], [ -58.456084, -34.738033, 0.0 ], [ -58.456059, -34.737987, 0.0 ], [ -58.45342, -34.736651, 0.0 ], [ -58.448567, -34.734149, 0.0 ], [ -58.451276, -34.730681, 0.0 ], [ -58.450135, -34.730098, 0.0 ] ] } },
{ "type": "Feature", "properties": { "Name": "548 A - Banfield a Santa Marta", "nombre": "548 A - Banfield a Santa Marta" }, "geometry": { "type": "LineString", "coordinates": [ [ -58.395947, -34.743891, 0.0 ], [ -58.39591, -34.74367, 0.0 ], [ -58.395927, -34.743548, 0.0 ], [ -58.395957, -34.743465, 0.0 ], [ -58.395991, -34.743414, 0.0 ], [ -58.396075, -34.743372, 0.0 ], [ -58.395982, -34.742853, 0.0 ], [ -58.398991, -34.742486, 0.0 ], [ -58.399426, -34.744794, 0.0 ], [ -58.405066, -34.743999, 0.0 ], [ -58.409348, -34.743313, 0.0 ], [ -58.413642, -34.742669, 0.0 ], [ -58.416949, -34.742192, 0.0 ], [ -58.418419, -34.74206, 0.0 ], [ -58.42124, -34.741796, 0.0 ], [ -58.425095, -34.741479, 0.0 ], [ -58.425669, -34.741432, 0.0 ], [ -58.4264, -34.741353, 0.0 ], [ -58.426986, -34.741325, 0.0 ], [ -58.427372, -34.741334, 0.0 ], [ -58.427868, -34.741431, 0.0 ], [ -58.428147, -34.741537, 0.0 ], [ -58.428523, -34.741724, 0.0 ], [ -58.428716, -34.74175, 0.0 ], [ -58.429048, -34.74194, 0.0 ], [ -58.429295, -34.74209, 0.0 ], [ -58.429934, -34.742491, 0.0 ], [ -58.430061, -34.742548, 0.0 ], [ -58.430143, -34.74253, 0.0 ], [ -58.430264, -34.74241, 0.0 ], [ -58.432591, -34.739207, 0.0 ], [ -58.433305, -34.738206, 0.0 ], [ -58.433648, -34.737527, 0.0 ], [ -58.432516, -34.73687, 0.0 ], [ -58.431541, -34.736286, 0.0 ], [ -58.432762, -34.73487, 0.0 ], [ -58.43278, -34.734846, 0.0 ], [ -58.435779, -34.736447, 0.0 ], [ -58.441476, -34.739498, 0.0 ], [ -58.445456, -34.741772, 0.0 ], [ -58.449736, -34.744176, 0.0 ], [ -58.452392, -34.745649, 0.0 ], [ -58.449842, -34.748903, 0.0 ] ] } },
{ "type": "Feature", "properties": { "Name": "548 A - Santa Marta a Banfield", "nombre": "548 A - Santa Marta a Banfield" }, "geometry": { "type": "LineString", "coordinates": [ [ -58.448882, -34.749927, 0.0 ], [ -58.452185, -34.745673, 0.0 ], [ -58.45153, -34.74531, 0.0 ], [ -58.450725, -34.744926, 0.0 ], [ -58.446455, -34.742581, 0.0 ], [ -58.441201, -34.739612, 0.0 ], [ -58.433133, -34.735222, 0.0 ], [ -58.431687, -34.734371, 0.0 ], [ -58.430571, -34.735662, 0.0 ], [ -58.431939, -34.736385, 0.0 ], [ -58.433658, -34.73739, 0.0 ], [ -58.434055, -34.737795, 0.0 ], [ -58.433588, -34.738812, 0.0 ], [ -58.432206, -34.740602, 0.0 ], [ -58.430426, -34.742846, 0.0 ], [ -58.430297, -34.743066, 0.0 ], [ -58.427839, -34.741695, 0.0 ], [ -58.426933, -34.741554, 0.0 ], [ -58.424613, -34.741704, 0.0 ], [ -58.418051, -34.742292, 0.0 ], [ -58.410913, -34.743315, 0.0 ], [ -58.399508, -34.74491, 0.0 ], [ -58.396408, -34.74536, 0.0 ], [ -58.396196, -34.74406, 0.0 ], [ -58.396067, -34.744022, 0.0 ], [ -58.395978, -34.743958, 0.0 ], [ -58.395946, -34.743921, 0.0 ] ] } },
{ "type": "Feature", "properties": { "Name": "550 U - La Noria a Lomas", "nombre": "550 U - La Noria a Lomas" }, "geometry": { "type": "LineString", "coordinates": [ [ -58.4556043, -34.7074324, 0.0 ], [ -58.4569193, -34.7069634, 0.0 ], [ -58.4572793, -34.7069614, 0.0 ], [ -58.4574623, -34.7071364, 0.0 ], [ -58.4577513, -34.7074524, 0.0 ], [ -58.4578413, -34.7076854, 0.0 ], [ -58.4577383, -34.7079744, 0.0 ], [ -58.4566573, -34.7087684, 0.0 ], [ -58.4563013, -34.7089834, 0.0 ], [ -58.4553113, -34.7101674, 0.0 ], [ -58.4546683, -34.7110604, 0.0 ], [ -58.4537003, -34.7123764, 0.0 ], [ -58.4533323, -34.7128114, 0.0 ], [ -58.4531443, -34.7128354, 0.0 ], [ -58.4527903, -34.7126464, 0.0 ], [ -58.4527263, -34.7124524, 0.0 ], [ -58.4531123, -34.7119714, 0.0 ], [ -58.4539713, -34.7109044, 0.0 ], [ -58.4503173, -34.7089024, 0.0 ], [ -58.4486223, -34.7111244, 0.0 ], [ -58.4469703, -34.7132414, 0.0 ], [ -58.4444173, -34.7164864, 0.0 ], [ -58.4439983, -34.7170154, 0.0 ], [ -58.4430113, -34.7176504, 0.0 ], [ -58.4426353, -34.7180304, 0.0 ], [ -58.4422173, -34.7185854, 0.0 ], [ -58.4417253, -34.7191934, 0.0 ], [ -58.4408083, -34.7203554, 0.0 ], [ -58.4385293, -34.7190934, 0.0 ], [ -58.4356733, -34.7228674, 0.0 ], [ -58.4335043, -34.7256214, 0.0 ], [ -58.4323993, -34.7273584, 0.0 ], [ -58.4289663, -34.7320324, 0.0 ], [ -58.4285153, -34.7327904, 0.0 ], [ -58.4269793, -34.7366434, 0.0 ], [ -58.4255743, -34.7402404, 0.0 ], [ -58.4245913, -34.7463464, 0.0 ], [ -58.4240603, -34.7463954, 0.0 ], [ -58.4238243, -34.7489344, 0.0 ], [ -58.4236153, -34.7512134, 0.0 ], [ -58.4190373, -34.7519704, 0.0 ], [ -58.4065063, -34.7538564, 0.0 ], [ -58.4059483, -34.7539274, 0.0 ], [ -58.4066613, -34.7577884, 0.0 ], [ -58.4073153, -34.7609974, 0.0 ], [ -58.3979413, -34.7622304, 0.0 ], [ -58.3977973, -34.7621964, 0.0 ], [ -58.3977553, -34.7621614, 0.0 ], [ -58.3977013, -34.7616214, 0.0 ], [ -58.3977663, -34.7612964, 0.0 ], [ -58.3977593, -34.7611824, 0.0 ], [ -58.3976293, -34.7600124, 0.0 ] ] } },
{ "type": "Feature", "properties": { "Name": "550 U - Lomas a La Noria", "nombre": "" }, "geometry": { "type": "LineString", "coordinates": [ [ -58.39764, -34.760017, 0.0 ], [ -58.39762, -34.759825, 0.0 ], [ -58.399624, -34.759474, 0.0 ], [ -58.402156, -34.759127, 0.0 ], [ -58.403936, -34.758928, 0.0 ], [ -58.405135, -34.758718, 0.0 ], [ -58.404643, -34.756444, 0.0 ], [ -58.404338, -34.754964, 0.0 ], [ -58.404137, -34.753952, 0.0 ], [ -58.405862, -34.753723, 0.0 ], [ -58.412782, -34.752705, 0.0 ], [ -58.420228, -34.751488, 0.0 ], [ -58.423468, -34.751074, 0.0 ], [ -58.423986, -34.746288, 0.0 ], [ -58.42441, -34.746248, 0.0 ], [ -58.425278, -34.74027, 0.0 ], [ -58.428046, -34.733203, 0.0 ], [ -58.428394, -34.732458, 0.0 ], [ -58.42892, -34.731603, 0.0 ], [ -58.429188, -34.731312, 0.0 ], [ -58.435455, -34.722527, 0.0 ], [ -58.43848, -34.71877, 0.0 ], [ -58.440819, -34.720181, 0.0 ], [ -58.441554, -34.719233, 0.0 ], [ -58.442736, -34.71777, 0.0 ], [ -58.442953, -34.717561, 0.0 ], [ -58.443946, -34.716926, 0.0 ], [ -58.444305, -34.716516, 0.0 ], [ -58.444879, -34.715731, 0.0 ], [ -58.445696, -34.71468, 0.0 ], [ -58.447418, -34.712431, 0.0 ], [ -58.450351, -34.708734, 0.0 ], [ -58.453521, -34.710525, 0.0 ], [ -58.454062, -34.710825, 0.0 ], [ -58.454768, -34.710015, 0.0 ], [ -58.455168, -34.709432, 0.0 ], [ -58.454138, -34.708691, 0.0 ], [ -58.454114, -34.708318, 0.0 ], [ -58.454311, -34.707826, 0.0 ], [ -58.455719, -34.707408, 0.0 ] ] } },
{ "type": "Feature", "properties": { "Name": "550 L - La Noria a Lomas", "nombre": "" }, "geometry": { "type": "LineString", "coordinates": [ [ -58.455061, -34.7076, 0.0 ], [ -58.457476, -34.706762, 0.0 ], [ -58.458044, -34.706471, 0.0 ], [ -58.458547, -34.705808, 0.0 ], [ -58.458944, -34.705575, 0.0 ], [ -58.459534, -34.705262, 0.0 ], [ -58.459582, -34.705041, 0.0 ], [ -58.459357, -34.70445, 0.0 ], [ -58.456411, -34.701026, 0.0 ], [ -58.450032, -34.693481, 0.0 ], [ -58.448816, -34.693999, 0.0 ], [ -58.448269, -34.694317, 0.0 ], [ -58.447733, -34.694987, 0.0 ], [ -58.447175, -34.695737, 0.0 ], [ -58.446082, -34.696752, 0.0 ], [ -58.444977, -34.697634, 0.0 ], [ -58.443464, -34.698834, 0.0 ], [ -58.441984, -34.700774, 0.0 ], [ -58.439892, -34.703535, 0.0 ], [ -58.439259, -34.704373, 0.0 ], [ -58.440385, -34.705114, 0.0 ], [ -58.43712, -34.70939, 0.0 ], [ -58.432399, -34.715696, 0.0 ], [ -58.433057, -34.715996, 0.0 ], [ -58.429228, -34.720977, 0.0 ], [ -58.423567, -34.728277, 0.0 ], [ -58.418632, -34.734749, 0.0 ], [ -58.418403, -34.734987, 0.0 ], [ -58.417564, -34.734598, 0.0 ], [ -58.418092, -34.738787, 0.0 ], [ -58.418537, -34.741899, 0.0 ], [ -58.419234, -34.747118, 0.0 ], [ -58.413537, -34.747902, 0.0 ], [ -58.41482, -34.7538, 0.0 ], [ -58.406103, -34.755062, 0.0 ], [ -58.406336, -34.756195, 0.0 ], [ -58.404755, -34.756436, 0.0 ], [ -58.401892, -34.756831, 0.0 ], [ -58.402121, -34.757925, 0.0 ], [ -58.403547, -34.75771, 0.0 ], [ -58.40432, -34.761418, 0.0 ], [ -58.398405, -34.762178, 0.0 ], [ -58.397923, -34.762253, 0.0 ], [ -58.397765, -34.762221, 0.0 ], [ -58.397702, -34.761649, 0.0 ], [ -58.39778, -34.76134, 0.0 ], [ -58.397707, -34.760676, 0.0 ] ] } },
{ "type": "Feature", "properties": { "Name": "550 L - Lomas a La Noria", "nombre": "" }, "geometry": { "type": "LineString", "coordinates": [ [ -58.3977, -34.760675, 0.0 ], [ -58.397626, -34.759828, 0.0 ], [ -58.398136, -34.759709, 0.0 ], [ -58.405147, -34.758735, 0.0 ], [ -58.404904, -34.757527, 0.0 ], [ -58.410685, -34.756689, 0.0 ], [ -58.409675, -34.752081, 0.0 ], [ -58.409198, -34.749815, 0.0 ], [ -58.408905, -34.7484, 0.0 ], [ -58.414951, -34.747485, 0.0 ], [ -58.418986, -34.746956, 0.0 ], [ -58.417382, -34.734338, 0.0 ], [ -58.418337, -34.734709, 0.0 ], [ -58.431246, -34.717993, 0.0 ], [ -58.432797, -34.716042, 0.0 ], [ -58.432234, -34.715733, 0.0 ], [ -58.438063, -34.70789, 0.0 ], [ -58.438203, -34.707749, 0.0 ], [ -58.43698, -34.707132, 0.0 ], [ -58.439011, -34.704372, 0.0 ], [ -58.441071, -34.701646, 0.0 ], [ -58.442702, -34.699556, 0.0 ], [ -58.443389, -34.698599, 0.0 ], [ -58.445101, -34.6973, 0.0 ], [ -58.447065, -34.695501, 0.0 ], [ -58.448094, -34.694275, 0.0 ], [ -58.448668, -34.693847, 0.0 ], [ -58.449237, -34.693582, 0.0 ], [ -58.449892, -34.693326, 0.0 ], [ -58.4502, -34.693248, 0.0 ], [ -58.451557, -34.694836, 0.0 ], [ -58.453789, -34.697438, 0.0 ], [ -58.455983, -34.700098, 0.0 ], [ -58.458504, -34.703017, 0.0 ], [ -58.458976, -34.703594, 0.0 ], [ -58.459185, -34.703828, 0.0 ], [ -58.459555, -34.704088, 0.0 ], [ -58.459797, -34.704374, 0.0 ], [ -58.459974, -34.70474, 0.0 ], [ -58.459931, -34.705023, 0.0 ], [ -58.459475, -34.705457, 0.0 ], [ -58.458907, -34.705828, 0.0 ], [ -58.458762, -34.705986, 0.0 ], [ -58.458773, -34.706097, 0.0 ], [ -58.458996, -34.706196, 0.0 ], [ -58.459533, -34.706618, 0.0 ], [ -58.459582, -34.706852, 0.0 ], [ -58.458965, -34.707615, 0.0 ], [ -58.458728, -34.707814, 0.0 ], [ -58.458027, -34.707761, 0.0 ], [ -58.457622, -34.708014, 0.0 ], [ -58.456694, -34.708679, 0.0 ], [ -58.455884, -34.709446, 0.0 ], [ -58.455069, -34.709301, 0.0 ], [ -58.454184, -34.708692, 0.0 ], [ -58.454299, -34.707932, 0.0 ], [ -58.455613, -34.707421, 0.0 ] ] } },
{ "type": "Feature", "properties": { "Name": "551 A - Penal a Lomas", "nombre": "" }, "geometry": { "type": "LineString", "coordinates": [ [ -58.465646, -34.756334, 0.0 ], [ -58.466669, -34.754952, 0.0 ], [ -58.468629, -34.752324, 0.0 ], [ -58.470028, -34.75049, 0.0 ], [ -58.470092, -34.750679, 0.0 ], [ -58.470242, -34.75116, 0.0 ], [ -58.470424, -34.751928, 0.0 ], [ -58.470568, -34.752263, 0.0 ], [ -58.470885, -34.752545, 0.0 ], [ -58.471035, -34.752792, 0.0 ], [ -58.470785, -34.753323, 0.0 ], [ -58.470925, -34.753812, 0.0 ], [ -58.471407, -34.755694, 0.0 ], [ -58.471676, -34.756879, 0.0 ], [ -58.47321, -34.756615, 0.0 ], [ -58.473483, -34.75665, 0.0 ], [ -58.473972, -34.756774, 0.0 ], [ -58.47821, -34.75104, 0.0 ], [ -58.467344, -34.745313, 0.0 ], [ -58.464447, -34.743761, 0.0 ], [ -58.458166, -34.740636, 0.0 ], [ -58.454807, -34.745051, 0.0 ], [ -58.453397, -34.744312, 0.0 ], [ -58.452303, -34.745732, 0.0 ], [ -58.442321, -34.740223, 0.0 ], [ -58.438823, -34.744813, 0.0 ], [ -58.438198, -34.744114, 0.0 ], [ -58.436924, -34.745564, 0.0 ], [ -58.436116, -34.746551, 0.0 ], [ -58.432786, -34.744596, 0.0 ], [ -58.432185, -34.745292, 0.0 ], [ -58.427227, -34.74602, 0.0 ], [ -58.401919, -34.749561, 0.0 ], [ -58.403336, -34.756627, 0.0 ], [ -58.401879, -34.756837, 0.0 ], [ -58.402126, -34.757918, 0.0 ], [ -58.40356, -34.757702, 0.0 ], [ -58.404338, -34.761416, 0.0 ], [ -58.397904, -34.762255, 0.0 ], [ -58.397776, -34.762199, 0.0 ], [ -58.397719, -34.761638, 0.0 ], [ -58.397789, -34.76131, 0.0 ], [ -58.397674, -34.76043, 0.0 ] ] } },
{ "type": "Feature", "properties": { "Name": "551 A - Lomas al Penal", "nombre": "" }, "geometry": { "type": "LineString", "coordinates": [ [ -58.397665, -34.760434, 0.0 ], [ -58.397614, -34.759806, 0.0 ], [ -58.405153, -34.75873, 0.0 ], [ -58.403147, -34.74922, 0.0 ], [ -58.429541, -34.745478, 0.0 ], [ -58.432181, -34.74517, 0.0 ], [ -58.432771, -34.744395, 0.0 ], [ -58.436108, -34.746383, 0.0 ], [ -58.4382, -34.743972, 0.0 ], [ -58.438813, -34.744639, 0.0 ], [ -58.442323, -34.740035, 0.0 ], [ -58.452253, -34.745541, 0.0 ], [ -58.453361, -34.74416, 0.0 ], [ -58.454759, -34.744868, 0.0 ], [ -58.458133, -34.740465, 0.0 ], [ -58.465151, -34.743836, 0.0 ], [ -58.478429, -34.750979, 0.0 ], [ -58.474063, -34.756867, 0.0 ], [ -58.473312, -34.756746, 0.0 ], [ -58.473108, -34.756759, 0.0 ], [ -58.471558, -34.757041, 0.0 ], [ -58.470662, -34.753334, 0.0 ], [ -58.470831, -34.752854, 0.0 ], [ -58.470767, -34.752704, 0.0 ], [ -58.470488, -34.752369, 0.0 ], [ -58.470295, -34.752078, 0.0 ], [ -58.469998, -34.750686, 0.0 ], [ -58.465449, -34.756803, 0.0 ] ] } },
{ "type": "Feature", "properties": { "Name": "551 C - Ruta 4 a La Noria", "nombre": "" }, "geometry": { "type": "LineString", "coordinates": [ [ -58.484754, -34.754335, 0.0 ], [ -58.478358, -34.751104, 0.0 ], [ -58.474031, -34.756879, 0.0 ], [ -58.473288, -34.756718, 0.0 ], [ -58.471567, -34.757024, 0.0 ], [ -58.470642, -34.753334, 0.0 ], [ -58.470884, -34.752966, 0.0 ], [ -58.470851, -34.752708, 0.0 ], [ -58.470546, -34.752406, 0.0 ], [ -58.470393, -34.752216, 0.0 ], [ -58.470003, -34.750665, 0.0 ], [ -58.465402, -34.756863, 0.0 ], [ -58.465304, -34.756803, 0.0 ], [ -58.471999, -34.747795, 0.0 ], [ -58.48059, -34.735808, 0.0 ], [ -58.47515, -34.733579, 0.0 ], [ -58.47265, -34.732308, 0.0 ], [ -58.479065, -34.723541, 0.0 ], [ -58.461296, -34.706473, 0.0 ], [ -58.46076, -34.706151, 0.0 ], [ -58.45978, -34.706834, 0.0 ], [ -58.459217, -34.70754, 0.0 ], [ -58.4586, -34.707946, 0.0 ], [ -58.457343, -34.708311, 0.0 ], [ -58.456002, -34.709537, 0.0 ], [ -58.454138, -34.708691, 0.0 ], [ -58.454199, -34.708094, 0.0 ], [ -58.454077, -34.70775, 0.0 ], [ -58.453889, -34.707582, 0.0 ], [ -58.454551, -34.707221, 0.0 ] ] } },
{ "type": "Feature", "properties": { "Name": "551 C - La Noria a Ruta 4", "nombre": "" }, "geometry": { "type": "LineString", "coordinates": [ [ -58.454602, -34.707176, 0.0 ], [ -58.45538, -34.706722, 0.0 ], [ -58.455842, -34.707249, 0.0 ], [ -58.455904, -34.707367, 0.0 ], [ -58.457983, -34.706473, 0.0 ], [ -58.458715, -34.70619, 0.0 ], [ -58.45912, -34.70632, 0.0 ], [ -58.459276, -34.706453, 0.0 ], [ -58.459593, -34.706536, 0.0 ], [ -58.460271, -34.706254, 0.0 ], [ -58.460871, -34.705932, 0.0 ], [ -58.461397, -34.706016, 0.0 ], [ -58.468615, -34.71359, 0.0 ], [ -58.479366, -34.723507, 0.0 ], [ -58.472834, -34.732275, 0.0 ], [ -58.475073, -34.733325, 0.0 ], [ -58.480811, -34.735774, 0.0 ], [ -58.465433, -34.75693, 0.0 ], [ -58.465235, -34.756824, 0.0 ], [ -58.470029, -34.750481, 0.0 ], [ -58.470397, -34.751862, 0.0 ], [ -58.470522, -34.75223, 0.0 ], [ -58.470888, -34.752583, 0.0 ], [ -58.471015, -34.752796, 0.0 ], [ -58.471023, -34.752917, 0.0 ], [ -58.470765, -34.75332, 0.0 ], [ -58.471665, -34.756903, 0.0 ], [ -58.473084, -34.756656, 0.0 ], [ -58.473315, -34.756636, 0.0 ], [ -58.473657, -34.756714, 0.0 ], [ -58.473968, -34.756789, 0.0 ], [ -58.47832, -34.750898, 0.0 ], [ -58.48242, -34.753008, 0.0 ], [ -58.481916, -34.753669, 0.0 ], [ -58.484303, -34.75485, 0.0 ] ] } },
{ "type": "Feature", "properties": { "Name": "551 C - DESVIO X FERIA DE RUTA 4 A LA NORIA", "nombre": "" }, "geometry": { "type": "LineString", "coordinates": [ [ -58.473727, -34.732894, 0.0 ], [ -58.466388, -34.729106, 0.0 ], [ -58.466791, -34.728479, 0.0 ], [ -58.466828, -34.728089, 0.0 ], [ -58.4663, -34.727218, 0.0 ], [ -58.465742, -34.726367, 0.0 ], [ -58.465012, -34.725962, 0.0 ], [ -58.462842, -34.724739, 0.0 ], [ -58.462729, -34.724677, 0.0 ], [ -58.464661, -34.72227, 0.0 ], [ -58.462259, -34.720954, 0.0 ], [ -58.467296, -34.71469, 0.0 ], [ -58.45667, -34.708858, 0.0 ] ] } },
{ "type": "Feature", "properties": { "Name": "552 A - Cruce a Banfield", "nombre": "" }, "geometry": { "type": "LineString", "coordinates": [ [ -58.457576, -34.779533, 0.0 ], [ -58.458019, -34.77895, 0.0 ], [ -58.45771, -34.778656, 0.0 ], [ -58.457431, -34.778502, 0.0 ], [ -58.447191, -34.773305, 0.0 ], [ -58.443838, -34.771484, 0.0 ], [ -58.438238, -34.768467, 0.0 ], [ -58.438792, -34.767775, 0.0 ], [ -58.442166, -34.76948, 0.0 ], [ -58.447919, -34.761828, 0.0 ], [ -58.445631, -34.760714, 0.0 ], [ -58.449812, -34.755149, 0.0 ], [ -58.446342, -34.753384, 0.0 ], [ -58.445014, -34.752679, 0.0 ], [ -58.444725, -34.752437, 0.0 ], [ -58.443148, -34.750771, 0.0 ], [ -58.442793, -34.750415, 0.0 ], [ -58.439555, -34.74857, 0.0 ], [ -58.438, -34.747724, 0.0 ], [ -58.432778, -34.744586, 0.0 ], [ -58.432182, -34.745283, 0.0 ], [ -58.426982, -34.746011, 0.0 ], [ -58.425796, -34.746156, 0.0 ], [ -58.400426, -34.74976, 0.0 ], [ -58.397412, -34.750154, 0.0 ], [ -58.396519, -34.745666, 0.0 ], [ -58.396054, -34.74326, 0.0 ] ] } },
{ "type": "Feature", "properties": { "Name": "552 A - Banfield al Cruce", "nombre": "" }, "geometry": { "type": "LineString", "coordinates": [ [ -58.396035, -34.743244, 0.0 ], [ -58.395999, -34.742857, 0.0 ], [ -58.39897, -34.7425, 0.0 ], [ -58.399955, -34.74732, 0.0 ], [ -58.4004, -34.749662, 0.0 ], [ -58.417651, -34.74715, 0.0 ], [ -58.43212, -34.745192, 0.0 ], [ -58.432785, -34.744443, 0.0 ], [ -58.438219, -34.747651, 0.0 ], [ -58.440459, -34.748844, 0.0 ], [ -58.442894, -34.750316, 0.0 ], [ -58.44469, -34.752183, 0.0 ], [ -58.445098, -34.752606, 0.0 ], [ -58.446256, -34.753166, 0.0 ], [ -58.449735, -34.748835, 0.0 ], [ -58.453353, -34.750696, 0.0 ], [ -58.445812, -34.760689, 0.0 ], [ -58.448097, -34.761828, 0.0 ], [ -58.441825, -34.770096, 0.0 ], [ -58.445464, -34.771941, 0.0 ], [ -58.457557, -34.778268, 0.0 ], [ -58.45782, -34.778405, 0.0 ], [ -58.458037, -34.778407, 0.0 ], [ -58.458292, -34.778341, 0.0 ], [ -58.458453, -34.778268, 0.0 ], [ -58.458684, -34.777894, 0.0 ], [ -58.459135, -34.777318, 0.0 ] ] } },
{ "type": "Feature", "properties": { "Name": "552 B - Banfield a Restelli", "nombre": "" }, "geometry": { "type": "LineString", "coordinates": [ [ -58.396051, -34.743289, 0.0 ], [ -58.395994, -34.742859, 0.0 ], [ -58.398984, -34.742495, 0.0 ], [ -58.400414, -34.74964, 0.0 ], [ -58.424255, -34.746209, 0.0 ], [ -58.432122, -34.745203, 0.0 ], [ -58.432778, -34.744467, 0.0 ], [ -58.436519, -34.746621, 0.0 ], [ -58.43823, -34.747645, 0.0 ], [ -58.440349, -34.748771, 0.0 ], [ -58.442876, -34.750322, 0.0 ], [ -58.44494, -34.75247, 0.0 ], [ -58.445133, -34.752617, 0.0 ], [ -58.446257, -34.753181, 0.0 ], [ -58.449708, -34.748824, 0.0 ], [ -58.451276, -34.749611, 0.0 ], [ -58.458102, -34.74044, 0.0 ], [ -58.460221, -34.741532, 0.0 ], [ -58.464596, -34.743635, 0.0 ], [ -58.466639, -34.744714, 0.0 ], [ -58.472212, -34.747716, 0.0 ], [ -58.470059, -34.750575, 0.0 ], [ -58.470528, -34.752203, 0.0 ], [ -58.470992, -34.752731, 0.0 ], [ -58.471029, -34.752871, 0.0 ], [ -58.470985, -34.753001, 0.0 ], [ -58.470755, -34.753316, 0.0 ], [ -58.471655, -34.756915, 0.0 ], [ -58.473043, -34.756675, 0.0 ], [ -58.473327, -34.756623, 0.0 ], [ -58.473967, -34.756798, 0.0 ], [ -58.478333, -34.750968, 0.0 ], [ -58.482401, -34.753023, 0.0 ], [ -58.481883, -34.753674, 0.0 ], [ -58.484291, -34.754889, 0.0 ] ] } },
{ "type": "Feature", "properties": { "Name": "552 B - Restelli a Banfield", "nombre": "" }, "geometry": { "type": "LineString", "coordinates": [ [ -58.484676, -34.754317, 0.0 ], [ -58.478329, -34.751077, 0.0 ], [ -58.474024, -34.756868, 0.0 ], [ -58.473387, -34.75671, 0.0 ], [ -58.473254, -34.756699, 0.0 ], [ -58.473105, -34.756718, 0.0 ], [ -58.472958, -34.756753, 0.0 ], [ -58.471597, -34.75699, 0.0 ], [ -58.470695, -34.753321, 0.0 ], [ -58.470703, -34.753261, 0.0 ], [ -58.47093, -34.752955, 0.0 ], [ -58.470942, -34.752904, 0.0 ], [ -58.47094, -34.752827, 0.0 ], [ -58.470896, -34.75273, 0.0 ], [ -58.470657, -34.752494, 0.0 ], [ -58.470466, -34.75226, 0.0 ], [ -58.470421, -34.752164, 0.0 ], [ -58.470359, -34.752013, 0.0 ], [ -58.470001, -34.750553, 0.0 ], [ -58.472076, -34.747726, 0.0 ], [ -58.464671, -34.743855, 0.0 ], [ -58.458165, -34.740587, 0.0 ], [ -58.451363, -34.749649, 0.0 ], [ -58.451309, -34.74972, 0.0 ], [ -58.449779, -34.748959, 0.0 ], [ -58.446308, -34.753333, 0.0 ], [ -58.445032, -34.75267, 0.0 ], [ -58.444985, -34.752641, 0.0 ], [ -58.444785, -34.752468, 0.0 ], [ -58.442964, -34.750531, 0.0 ], [ -58.442794, -34.750403, 0.0 ], [ -58.440517, -34.749079, 0.0 ], [ -58.440251, -34.748898, 0.0 ], [ -58.43942, -34.748444, 0.0 ], [ -58.432775, -34.744572, 0.0 ], [ -58.432169, -34.745272, 0.0 ], [ -58.429578, -34.745617, 0.0 ], [ -58.397424, -34.750143, 0.0 ], [ -58.396038, -34.743259, 0.0 ] ] } },
{ "type": "Feature", "properties": { "Name": "552 C - La Noria a Ruta 4", "nombre": "" }, "geometry": { "type": "LineString", "coordinates": [ [ -58.455074, -34.706859, 0.0 ], [ -58.455393, -34.706681, 0.0 ], [ -58.455849, -34.70719, 0.0 ], [ -58.455953, -34.707367, 0.0 ], [ -58.45864, -34.706162, 0.0 ], [ -58.45899, -34.706205, 0.0 ], [ -58.459463, -34.70653, 0.0 ], [ -58.459576, -34.706619, 0.0 ], [ -58.459628, -34.706813, 0.0 ], [ -58.459329, -34.707271, 0.0 ], [ -58.457694, -34.709247, 0.0 ], [ -58.466378, -34.714092, 0.0 ], [ -58.465351, -34.715355, 0.0 ], [ -58.466414, -34.71597, 0.0 ], [ -58.46244, -34.720922, 0.0 ], [ -58.464801, -34.722245, 0.0 ], [ -58.462894, -34.724642, 0.0 ], [ -58.465534, -34.726084, 0.0 ], [ -58.465775, -34.726216, 0.0 ], [ -58.465931, -34.726366, 0.0 ], [ -58.466274, -34.726886, 0.0 ], [ -58.466636, -34.727415, 0.0 ], [ -58.46694, -34.727871, 0.0 ], [ -58.466986, -34.72802, 0.0 ], [ -58.467017, -34.728146, 0.0 ], [ -58.467016, -34.728278, 0.0 ], [ -58.466989, -34.728475, 0.0 ], [ -58.466928, -34.728627, 0.0 ], [ -58.466691, -34.728934, 0.0 ], [ -58.465867, -34.730049, 0.0 ], [ -58.464218, -34.73223, 0.0 ], [ -58.464201, -34.732288, 0.0 ], [ -58.464271, -34.732356, 0.0 ], [ -58.46428, -34.732458, 0.0 ], [ -58.464217, -34.73252, 0.0 ], [ -58.464104, -34.732609, 0.0 ], [ -58.458223, -34.740518, 0.0 ], [ -58.46011, -34.741494, 0.0 ], [ -58.464307, -34.743539, 0.0 ], [ -58.464886, -34.743774, 0.0 ], [ -58.465149, -34.743873, 0.0 ], [ -58.472126, -34.747642, 0.0 ], [ -58.472235, -34.747715, 0.0 ], [ -58.470045, -34.750572, 0.0 ], [ -58.470468, -34.752105, 0.0 ], [ -58.470566, -34.752293, 0.0 ], [ -58.470864, -34.752586, 0.0 ], [ -58.471003, -34.752798, 0.0 ], [ -58.471011, -34.752902, 0.0 ], [ -58.471, -34.752969, 0.0 ], [ -58.47075, -34.753321, 0.0 ], [ -58.471668, -34.756925, 0.0 ], [ -58.473122, -34.756665, 0.0 ], [ -58.473303, -34.756649, 0.0 ], [ -58.473466, -34.756676, 0.0 ], [ -58.473974, -34.756808, 0.0 ], [ -58.47833, -34.750941, 0.0 ], [ -58.482372, -34.753036, 0.0 ], [ -58.481894, -34.753668, 0.0 ], [ -58.484296, -34.754878, 0.0 ] ] } },
{ "type": "Feature", "properties": { "Name": "552 C - Ruta 4 a La Noria", "nombre": "" }, "geometry": { "type": "LineString", "coordinates": [ [ -58.484729, -34.754335, 0.0 ], [ -58.479891, -34.751865, 0.0 ], [ -58.478348, -34.75105, 0.0 ], [ -58.474052, -34.756878, 0.0 ], [ -58.473628, -34.756779, 0.0 ], [ -58.473397, -34.75672, 0.0 ], [ -58.473242, -34.756707, 0.0 ], [ -58.471603, -34.756998, 0.0 ], [ -58.470684, -34.75333, 0.0 ], [ -58.470701, -34.753253, 0.0 ], [ -58.47091, -34.752966, 0.0 ], [ -58.470923, -34.752829, 0.0 ], [ -58.470874, -34.752742, 0.0 ], [ -58.47078, -34.752622, 0.0 ], [ -58.47047, -34.75229, 0.0 ], [ -58.470398, -34.752184, 0.0 ], [ -58.470339, -34.751975, 0.0 ], [ -58.469997, -34.750563, 0.0 ], [ -58.472079, -34.747739, 0.0 ], [ -58.4653, -34.744155, 0.0 ], [ -58.465083, -34.743973, 0.0 ], [ -58.464816, -34.74386, 0.0 ], [ -58.458163, -34.740619, 0.0 ], [ -58.466425, -34.729102, 0.0 ], [ -58.466789, -34.728578, 0.0 ], [ -58.466872, -34.728371, 0.0 ], [ -58.466864, -34.728082, 0.0 ], [ -58.466802, -34.727878, 0.0 ], [ -58.466106, -34.72682, 0.0 ], [ -58.465794, -34.726373, 0.0 ], [ -58.465459, -34.726168, 0.0 ], [ -58.462751, -34.724662, 0.0 ], [ -58.464677, -34.722271, 0.0 ], [ -58.462322, -34.720938, 0.0 ], [ -58.467324, -34.714694, 0.0 ], [ -58.456728, -34.708807, 0.0 ], [ -58.456292, -34.709048, 0.0 ], [ -58.456039, -34.709285, 0.0 ], [ -58.455888, -34.709341, 0.0 ], [ -58.455509, -34.709359, 0.0 ], [ -58.454332, -34.708765, 0.0 ], [ -58.454184, -34.708432, 0.0 ], [ -58.454167, -34.708029, 0.0 ], [ -58.454054, -34.707737, 0.0 ], [ -58.453896, -34.707557, 0.0 ], [ -58.455076, -34.706868, 0.0 ] ] } },
{ "type": "Feature", "properties": { "Name": "553 - La Noria a Lomas", "nombre": "" }, "geometry": { "type": "LineString", "coordinates": [ [ -58.454743, -34.707282, 0.0 ], [ -58.454112, -34.707641, 0.0 ], [ -58.454126, -34.707693, 0.0 ], [ -58.454184, -34.707763, 0.0 ], [ -58.454234, -34.707795, 0.0 ], [ -58.454292, -34.707832, 0.0 ], [ -58.454539, -34.707871, 0.0 ], [ -58.456191, -34.707269, 0.0 ], [ -58.458447, -34.706259, 0.0 ], [ -58.458736, -34.706147, 0.0 ], [ -58.458924, -34.706182, 0.0 ], [ -58.459112, -34.706253, 0.0 ], [ -58.459486, -34.706536, 0.0 ], [ -58.459575, -34.706644, 0.0 ], [ -58.459622, -34.706886, 0.0 ], [ -58.457706, -34.709247, 0.0 ], [ -58.466391, -34.714091, 0.0 ], [ -58.46537, -34.715356, 0.0 ], [ -58.466399, -34.715961, 0.0 ], [ -58.462449, -34.720914, 0.0 ], [ -58.464833, -34.722245, 0.0 ], [ -58.462915, -34.724638, 0.0 ], [ -58.465235, -34.725965, 0.0 ], [ -58.465652, -34.726169, 0.0 ], [ -58.465802, -34.726264, 0.0 ], [ -58.465872, -34.726325, 0.0 ], [ -58.465911, -34.726367, 0.0 ], [ -58.465963, -34.726457, 0.0 ], [ -58.46631, -34.726972, 0.0 ], [ -58.466469, -34.72723, 0.0 ], [ -58.466922, -34.727864, 0.0 ], [ -58.466991, -34.728105, 0.0 ], [ -58.467032, -34.728295, 0.0 ], [ -58.466974, -34.728467, 0.0 ], [ -58.466831, -34.72874, 0.0 ], [ -58.464197, -34.732235, 0.0 ], [ -58.464183, -34.732299, 0.0 ], [ -58.464233, -34.732323, 0.0 ], [ -58.464261, -34.732378, 0.0 ], [ -58.46426, -34.732434, 0.0 ], [ -58.46423, -34.732483, 0.0 ], [ -58.464193, -34.732514, 0.0 ], [ -58.46412, -34.732549, 0.0 ], [ -58.464092, -34.732677, 0.0 ], [ -58.454809, -34.745017, 0.0 ], [ -58.453398, -34.744291, 0.0 ], [ -58.446329, -34.753347, 0.0 ], [ -58.445027, -34.752708, 0.0 ], [ -58.444824, -34.752549, 0.0 ], [ -58.44275, -34.750425, 0.0 ], [ -58.439741, -34.74871, 0.0 ], [ -58.432762, -34.744578, 0.0 ], [ -58.432177, -34.745278, 0.0 ], [ -58.424634, -34.7463, 0.0 ], [ -58.424043, -34.746384, 0.0 ], [ -58.42382, -34.748785, 0.0 ], [ -58.419609, -34.749456, 0.0 ], [ -58.417926, -34.749699, 0.0 ], [ -58.417004, -34.749818, 0.0 ], [ -58.414987, -34.750122, 0.0 ], [ -58.412374, -34.75051, 0.0 ], [ -58.407482, -34.751216, 0.0 ], [ -58.406798, -34.751306, 0.0 ], [ -58.407539, -34.75473, 0.0 ], [ -58.40779, -34.756002, 0.0 ], [ -58.401874, -34.756833, 0.0 ], [ -58.402129, -34.757929, 0.0 ], [ -58.403554, -34.757711, 0.0 ], [ -58.404341, -34.761437, 0.0 ], [ -58.397929, -34.762269, 0.0 ], [ -58.397756, -34.76221, 0.0 ], [ -58.397723, -34.76164, 0.0 ], [ -58.397766, -34.761448, 0.0 ], [ -58.397786, -34.761387, 0.0 ], [ -58.397792, -34.761277, 0.0 ], [ -58.397628, -34.759936, 0.0 ] ] } },
{ "type": "Feature", "properties": { "Name": "553 - Lomas a La Noria", "nombre": "" }, "geometry": { "type": "LineString", "coordinates": [ [ -58.397638, -34.759916, 0.0 ], [ -58.397631, -34.759832, 0.0 ], [ -58.398021, -34.759752, 0.0 ], [ -58.405122, -34.75871, 0.0 ], [ -58.403879, -34.752816, 0.0 ], [ -58.419409, -34.750496, 0.0 ], [ -58.419378, -34.749368, 0.0 ], [ -58.423708, -34.748696, 0.0 ], [ -58.423968, -34.7463, 0.0 ], [ -58.432129, -34.745209, 0.0 ], [ -58.43278, -34.744486, 0.0 ], [ -58.438223, -34.747628, 0.0 ], [ -58.44038, -34.748832, 0.0 ], [ -58.441404, -34.749469, 0.0 ], [ -58.442949, -34.750355, 0.0 ], [ -58.444902, -34.752421, 0.0 ], [ -58.445147, -34.752618, 0.0 ], [ -58.446279, -34.753189, 0.0 ], [ -58.453334, -34.744105, 0.0 ], [ -58.454754, -34.744885, 0.0 ], [ -58.466722, -34.72854, 0.0 ], [ -58.466784, -34.727939, 0.0 ], [ -58.466307, -34.727184, 0.0 ], [ -58.465789, -34.72639, 0.0 ], [ -58.46543, -34.726168, 0.0 ], [ -58.462773, -34.724663, 0.0 ], [ -58.464626, -34.722255, 0.0 ], [ -58.462304, -34.720956, 0.0 ], [ -58.467244, -34.714712, 0.0 ], [ -58.456729, -34.708794, 0.0 ], [ -58.45632, -34.709016, 0.0 ], [ -58.455975, -34.709379, 0.0 ], [ -58.45527, -34.709274, 0.0 ], [ -58.454521, -34.708884, 0.0 ], [ -58.454168, -34.708637, 0.0 ], [ -58.454263, -34.708048, 0.0 ], [ -58.454526, -34.707856, 0.0 ], [ -58.45589, -34.707364, 0.0 ], [ -58.455812, -34.707196, 0.0 ], [ -58.455476, -34.706822, 0.0 ], [ -58.454748, -34.707248, 0.0 ] ] } }
]
}
