{
"type": "FeatureCollection",
"name": "Recorridos Nacionales",
"crs": { "type": "name", "properties": { "name": "urn:ogc:def:crs:OGC:1.3:CRS84" } },
"features": [
{ "type": "Feature", "properties": { "Name": "20 R1 - Desde Ejercito y Hornos", "Descripci__n": "", "nombre": "" }, "geometry": { "type": "LineString", "coordinates": [ [ -58.4303789, -34.7145993, 0.0 ], [ -58.4332807, -34.716108, 0.0 ], [ -58.4342114, -34.7166272, 0.0 ], [ -58.4312933, -34.7202959, 0.0 ], [ -58.4419778, -34.7257619, 0.0 ], [ -58.4426667, -34.7261478, 0.0 ], [ -58.4384523, -34.7317299, 0.0 ], [ -58.4349794, -34.7362755, 0.0 ], [ -58.4334326, -34.739219, 0.0 ], [ -58.4312892, -34.7417808, 0.0 ], [ -58.429944, -34.743521, 0.0 ], [ -58.4298194, -34.7439341, 0.0 ], [ -58.4300989, -34.7454426, 0.0 ], [ -58.4304905, -34.7471474, 0.0 ], [ -58.4305844, -34.7474846, 0.0 ], [ -58.4313638, -34.7483723, 0.0 ], [ -58.4344134, -34.749991, 0.0 ], [ -58.4363014, -34.7509331, 0.0 ], [ -58.436438, -34.751523, 0.0 ], [ -58.4362156, -34.7520615, 0.0 ], [ -58.4357542, -34.7526631, 0.0 ], [ -58.4333643, -34.7561183, 0.0 ], [ -58.4328298, -34.7568766, 0.0 ], [ -58.4320734, -34.7584059, 0.0 ], [ -58.4316661, -34.7593786, 0.0 ], [ -58.4312503, -34.760216, 0.0 ], [ -58.4307568, -34.761829, 0.0 ], [ -58.4306056, -34.7623303, 0.0 ], [ -58.4306807, -34.7626564, 0.0 ], [ -58.4308523, -34.76289, 0.0 ], [ -58.4321291, -34.7637405, 0.0 ], [ -58.4333951, -34.7645514, 0.0 ], [ -58.4341139, -34.7652829, 0.0 ], [ -58.4344358, -34.765706, 0.0 ], [ -58.436324, -34.7668253, 0.0 ], [ -58.4370751, -34.76731, 0.0 ], [ -58.437553, -34.767828, 0.0 ], [ -58.4571565, -34.7779562, 0.0 ], [ -58.4580792, -34.7782911, 0.0 ], [ -58.4584055, -34.778214, 0.0 ], [ -58.459119, -34.777183, 0.0 ] ] } },
{ "type": "Feature", "properties": { "Name": "20 R1 - Desde Camino de Cintura", "Descripci__n": "", "nombre": "" }, "geometry": { "type": "LineString", "coordinates": [ [ -58.4574968, -34.7794737, 0.0 ], [ -58.4578723, -34.7790066, 0.0 ], [ -58.4572178, -34.7784602, 0.0 ], [ -58.4384106, -34.7685589, 0.0 ], [ -58.4378581, -34.7693697, 0.0 ], [ -58.436736, -34.768833, 0.0 ], [ -58.4356694, -34.7682813, 0.0 ], [ -58.435306, -34.76809, 0.0 ], [ -58.4349291, -34.7678185, 0.0 ], [ -58.433824, -34.7672457, 0.0 ], [ -58.4337172, -34.767031, 0.0 ], [ -58.4343046, -34.7662113, 0.0 ], [ -58.4328776, -34.7645984, 0.0 ], [ -58.4323627, -34.7643428, 0.0 ], [ -58.4308177, -34.7633645, 0.0 ], [ -58.4303242, -34.7627563, 0.0 ], [ -58.4303456, -34.7620821, 0.0 ], [ -58.4306161, -34.7613706, 0.0 ], [ -58.4307663, -34.7607008, 0.0 ], [ -58.4313135, -34.7590966, 0.0 ], [ -58.4316461, -34.7581094, 0.0 ], [ -58.4320859, -34.757034, 0.0 ], [ -58.432676, -34.7562847, 0.0 ], [ -58.4334311, -34.755299, 0.0 ], [ -58.4344289, -34.7537299, 0.0 ], [ -58.435222, -34.7526462, 0.0 ], [ -58.4358118, -34.7517267, 0.0 ], [ -58.435567, -34.751113, 0.0 ], [ -58.4336231, -34.7501929, 0.0 ], [ -58.4310374, -34.7488882, 0.0 ], [ -58.430301, -34.748032, 0.0 ], [ -58.429722, -34.7458126, 0.0 ], [ -58.4293465, -34.7441287, 0.0 ], [ -58.4292714, -34.7431414, 0.0 ], [ -58.428869, -34.7425308, 0.0 ], [ -58.429266, -34.7420239, 0.0 ], [ -58.430104, -34.742529, 0.0 ], [ -58.4306968, -34.7417573, 0.0 ], [ -58.4315659, -34.7406464, 0.0 ], [ -58.4326602, -34.7391741, 0.0 ], [ -58.4343339, -34.7361059, 0.0 ], [ -58.4358574, -34.7336812, 0.0 ], [ -58.4376598, -34.7315343, 0.0 ], [ -58.441925, -34.725877, 0.0 ], [ -58.4339521, -34.7220289, 0.0 ], [ -58.4311215, -34.7203416, 0.0 ], [ -58.4340254, -34.7166302, 0.0 ], [ -58.4280676, -34.7136328, 0.0 ] ] } },
{ "type": "Feature", "properties": { "Name": "20 R3 - Desde El Cementerio", "Descripci__n": "", "nombre": "" }, "geometry": { "type": "LineString", "coordinates": [ [ -58.4204899, -34.7282223, 0.0 ], [ -58.4522429, -34.7455847, 0.0 ], [ -58.4523693, -34.745653, 0.0 ], [ -58.4430766, -34.7576865, 0.0 ], [ -58.4489292, -34.7606988, 0.0 ], [ -58.4418472, -34.770086, 0.0 ], [ -58.442145, -34.7703152, 0.0 ], [ -58.457445, -34.7781748, 0.0 ], [ -58.4578312, -34.7783598, 0.0 ], [ -58.4584386, -34.7783066, 0.0 ], [ -58.4591521, -34.7772381, 0.0 ] ] } },
{ "type": "Feature", "properties": { "Name": "20 R3 - Desde Facultad de Lomas", "Descripci__n": "", "nombre": "" }, "geometry": { "type": "LineString", "coordinates": [ [ -58.4556201, -34.7775441, 0.0 ], [ -58.438252, -34.768492, 0.0 ], [ -58.4388112, -34.7677668, 0.0 ], [ -58.4421761, -34.7694805, 0.0 ], [ -58.448761, -34.760718, 0.0 ], [ -58.4475252, -34.7601437, 0.0 ], [ -58.4465596, -34.7596964, 0.0 ], [ -58.4454759, -34.7590948, 0.0 ], [ -58.4430113, -34.7578228, 0.0 ], [ -58.4428743, -34.7577069, 0.0 ], [ -58.4461981, -34.7532865, 0.0 ], [ -58.4513391, -34.7467327, 0.0 ], [ -58.452161, -34.7456697, 0.0 ], [ -58.449633, -34.7442933, 0.0 ], [ -58.4423241, -34.7401971, 0.0 ], [ -58.4338514, -34.7355542, 0.0 ], [ -58.4285298, -34.7327102, 0.0 ], [ -58.4261031, -34.7313682, 0.0 ], [ -58.4225357, -34.7294858, 0.0 ], [ -58.4210161, -34.7286804, 0.0 ], [ -58.4188987, -34.7275211, 0.0 ], [ -58.4183529, -34.7281995, 0.0 ] ] } },
{ "type": "Feature", "properties": { "Name": "28 RETIRO - Desde La Noria", "Descripci__n": "", "nombre": "" }, "geometry": { "type": "LineString", "coordinates": [ [ -58.4544794, -34.7067923, 0.0 ], [ -58.4549846, -34.7064999, 0.0 ], [ -58.4551187, -34.7064735, 0.0 ], [ -58.4552046, -34.7064889, 0.0 ], [ -58.4552797, -34.7065551, 0.0 ], [ -58.4559614, -34.707335, 0.0 ], [ -58.4570361, -34.7069549, 0.0 ], [ -58.4573124, -34.7069659, 0.0 ], [ -58.4578676, -34.7075833, 0.0 ], [ -58.457856, -34.707744, 0.0 ], [ -58.457709, -34.708047, 0.0 ], [ -58.45632, -34.709016, 0.0 ], [ -58.4546297, -34.7111557, 0.0 ], [ -58.45372, -34.712426, 0.0 ], [ -58.4533284, -34.7128338, 0.0 ], [ -58.4530575, -34.712825, 0.0 ], [ -58.4527651, -34.7126508, 0.0 ], [ -58.4527678, -34.712448, 0.0 ], [ -58.4534732, -34.7115903, 0.0 ], [ -58.4539882, -34.7109421, 0.0 ], [ -58.4453734, -34.706293, 0.0 ], [ -58.4422387, -34.7045811, 0.0 ], [ -58.4397169, -34.7030081, 0.0 ], [ -58.437201, -34.7016674, 0.0 ] ] } },
{ "type": "Feature", "properties": { "Name": "28 RETIRO - Desde Hornos", "Descripci__n": "", "nombre": "" }, "geometry": { "type": "LineString", "coordinates": [ [ -58.4373866, -34.7015522, 0.0 ], [ -58.4401751, -34.7031215, 0.0 ], [ -58.454076, -34.7108519, 0.0 ], [ -58.455162, -34.7095058, 0.0 ], [ -58.4551969, -34.7093867, 0.0 ], [ -58.455157, -34.709249, 0.0 ], [ -58.4543983, -34.7088706, 0.0 ], [ -58.4542105, -34.7086953, 0.0 ], [ -58.454114, -34.708318, 0.0 ], [ -58.454101, -34.7078557, 0.0 ], [ -58.4537606, -34.7074268, 0.0 ], [ -58.4537201, -34.7072714, 0.0 ], [ -58.4538883, -34.7071327, 0.0 ], [ -58.4544247, -34.706813, 0.0 ] ] } },
{ "type": "Feature", "properties": { "Name": "28 POMPEYA - Desde La Noria", "Descripci__n": "", "nombre": "" }, "geometry": { "type": "LineString", "coordinates": [ [ -58.454867, -34.7065821, 0.0 ], [ -58.4549944, -34.7065126, 0.0 ], [ -58.455164, -34.706489, 0.0 ], [ -58.4552787, -34.7065622, 0.0 ], [ -58.4558935, -34.7072248, 0.0 ], [ -58.4559539, -34.7073373, 0.0 ], [ -58.458044, -34.706471, 0.0 ], [ -58.4585157, -34.7058254, 0.0 ], [ -58.4593955, -34.7053359, 0.0 ], [ -58.4595725, -34.7051794, 0.0 ], [ -58.4594572, -34.7047803, 0.0 ], [ -58.4592513, -34.7042958, 0.0 ], [ -58.4590635, -34.7040599, 0.0 ], [ -58.4526764, -34.6966564, 0.0 ], [ -58.4510456, -34.694557, 0.0 ], [ -58.4500465, -34.6934663, 0.0 ], [ -58.4486885, -34.691881, 0.0 ], [ -58.4464915, -34.6892685, 0.0 ] ] } },
{ "type": "Feature", "properties": { "Name": "28 POMPEYA - Desde Hornos", "Descripci__n": "", "nombre": "" }, "geometry": { "type": "LineString", "coordinates": [ [ -58.4466586, -34.689072, 0.0 ], [ -58.4476456, -34.6902365, 0.0 ], [ -58.4482625, -34.6909731, 0.0 ], [ -58.4555474, -34.6994546, 0.0 ], [ -58.457264, -34.7015804, 0.0 ], [ -58.459185, -34.703828, 0.0 ], [ -58.4598336, -34.7043941, 0.0 ], [ -58.4600267, -34.7047425, 0.0 ], [ -58.4599731, -34.7049542, 0.0 ], [ -58.4595224, -34.7054349, 0.0 ], [ -58.4587822, -34.70592, 0.0 ], [ -58.458773, -34.706097, 0.0 ], [ -58.4593937, -34.7063918, 0.0 ], [ -58.459582, -34.706852, 0.0 ], [ -58.459217, -34.70754, 0.0 ], [ -58.4588765, -34.7078519, 0.0 ], [ -58.458281, -34.7078827, 0.0 ], [ -58.458027, -34.707761, 0.0 ], [ -58.4561031, -34.7090249, 0.0 ], [ -58.4557061, -34.7095188, 0.0 ], [ -58.455116, -34.709256, 0.0 ], [ -58.454138, -34.708691, 0.0 ], [ -58.454002, -34.707961, 0.0 ], [ -58.4538795, -34.7075388, 0.0 ], [ -58.4537105, -34.7073095, 0.0 ], [ -58.4538446, -34.7071419, 0.0 ], [ -58.4548236, -34.706584, 0.0 ] ] } },
{ "type": "Feature", "properties": { "Name": "31 EXPRESO 11 - Desde Hornos", "Descripci__n": "", "nombre": "" }, "geometry": { "type": "LineString", "coordinates": [ [ -58.4468963, -34.6893019, 0.0 ], [ -58.4508602, -34.6939375, 0.0 ], [ -58.4529041, -34.6964647, 0.0 ], [ -58.4556721, -34.6997329, 0.0 ], [ -58.457857, -34.7023137, 0.0 ], [ -58.4591122, -34.7037029, 0.0 ], [ -58.4598691, -34.7044802, 0.0 ], [ -58.459974, -34.70474, 0.0 ], [ -58.4599335, -34.705102, 0.0 ], [ -58.459676, -34.7053313, 0.0 ], [ -58.4590215, -34.7057459, 0.0 ], [ -58.4587822, -34.70592, 0.0 ], [ -58.458748, -34.7060281, 0.0 ], [ -58.459035, -34.706252, 0.0 ], [ -58.4593595, -34.7064603, 0.0 ], [ -58.459576, -34.706619, 0.0 ], [ -58.459617, -34.7069277, 0.0 ], [ -58.4589411, -34.7078318, 0.0 ], [ -58.4584154, -34.7079156, 0.0 ], [ -58.4580345, -34.707823, 0.0 ], [ -58.4578843, -34.7079156, 0.0 ], [ -58.4568124, -34.7087118, 0.0 ], [ -58.4608894, -34.7110049, 0.0 ], [ -58.4630754, -34.7121977, 0.0 ], [ -58.4673663, -34.7145771, 0.0 ], [ -58.4684195, -34.7133634, 0.0 ], [ -58.474492, -34.7190648, 0.0 ], [ -58.4795184, -34.7235534, 0.0 ], [ -58.4728211, -34.7322476, 0.0 ], [ -58.4747093, -34.7331558, 0.0 ], [ -58.4775525, -34.7342491, 0.0 ], [ -58.4805887, -34.7356598, 0.0 ], [ -58.4809267, -34.7356245, 0.0 ] ] } },
{ "type": "Feature", "properties": { "Name": "31 EXPRESSO 11 - DESVIO desde Hornos", "Descripci__n": "", "nombre": "" }, "geometry": { "type": "LineString", "coordinates": [ [ -58.4468788, -34.6892514, 0.0 ], [ -58.4592567, -34.7038299, 0.0 ], [ -58.4599299, -34.7045818, 0.0 ], [ -58.4599782, -34.7050691, 0.0 ], [ -58.4595598, -34.705466, 0.0 ], [ -58.4588356, -34.7059379, 0.0 ], [ -58.4588409, -34.7061055, 0.0 ], [ -58.4593937, -34.7063918, 0.0 ], [ -58.4596134, -34.7066126, 0.0 ], [ -58.459622, -34.706886, 0.0 ], [ -58.4588356, -34.7077636, 0.0 ], [ -58.458385, -34.7078122, 0.0 ], [ -58.457988, -34.707746, 0.0 ], [ -58.4568025, -34.7087173, 0.0 ], [ -58.466412, -34.714076, 0.0 ], [ -58.46537, -34.715356, 0.0 ], [ -58.466482, -34.715946, 0.0 ], [ -58.4625214, -34.7209136, 0.0 ], [ -58.4648853, -34.7222211, 0.0 ], [ -58.462915, -34.724638, 0.0 ], [ -58.4658181, -34.7262309, 0.0 ], [ -58.4660702, -34.7265241, 0.0 ], [ -58.4670098, -34.7279561, 0.0 ], [ -58.4670473, -34.7283485, 0.0 ], [ -58.466594, -34.7290705, 0.0 ], [ -58.4723688, -34.7319538, 0.0 ], [ -58.4749759, -34.7332675, 0.0 ], [ -58.488564, -34.7390557, 0.0 ] ] } },
{ "type": "Feature", "properties": { "Name": "31 EXPRESO 11 - Desde Olimpo", "Descripci__n": "", "nombre": "" }, "geometry": { "type": "LineString", "coordinates": [ [ -58.4858796, -34.7381362, 0.0 ], [ -58.4725934, -34.7323151, 0.0 ], [ -58.4791405, -34.7235827, 0.0 ], [ -58.4683258, -34.7136229, 0.0 ], [ -58.4674038, -34.7147816, 0.0 ], [ -58.456767, -34.708847, 0.0 ], [ -58.4564028, -34.7090811, 0.0 ], [ -58.4561077, -34.7095176, 0.0 ], [ -58.4549866, -34.7092971, 0.0 ], [ -58.4540263, -34.708693, 0.0 ], [ -58.4539432, -34.707778, 0.0 ], [ -58.4536186, -34.7072686, 0.0 ], [ -58.4544575, -34.7068028, 0.0 ], [ -58.4550557, -34.7064665, 0.0 ], [ -58.4552227, -34.7064808, 0.0 ], [ -58.455973, -34.7073231, 0.0 ], [ -58.4580805, -34.7064515, 0.0 ], [ -58.4585423, -34.7058247, 0.0 ], [ -58.4594611, -34.7053038, 0.0 ], [ -58.4595724, -34.7050889, 0.0 ], [ -58.4592396, -34.7042576, 0.0 ], [ -58.4464946, -34.6892499, 0.0 ] ] } },
{ "type": "Feature", "properties": { "Name": "31 EXPRESSO 11 - DESVIO desde Olimpo", "Descripci__n": "", "nombre": "" }, "geometry": { "type": "LineString", "coordinates": [ [ -58.4808975, -34.7359365, 0.0 ], [ -58.4759784, -34.7338204, 0.0 ], [ -58.474392, -34.733304, 0.0 ], [ -58.4733605, -34.7327139, 0.0 ], [ -58.466388, -34.729106, 0.0 ], [ -58.4668568, -34.7282985, 0.0 ], [ -58.4667656, -34.7278708, 0.0 ], [ -58.4657721, -34.7263647, 0.0 ], [ -58.462751, -34.724662, 0.0 ], [ -58.464677, -34.722271, 0.0 ], [ -58.4623127, -34.7209379, 0.0 ], [ -58.467302, -34.714707, 0.0 ], [ -58.4567554, -34.7087994, 0.0 ], [ -58.4563732, -34.7090022, 0.0 ], [ -58.4560448, -34.7094186, 0.0 ], [ -58.455277, -34.70932, 0.0 ], [ -58.4544891, -34.7089555, 0.0 ], [ -58.4541243, -34.708627, 0.0 ], [ -58.4540063, -34.7077649, 0.0 ], [ -58.4536871, -34.7072599, 0.0 ], [ -58.4544588, -34.7067854, 0.0 ], [ -58.4550253, -34.706467, 0.0 ], [ -58.4551339, -34.7064642, 0.0 ], [ -58.4552774, -34.7065039, 0.0 ], [ -58.4559661, -34.7073264, 0.0 ], [ -58.4577853, -34.706599, 0.0 ], [ -58.4580589, -34.7064756, 0.0 ], [ -58.4583204, -34.7061217, 0.0 ], [ -58.4585323, -34.7058267, 0.0 ], [ -58.4595066, -34.7052931, 0.0 ], [ -58.4595549, -34.7049977, 0.0 ], [ -58.4588588, -34.7038601, 0.0 ], [ -58.4465035, -34.6892357, 0.0 ] ] } },
{ "type": "Feature", "properties": { "Name": "31 RAMAL 11 - Desde La Noria", "Descripci__n": "", "nombre": "" }, "geometry": { "type": "LineString", "coordinates": [ [ -58.4575419, -34.7081898, 0.0 ], [ -58.45677, -34.708712, 0.0 ], [ -58.4673705, -34.714629, 0.0 ], [ -58.4684271, -34.7133829, 0.0 ], [ -58.479348, -34.723463, 0.0 ], [ -58.4728046, -34.7322512, 0.0 ], [ -58.4745386, -34.7331821, 0.0 ], [ -58.4775978, -34.7343469, 0.0 ], [ -58.481057, -34.7358684, 0.0 ], [ -58.4876182, -34.7386267, 0.0 ], [ -58.4888278, -34.739213, 0.0 ] ] } },
{ "type": "Feature", "properties": { "Name": "31 RAMAL 11 - DESVIO desde La Noria", "Descripci__n": "", "nombre": "" }, "geometry": { "type": "LineString", "coordinates": [ [ -58.4539237, -34.7071205, 0.0 ], [ -58.4548877, -34.7065613, 0.0 ], [ -58.45505, -34.7064803, 0.0 ], [ -58.4551948, -34.7064858, 0.0 ], [ -58.4553001, -34.7065745, 0.0 ], [ -58.455973, -34.7073231, 0.0 ], [ -58.4570361, -34.7069549, 0.0 ], [ -58.4573445, -34.7069825, 0.0 ], [ -58.4577924, -34.7074081, 0.0 ], [ -58.457856, -34.707744, 0.0 ], [ -58.45783, -34.7079902, 0.0 ], [ -58.4568416, -34.708705, 0.0 ], [ -58.466485, -34.714066, 0.0 ], [ -58.4653863, -34.7153528, 0.0 ], [ -58.4664525, -34.7159547, 0.0 ], [ -58.462468, -34.720904, 0.0 ], [ -58.4648643, -34.7222309, 0.0 ], [ -58.462894, -34.724642, 0.0 ], [ -58.465652, -34.726169, 0.0 ], [ -58.4659895, -34.7263978, 0.0 ], [ -58.4670382, -34.7280644, 0.0 ], [ -58.4670159, -34.7283501, 0.0 ], [ -58.466594, -34.7290705, 0.0 ], [ -58.4727199, -34.7321985, 0.0 ] ] } },
{ "type": "Feature", "properties": { "Name": "31 RAMAL 11 - Desde Olimpo", "Descripci__n": "", "nombre": "" }, "geometry": { "type": "LineString", "coordinates": [ [ -58.4860697, -34.7381944, 0.0 ], [ -58.4742948, -34.7332063, 0.0 ], [ -58.4726292, -34.7322915, 0.0 ], [ -58.4791137, -34.7235498, 0.0 ], [ -58.4693551, -34.7146546, 0.0 ], [ -58.4676894, -34.7167667, 0.0 ], [ -58.4662249, -34.7159708, 0.0 ], [ -58.4672549, -34.7147516, 0.0 ], [ -58.4567436, -34.7088356, 0.0 ], [ -58.4562587, -34.7091254, 0.0 ], [ -58.4547272, -34.7110415, 0.0 ], [ -58.4541666, -34.7117933, 0.0 ], [ -58.4534477, -34.7127326, 0.0 ], [ -58.4532332, -34.7128781, 0.0 ], [ -58.4528362, -34.7127326, 0.0 ], [ -58.4526431, -34.7125915, 0.0 ], [ -58.4529274, -34.7121417, 0.0 ], [ -58.4546406, -34.7101762, 0.0 ], [ -58.4551969, -34.7093867, 0.0 ], [ -58.4549008, -34.7092105, 0.0 ], [ -58.454286, -34.708824, 0.0 ], [ -58.4540371, -34.7085975, 0.0 ], [ -58.4538762, -34.7077111, 0.0 ], [ -58.453667, -34.7072767, 0.0 ], [ -58.4539171, -34.7071323, 0.0 ] ] } },
{ "type": "Feature", "properties": { "Name": "31 RAMAL 11 - DESVIO desde Epecuen", "Descripci__n": "", "nombre": "" }, "geometry": { "type": "LineString", "coordinates": [ [ -58.4727866, -34.7323664, 0.0 ], [ -58.4664267, -34.7291054, 0.0 ], [ -58.4666144, -34.7288332, 0.0 ], [ -58.4668268, -34.7285269, 0.0 ], [ -58.4668992, -34.7282447, 0.0 ], [ -58.4668616, -34.7279824, 0.0 ], [ -58.4667141, -34.7277267, 0.0 ], [ -58.4658416, -34.7264157, 0.0 ], [ -58.4656163, -34.7262482, 0.0 ], [ -58.4616466, -34.7240746, 0.0 ], [ -58.4626317, -34.722816, 0.0 ], [ -58.4635812, -34.7216785, 0.0 ], [ -58.4624118, -34.7210392, 0.0 ], [ -58.4622993, -34.7209709, 0.0 ], [ -58.467324, -34.714694, 0.0 ], [ -58.4567795, -34.7088284, 0.0 ], [ -58.4563959, -34.709018, 0.0 ], [ -58.4560499, -34.7094413, 0.0 ], [ -58.4558031, -34.7094281, 0.0 ], [ -58.4554169, -34.7093597, 0.0 ], [ -58.455069, -34.709301, 0.0 ], [ -58.4547195, -34.7111876, 0.0 ], [ -58.4536466, -34.7125811, 0.0 ], [ -58.4533677, -34.712828, 0.0 ], [ -58.4531443, -34.7128354, 0.0 ], [ -58.4527132, -34.7126075, 0.0 ], [ -58.4528473, -34.7122371, 0.0 ], [ -58.4543333, -34.7104203, 0.0 ], [ -58.4551969, -34.7093867, 0.0 ], [ -58.4541831, -34.7089077, 0.0 ], [ -58.4540221, -34.7082186, 0.0 ], [ -58.4538988, -34.7077379, 0.0 ], [ -58.4536989, -34.7073035, 0.0 ], [ -58.4537646, -34.7071911, 0.0 ], [ -58.4539095, -34.7071296, 0.0 ] ] } },
{ "type": "Feature", "properties": { "Name": "31 RAMAL 21 - Desde Baradero", "Descripci__n": "", "nombre": "" }, "geometry": { "type": "LineString", "coordinates": [ [ -58.4556511, -34.7116986, 0.0 ], [ -58.4653511, -34.717126, 0.0 ], [ -58.465496, -34.7172208, 0.0 ], [ -58.462464, -34.720911, 0.0 ], [ -58.4647586, -34.7221796, 0.0 ], [ -58.462889, -34.7246337, 0.0 ], [ -58.465223, -34.7259448, 0.0 ], [ -58.465865, -34.7263014, 0.0 ], [ -58.4660447, -34.7265604, 0.0 ], [ -58.4669126, -34.7278402, 0.0 ], [ -58.4670052, -34.7280971, 0.0 ], [ -58.4670293, -34.7283252, 0.0 ], [ -58.4665858, -34.7290702, 0.0 ], [ -58.4887791, -34.7391541, 0.0 ] ] } },
{ "type": "Feature", "properties": { "Name": "31 RAMAL 21 - Desde Olimpo", "Descripci__n": "", "nombre": "" }, "geometry": { "type": "LineString", "coordinates": [ [ -58.4822161, -34.7365913, 0.0 ], [ -58.4738937, -34.7330594, 0.0 ], [ -58.4664109, -34.7290988, 0.0 ], [ -58.466791, -34.728479, 0.0 ], [ -58.4668224, -34.728048, 0.0 ], [ -58.4665327, -34.7275564, 0.0 ], [ -58.4657151, -34.7263431, 0.0 ], [ -58.4654188, -34.7261833, 0.0 ], [ -58.462773, -34.724663, 0.0 ], [ -58.464677, -34.722271, 0.0 ], [ -58.4623127, -34.7209379, 0.0 ], [ -58.4653107, -34.7172121, 0.0 ], [ -58.4546075, -34.7112403, 0.0 ], [ -58.4545069, -34.711301, 0.0 ], [ -58.4534742, -34.7126627, 0.0 ], [ -58.4533053, -34.7128292, 0.0 ], [ -58.4532355, -34.7128435, 0.0 ], [ -58.4530558, -34.7128071, 0.0 ], [ -58.4527903, -34.7126464, 0.0 ], [ -58.4527541, -34.7125437, 0.0 ], [ -58.4527997, -34.712418, 0.0 ], [ -58.4549691, -34.7097631, 0.0 ], [ -58.4552051, -34.7094434, 0.0 ], [ -58.4550629, -34.7092714, 0.0 ], [ -58.4542019, -34.7087885, 0.0 ], [ -58.4540517, -34.7085482, 0.0 ], [ -58.4540449, -34.7078823, 0.0 ], [ -58.4538679, -34.7076133, 0.0 ], [ -58.4537036, -34.7073217, 0.0 ], [ -58.4537103, -34.7072633, 0.0 ], [ -58.4537666, -34.7072236, 0.0 ], [ -58.4539295, -34.7071279, 0.0 ] ] } },
{ "type": "Feature", "properties": { "Name": "31 EXPRESSO 21 - Desde Hornos", "Descripci__n": "", "nombre": "" }, "geometry": { "type": "LineString", "coordinates": [ [ -58.4468788, -34.6892514, 0.0 ], [ -58.459135, -34.7037501, 0.0 ], [ -58.4597881, -34.7044028, 0.0 ], [ -58.4598981, -34.7045792, 0.0 ], [ -58.4599759, -34.7048097, 0.0 ], [ -58.4599209, -34.7050478, 0.0 ], [ -58.4598444, -34.7051669, 0.0 ], [ -58.458793, -34.7058835, 0.0 ], [ -58.458734, -34.7059783, 0.0 ], [ -58.4587394, -34.7060687, 0.0 ], [ -58.4591471, -34.7062936, 0.0 ], [ -58.45952, -34.706551, 0.0 ], [ -58.4596031, -34.7066839, 0.0 ], [ -58.4596191, -34.7069066, 0.0 ], [ -58.4590914, -34.7075697, 0.0 ], [ -58.458895, -34.7078021, 0.0 ], [ -58.4584437, -34.7078639, 0.0 ], [ -58.4580092, -34.7078044, 0.0 ], [ -58.4566493, -34.7088275, 0.0 ], [ -58.456292, -34.709048, 0.0 ], [ -58.4557064, -34.709785, 0.0 ], [ -58.4546148, -34.7111358, 0.0 ], [ -58.4653248, -34.7171306, 0.0 ], [ -58.4654415, -34.7171995, 0.0 ], [ -58.4624832, -34.7209102, 0.0 ], [ -58.4648409, -34.7222379, 0.0 ], [ -58.4629023, -34.7246436, 0.0 ], [ -58.465828, -34.7262703, 0.0 ], [ -58.4662021, -34.7267531, 0.0 ], [ -58.4669578, -34.7279057, 0.0 ], [ -58.4670677, -34.7282849, 0.0 ], [ -58.466588, -34.7290763, 0.0 ], [ -58.4746208, -34.7331727, 0.0 ], [ -58.4886295, -34.7390958, 0.0 ] ] } },
{ "type": "Feature", "properties": { "Name": "31 EXPRESSO 21 - Desde Olimpo", "Descripci__n": "", "nombre": "" }, "geometry": { "type": "LineString", "coordinates": [ [ -58.4809076, -34.7359755, 0.0 ], [ -58.4664263, -34.7291169, 0.0 ], [ -58.4668104, -34.728536, 0.0 ], [ -58.4668104, -34.7279408, 0.0 ], [ -58.4666495, -34.7276718, 0.0 ], [ -58.4657533, -34.7263896, 0.0 ], [ -58.4631487, -34.7249289, 0.0 ], [ -58.462729, -34.724677, 0.0 ], [ -58.4646912, -34.7222564, 0.0 ], [ -58.4622993, -34.7209709, 0.0 ], [ -58.4652933, -34.7172179, 0.0 ], [ -58.4545703, -34.7112319, 0.0 ], [ -58.4536128, -34.7125217, 0.0 ], [ -58.4533284, -34.7128338, 0.0 ], [ -58.4528645, -34.7127003, 0.0 ], [ -58.4527541, -34.7125437, 0.0 ], [ -58.4529369, -34.7121844, 0.0 ], [ -58.4531917, -34.7119176, 0.0 ], [ -58.4539454, -34.7109387, 0.0 ], [ -58.4549691, -34.7097631, 0.0 ], [ -58.4549008, -34.7092105, 0.0 ], [ -58.4541492, -34.7087257, 0.0 ], [ -58.4539883, -34.7081171, 0.0 ], [ -58.4538988, -34.7077379, 0.0 ], [ -58.4536606, -34.7073625, 0.0 ], [ -58.4537357, -34.7072126, 0.0 ], [ -58.4539237, -34.7071205, 0.0 ] ] } },
{ "type": "Feature", "properties": { "Name": "51 A - Desde Lanus", "Descripci__n": "", "nombre": "" }, "geometry": { "type": "LineString", "coordinates": [ [ -58.398, -34.7375556, 0.0 ], [ -58.4037879, -34.765506, 0.0 ], [ -58.4049829, -34.771316, 0.0 ], [ -58.4058412, -34.7770266, 0.0 ], [ -58.407708, -34.7858562, 0.0 ], [ -58.4092222, -34.7925, 0.0 ], [ -58.409135, -34.7950373, 0.0 ], [ -58.4091564, -34.7954073, 0.0 ], [ -58.4088131, -34.7968522, 0.0 ] ] } },
{ "type": "Feature", "properties": { "Name": "51 A - Desde Adrogue", "Descripci__n": "", "nombre": "" }, "geometry": { "type": "LineString", "coordinates": [ [ -58.4086492, -34.7967376, 0.0 ], [ -58.4089929, -34.7953475, 0.0 ], [ -58.4089661, -34.7948806, 0.0 ], [ -58.4090556, -34.7926119, 0.0 ], [ -58.405558, -34.7771123, 0.0 ], [ -58.4051288, -34.7742571, 0.0 ], [ -58.4045709, -34.7705028, 0.0 ], [ -58.4007226, -34.7527865, 0.0 ], [ -58.3976971, -34.7376585, 0.0 ] ] } },
{ "type": "Feature", "properties": { "Name": "51 B - Desde Lanus", "Descripci__n": "", "nombre": "" }, "geometry": { "type": "LineString", "coordinates": [ [ -58.3980384, -34.7375809, 0.0 ], [ -58.4047246, -34.7699452, 0.0 ], [ -58.4058747, -34.7768773, 0.0 ], [ -58.4085232, -34.789306, 0.0 ], [ -58.4373757, -34.8041669, 0.0 ] ] } },
{ "type": "Feature", "properties": { "Name": "51 B - Desde Ruta 4", "Descripci__n": "", "nombre": "" }, "geometry": { "type": "LineString", "coordinates": [ [ -58.4373968, -34.8043407, 0.0 ], [ -58.4082321, -34.7892335, 0.0 ], [ -58.4053436, -34.7767713, 0.0 ], [ -58.4043565, -34.7708139, 0.0 ], [ -58.3976097, -34.7377108, 0.0 ] ] } },
{ "type": "Feature", "properties": { "Name": "74/79 - Desde Alsina y Malabia", "Descripci__n": "", "nombre": "" }, "geometry": { "type": "LineString", "coordinates": [ [ -58.3918629, -34.7362897, 0.0 ], [ -58.3924811, -34.7384444, 0.0 ], [ -58.3931074, -34.7413769, 0.0 ], [ -58.3952755, -34.75392, 0.0 ], [ -58.3964444, -34.7610556, 0.0 ], [ -58.3969261, -34.7645271, 0.0 ], [ -58.3968403, -34.7702382, 0.0 ], [ -58.3916905, -34.7775352, 0.0 ], [ -58.3901026, -34.7818002, 0.0 ], [ -58.3897754, -34.7822893, 0.0 ], [ -58.389432, -34.7855232, 0.0 ] ] } },
{ "type": "Feature", "properties": { "Name": "74/79 - Desde Alte Brown y Warnes", "Descripci__n": "", "nombre": "" }, "geometry": { "type": "LineString", "coordinates": [ [ -58.3890261, -34.7870461, 0.0 ], [ -58.3893694, -34.7820939, 0.0 ], [ -58.3913864, -34.7769124, 0.0 ], [ -58.3960427, -34.7702323, 0.0 ], [ -58.3963312, -34.7647707, 0.0 ], [ -58.3958142, -34.7591854, 0.0 ], [ -58.394162, -34.7504411, 0.0 ], [ -58.3922308, -34.7396505, 0.0 ], [ -58.3914583, -34.7364765, 0.0 ] ] } },
{ "type": "Feature", "properties": { "Name": "101 - Desde La Noria", "Descripci__n": "", "nombre": "" }, "geometry": { "type": "LineString", "coordinates": [ [ -58.4568229, -34.708687, 0.0 ], [ -58.456374, -34.709039, 0.0 ], [ -58.4556817, -34.7097712, 0.0 ], [ -58.4546071, -34.7111622, 0.0 ], [ -58.4541013, -34.7114223, 0.0 ], [ -58.4525195, -34.7134096, 0.0 ], [ -58.45156, -34.714665, 0.0 ], [ -58.4516518, -34.7148251, 0.0 ], [ -58.4623778, -34.720847, 0.0 ] ] } },
{ "type": "Feature", "properties": { "Name": "101 - Desde Budge", "Descripci__n": "", "nombre": "" }, "geometry": { "type": "LineString", "coordinates": [ [ -58.4639734, -34.7200798, 0.0 ], [ -58.4633645, -34.7197579, 0.0 ], [ -58.4624043, -34.7210002, 0.0 ], [ -58.45156, -34.714931, 0.0 ], [ -58.4515715, -34.7147426, 0.0 ], [ -58.4528788, -34.7131574, 0.0 ], [ -58.4529109, -34.7130712, 0.0 ], [ -58.4528653, -34.7130117, 0.0 ], [ -58.4526615, -34.7129081, 0.0 ], [ -58.4525462, -34.7129213, 0.0 ], [ -58.4524523, -34.7130227, 0.0 ], [ -58.4512006, -34.7145871, 0.0 ], [ -58.451391, -34.7145187, 0.0 ], [ -58.452025, -34.713695, 0.0 ], [ -58.4536129, -34.7117812, 0.0 ], [ -58.4538435, -34.7113888, 0.0 ], [ -58.4541991, -34.7108006, 0.0 ], [ -58.4545785, -34.7103084, 0.0 ], [ -58.4552141, -34.7094683, 0.0 ], [ -58.4552115, -34.7092434, 0.0 ], [ -58.4544095, -34.7088509, 0.0 ], [ -58.454184, -34.708432, 0.0 ], [ -58.4541493, -34.708163, 0.0 ], [ -58.4540688, -34.7079072, 0.0 ], [ -58.4540344, -34.7077879, 0.0 ], [ -58.4537689, -34.7074693, 0.0 ], [ -58.4537152, -34.7073469, 0.0 ], [ -58.4537367, -34.7072356, 0.0 ], [ -58.4550724, -34.7064484, 0.0 ], [ -58.4552092, -34.7064594, 0.0 ], [ -58.455338, -34.7065675, 0.0 ], [ -58.4553836, -34.7066403, 0.0 ] ] } },
{ "type": "Feature", "properties": { "Name": "117 A - Desde Arana Goiri", "Descripci__n": "", "nombre": "" }, "geometry": { "type": "LineString", "coordinates": [ [ -58.4435808, -34.7634153, 0.0 ], [ -58.445631, -34.760714, 0.0 ], [ -58.4436023, -34.759579, 0.0 ], [ -58.4493814, -34.7518142, 0.0 ], [ -58.451164, -34.749678, 0.0 ], [ -58.4497727, -34.7489665, 0.0 ], [ -58.4496734, -34.7489202, 0.0 ], [ -58.4533699, -34.7441737, 0.0 ], [ -58.454759, -34.744868, 0.0 ], [ -58.4658057, -34.7298019, 0.0 ], [ -58.466814, -34.728511, 0.0 ], [ -58.466864, -34.728082, 0.0 ], [ -58.4658556, -34.7264738, 0.0 ], [ -58.4640451, -34.7254068, 0.0 ], [ -58.4627243, -34.7246622, 0.0 ], [ -58.464661, -34.72227, 0.0 ], [ -58.4517058, -34.7150302, 0.0 ], [ -58.4515404, -34.7149386, 0.0 ], [ -58.4515994, -34.714684, 0.0 ], [ -58.4529123, -34.7131285, 0.0 ], [ -58.4529137, -34.7130392, 0.0 ], [ -58.4527125, -34.712918, 0.0 ], [ -58.4526079, -34.712897, 0.0 ], [ -58.4525032, -34.7129499, 0.0 ], [ -58.4511915, -34.7145934, 0.0 ], [ -58.4514007, -34.7145283, 0.0 ], [ -58.453679, -34.71162, 0.0 ], [ -58.4542751, -34.7106535, 0.0 ], [ -58.455136, -34.7094959, 0.0 ], [ -58.4551387, -34.7092909, 0.0 ], [ -58.4544907, -34.7089337, 0.0 ], [ -58.4542635, -34.708716, 0.0 ], [ -58.4541797, -34.7085554, 0.0 ], [ -58.4541435, -34.7083283, 0.0 ], [ -58.4540404, -34.7079236, 0.0 ], [ -58.4539841, -34.7077869, 0.0 ], [ -58.4537622, -34.7074005, 0.0 ] ] } },
{ "type": "Feature", "properties": { "Name": "117 A - Desde La Noria", "Descripci__n": "", "nombre": "" }, "geometry": { "type": "LineString", "coordinates": [ [ -58.4537437, -34.707387, 0.0 ], [ -58.4537263, -34.7073459, 0.0 ], [ -58.4537243, -34.7073153, 0.0 ], [ -58.453735, -34.707269, 0.0 ], [ -58.4550394, -34.706477, 0.0 ], [ -58.4551762, -34.7064671, 0.0 ], [ -58.4552982, -34.706552, 0.0 ], [ -58.4557328, -34.7070084, 0.0 ], [ -58.4559259, -34.7072311, 0.0 ], [ -58.4559661, -34.7073193, 0.0 ], [ -58.4573501, -34.7068122, 0.0 ], [ -58.4578866, -34.7065343, 0.0 ], [ -58.4584123, -34.706283, 0.0 ], [ -58.458705, -34.706154, 0.0 ], [ -58.4589809, -34.7062389, 0.0 ], [ -58.4593681, -34.7064829, 0.0 ], [ -58.459533, -34.706618, 0.0 ], [ -58.45958, -34.7066858, 0.0 ], [ -58.4596041, -34.7068975, 0.0 ], [ -58.458895, -34.7078021, 0.0 ], [ -58.458557, -34.7078507, 0.0 ], [ -58.4582244, -34.7078121, 0.0 ], [ -58.4580983, -34.7077867, 0.0 ], [ -58.4573333, -34.7082778, 0.0 ], [ -58.4566645, -34.7088004, 0.0 ], [ -58.4563393, -34.7090331, 0.0 ], [ -58.4555833, -34.7098611, 0.0 ], [ -58.4546794, -34.7110468, 0.0 ], [ -58.4543361, -34.7112606, 0.0 ], [ -58.4541725, -34.7114216, 0.0 ], [ -58.4515861, -34.7145568, 0.0 ], [ -58.4516916, -34.714862, 0.0 ], [ -58.4647488, -34.7221875, 0.0 ], [ -58.4647561, -34.7223299, 0.0 ], [ -58.462915, -34.724638, 0.0 ], [ -58.4657134, -34.7261806, 0.0 ], [ -58.465931, -34.726366, 0.0 ], [ -58.4661425, -34.726692, 0.0 ], [ -58.466957, -34.727857, 0.0 ], [ -58.467086, -34.728307, 0.0 ], [ -58.466928, -34.728627, 0.0 ], [ -58.4655793, -34.7304924, 0.0 ], [ -58.4609664, -34.7369159, 0.0 ], [ -58.454807, -34.745051, 0.0 ], [ -58.453403, -34.744337, 0.0 ], [ -58.4498299, -34.7488929, 0.0 ], [ -58.4513534, -34.7496488, 0.0 ], [ -58.4493579, -34.7523068, 0.0 ], [ -58.4485532, -34.7531707, 0.0 ], [ -58.4438303, -34.7595738, 0.0 ], [ -58.4458381, -34.7606992, 0.0 ], [ -58.4441519, -34.7628805, 0.0 ] ] } },
{ "type": "Feature", "properties": { "Name": "117 B - Desde Arana Goiri", "Descripci__n": "", "nombre": "" }, "geometry": { "type": "LineString", "coordinates": [ [ -58.4436667, -34.7633889, 0.0 ], [ -58.4456675, -34.7607115, 0.0 ], [ -58.4436284, -34.7595725, 0.0 ], [ -58.4512131, -34.7496695, 0.0 ], [ -58.4496896, -34.748912, 0.0 ], [ -58.4533765, -34.7441853, 0.0 ], [ -58.4547698, -34.7448912, 0.0 ], [ -58.4663887, -34.7291492, 0.0 ], [ -58.4667562, -34.7286378, 0.0 ], [ -58.4668614, -34.7284166, 0.0 ], [ -58.4668373, -34.7279955, 0.0 ], [ -58.465805, -34.7263717, 0.0 ], [ -58.4655797, -34.7262373, 0.0 ], [ -58.462757, -34.7246724, 0.0 ], [ -58.4646998, -34.722268, 0.0 ], [ -58.4623291, -34.7209385, 0.0 ], [ -58.4653249, -34.7172099, 0.0 ], [ -58.4545633, -34.7112161, 0.0 ], [ -58.4533897, -34.7127908, 0.0 ], [ -58.4532234, -34.7128614, 0.0 ], [ -58.4528439, -34.7127092, 0.0 ], [ -58.4527366, -34.7125869, 0.0 ], [ -58.4528345, -34.71233, 0.0 ], [ -58.4542342, -34.7106868, 0.0 ], [ -58.4552398, -34.7093963, 0.0 ], [ -58.4550989, -34.7092872, 0.0 ], [ -58.4542727, -34.7089007, 0.0 ], [ -58.454002, -34.707961, 0.0 ] ] } },
{ "type": "Feature", "properties": { "Name": "117 B - Desde La Noria", "Descripci__n": "", "nombre": "" }, "geometry": { "type": "LineString", "coordinates": [ [ -58.4550055, -34.7097606, 0.0 ], [ -58.455224, -34.709446, 0.0 ], [ -58.455148, -34.709306, 0.0 ], [ -58.4546434, -34.7090187, 0.0 ], [ -58.454184, -34.708692, 0.0 ], [ -58.4541187, -34.7084193, 0.0 ], [ -58.454215, -34.708109, 0.0 ], [ -58.4546327, -34.7077927, 0.0 ], [ -58.4551691, -34.7076075, 0.0 ], [ -58.456693, -34.707054, 0.0 ], [ -58.457091, -34.706951, 0.0 ], [ -58.457375, -34.70703, 0.0 ], [ -58.4575724, -34.7072283, 0.0 ], [ -58.4578192, -34.7075105, 0.0 ], [ -58.457854, -34.707686, 0.0 ], [ -58.457802, -34.707932, 0.0 ], [ -58.4563547, -34.7089635, 0.0 ], [ -58.4546028, -34.711149, 0.0 ], [ -58.4653625, -34.7171568, 0.0 ], [ -58.4654358, -34.7171991, 0.0 ], [ -58.4624533, -34.72091, 0.0 ], [ -58.4648277, -34.7222355, 0.0 ], [ -58.46289, -34.724645, 0.0 ], [ -58.4657534, -34.7262145, 0.0 ], [ -58.4660243, -34.7264614, 0.0 ], [ -58.4668397, -34.7276276, 0.0 ], [ -58.4671079, -34.728236, 0.0 ], [ -58.4667241, -34.7290472, 0.0 ] ] } },
{ "type": "Feature", "properties": { "Name": "164 A - Desde Lanus", "Descripci__n": "", "nombre": "" }, "geometry": { "type": "LineString", "coordinates": [ [ -58.3980316, -34.7376442, 0.0 ], [ -58.4024233, -34.7591195, 0.0 ], [ -58.40381, -34.758904, 0.0 ], [ -58.404082, -34.76016, 0.0 ], [ -58.4046274, -34.7626123, 0.0 ], [ -58.3985871, -34.7634144, 0.0 ], [ -58.3985402, -34.7663788, 0.0 ], [ -58.3979646, -34.7721834, 0.0 ], [ -58.3974157, -34.7761433, 0.0 ], [ -58.397169, -34.778082, 0.0 ], [ -58.4015142, -34.7804481, 0.0 ], [ -58.4017073, -34.7802189, 0.0 ], [ -58.4052291, -34.7821357, 0.0 ], [ -58.4057334, -34.7835104, 0.0 ], [ -58.4061196, -34.7836073, 0.0 ], [ -58.4072652, -34.7834941, 0.0 ], [ -58.4085454, -34.789242, 0.0 ], [ -58.4373131, -34.8041113, 0.0 ] ] } },
{ "type": "Feature", "properties": { "Name": "164 A - Desde Ruta 4", "Descripci__n": "", "nombre": "" }, "geometry": { "type": "LineString", "coordinates": [ [ -58.4373425, -34.8043265, 0.0 ], [ -58.4082346, -34.7892921, 0.0 ], [ -58.4064992, -34.7815643, 0.0 ], [ -58.402422, -34.779356, 0.0 ], [ -58.4025331, -34.7791633, 0.0 ], [ -58.3973564, -34.7763814, 0.0 ], [ -58.3968843, -34.7761875, 0.0 ], [ -58.3968173, -34.7760641, 0.0 ], [ -58.3968092, -34.7759319, 0.0 ], [ -58.3969567, -34.7746695, 0.0 ], [ -58.3974449, -34.774718, 0.0 ], [ -58.3979974, -34.7697651, 0.0 ], [ -58.3984373, -34.7655611, 0.0 ], [ -58.3985309, -34.7632214, 0.0 ], [ -58.3979515, -34.7596913, 0.0 ], [ -58.3993384, -34.7594808, 0.0 ], [ -58.398743, -34.756647, 0.0 ], [ -58.3980993, -34.7536367, 0.0 ], [ -58.3975546, -34.7508036, 0.0 ], [ -58.3966802, -34.7466074, 0.0 ], [ -58.3961168, -34.7437338, 0.0 ], [ -58.3959398, -34.7427905, 0.0 ], [ -58.3987276, -34.7425024, 0.0 ], [ -58.3972792, -34.7353698, 0.0 ] ] } },
{ "type": "Feature", "properties": { "Name": "164 B - Desde Lanus", "Descripci__n": "", "nombre": "" }, "geometry": { "type": "LineString", "coordinates": [ [ -58.3978173, -34.7364396, 0.0 ], [ -58.4034468, -34.7638921, 0.0 ], [ -58.404824, -34.763702, 0.0 ], [ -58.406516, -34.7718075, 0.0 ], [ -58.4065267, -34.7719397, 0.0 ], [ -58.4135519, -34.7755321, 0.0 ], [ -58.4194096, -34.7786925, 0.0 ], [ -58.4226712, -34.7805518, 0.0 ], [ -58.425019, -34.7816264, 0.0 ], [ -58.4313401, -34.7840432, 0.0 ], [ -58.4330567, -34.7846601, 0.0 ], [ -58.4367903, -34.7866691, 0.0 ], [ -58.4308889, -34.79425, 0.0 ], [ -58.4321063, -34.7948901, 0.0 ], [ -58.4310657, -34.7963218, 0.0 ], [ -58.4307282, -34.7966435, 0.0 ], [ -58.4304171, -34.7967889, 0.0 ], [ -58.430055, -34.796769, 0.0 ], [ -58.4297222, -34.7966111, 0.0 ], [ -58.4293334, -34.7963285, 0.0 ], [ -58.428874, -34.796338, 0.0 ], [ -58.428541, -34.796738, 0.0 ], [ -58.42615, -34.796629, 0.0 ], [ -58.4259773, -34.7979277, 0.0 ], [ -58.4259558, -34.798399, 0.0 ], [ -58.4374747, -34.8042388, 0.0 ], [ -58.4366862, -34.8052607, 0.0 ], [ -58.4375445, -34.8056659, 0.0 ], [ -58.4330866, -34.8115063, 0.0 ], [ -58.4321285, -34.8127605, 0.0 ], [ -58.4305299, -34.8119501, 0.0 ], [ -58.4276667, -34.81575, 0.0 ] ] } },
{ "type": "Feature", "properties": { "Name": "164 B - Desde Llavallol", "Descripci__n": "", "nombre": "" }, "geometry": { "type": "LineString", "coordinates": [ [ -58.4274722, -34.8156389, 0.0 ], [ -58.4304717, -34.8117625, 0.0 ], [ -58.4320918, -34.8126279, 0.0 ], [ -58.4365763, -34.8066724, 0.0 ], [ -58.4381171, -34.8046666, 0.0 ], [ -58.437299, -34.8043208, 0.0 ], [ -58.4279032, -34.79959, 0.0 ], [ -58.4272661, -34.8003394, 0.0 ], [ -58.4253483, -34.7993527, 0.0 ], [ -58.4239802, -34.7986433, 0.0 ], [ -58.4238461, -34.798586, 0.0 ], [ -58.424547, -34.797661, 0.0 ], [ -58.4258095, -34.7982953, 0.0 ], [ -58.425941, -34.796366, 0.0 ], [ -58.4283978, -34.7965927, 0.0 ], [ -58.4287894, -34.7961786, 0.0 ], [ -58.4292669, -34.7962095, 0.0 ], [ -58.4294707, -34.7962183, 0.0 ], [ -58.4296531, -34.7964121, 0.0 ], [ -58.4299696, -34.7965663, 0.0 ], [ -58.43027, -34.796696, 0.0 ], [ -58.4305597, -34.7966148, 0.0 ], [ -58.430804, -34.796435, 0.0 ], [ -58.4312195, -34.7959364, 0.0 ], [ -58.4299026, -34.79528, 0.0 ], [ -58.4363667, -34.7867378, 0.0 ], [ -58.4326062, -34.7847948, 0.0 ], [ -58.427768, -34.782986, 0.0 ], [ -58.4250531, -34.7819398, 0.0 ], [ -58.4233687, -34.7812613, 0.0 ], [ -58.4179614, -34.7783357, 0.0 ], [ -58.4103224, -34.7741586, 0.0 ], [ -58.408005, -34.7729248, 0.0 ], [ -58.4077046, -34.7716733, 0.0 ], [ -58.4058485, -34.762428, 0.0 ], [ -58.4055588, -34.7612645, 0.0 ], [ -58.4030776, -34.7616433, 0.0 ], [ -58.4013317, -34.7618374, 0.0 ], [ -58.398391, -34.762222, 0.0 ], [ -58.3979655, -34.7597242, 0.0 ], [ -58.3993576, -34.7595171, 0.0 ], [ -58.3958934, -34.7428191, 0.0 ], [ -58.3987358, -34.7425123, 0.0 ], [ -58.3973075, -34.7353654, 0.0 ] ] } },
{ "type": "Feature", "properties": { "Name": "164 C - Desde Lanus", "Descripci__n": "", "nombre": "" }, "geometry": { "type": "LineString", "coordinates": [ [ -58.3977946, -34.7364448, 0.0 ], [ -58.4034358, -34.7638939, 0.0 ], [ -58.4047109, -34.7636671, 0.0 ], [ -58.4092868, -34.7630545, 0.0 ], [ -58.4104455, -34.7682986, 0.0 ], [ -58.4237493, -34.7752256, 0.0 ], [ -58.4304655, -34.7785744, 0.0 ], [ -58.438238, -34.768467, 0.0 ], [ -58.43841, -34.7682552, 0.0 ], [ -58.4410761, -34.7696697, 0.0 ], [ -58.4422027, -34.7703219, 0.0 ], [ -58.4566968, -34.7777696, 0.0 ], [ -58.4576732, -34.7782543, 0.0 ], [ -58.458037, -34.778407, 0.0 ], [ -58.458292, -34.778341, 0.0 ], [ -58.458453, -34.778268, 0.0 ], [ -58.4588426, -34.7775934, 0.0 ], [ -58.4591645, -34.7772012, 0.0 ] ] } },
{ "type": "Feature", "properties": { "Name": "164 C - Desde Camino de Cintura", "Descripci__n": "", "nombre": "" }, "geometry": { "type": "LineString", "coordinates": [ [ -58.4430506, -34.7989499, 0.0 ], [ -58.4448531, -34.7965271, 0.0 ], [ -58.445948, -34.7953181, 0.0 ], [ -58.447265, -34.7939613, 0.0 ], [ -58.4476345, -34.7934581, 0.0 ], [ -58.4479241, -34.7934052, 0.0 ], [ -58.4484338, -34.7928281, 0.0 ], [ -58.4533476, -34.7862506, 0.0 ], [ -58.45611, -34.7820904, 0.0 ], [ -58.458019, -34.77895, 0.0 ], [ -58.454844, -34.7772437, 0.0 ], [ -58.438339, -34.768551, 0.0 ], [ -58.4305809, -34.7789911, 0.0 ], [ -58.423178, -34.775519, 0.0 ], [ -58.4129213, -34.7699493, 0.0 ], [ -58.410046, -34.7684334, 0.0 ], [ -58.4090804, -34.7633567, 0.0 ], [ -58.4085761, -34.7609946, 0.0 ], [ -58.3983583, -34.7622224, 0.0 ], [ -58.3981585, -34.7610732, 0.0 ], [ -58.3979734, -34.7597004, 0.0 ], [ -58.3993576, -34.7595171, 0.0 ], [ -58.3958934, -34.7428191, 0.0 ], [ -58.3987276, -34.7425024, 0.0 ], [ -58.3969584, -34.7354733, 0.0 ] ] } },
{ "type": "Feature", "properties": { "Name": "177 - Desde Malabia y Belgrano", "Descripci__n": "", "nombre": "" }, "geometry": { "type": "LineString", "coordinates": [ [ -58.3902635, -34.7365222, 0.0 ], [ -58.3873023, -34.737016, 0.0 ], [ -58.3862616, -34.7371394, 0.0 ], [ -58.3807148, -34.7387529, 0.0 ], [ -58.3804024, -34.7387258, 0.0 ], [ -58.3778596, -34.7408153, 0.0 ], [ -58.3752311, -34.7429929, 0.0 ], [ -58.3743513, -34.7440641, 0.0 ], [ -58.3735198, -34.7436012, 0.0 ], [ -58.3717978, -34.7448134, 0.0 ], [ -58.3715833, -34.7450074, 0.0 ], [ -58.3714813, -34.7455187, 0.0 ], [ -58.3707357, -34.7501953, 0.0 ], [ -58.3702186, -34.7527144, 0.0 ], [ -58.3701382, -34.7528687, 0.0 ], [ -58.3689634, -34.752256, 0.0 ], [ -58.3624324, -34.7615657, 0.0 ], [ -58.3625904, -34.7617802, 0.0 ], [ -58.3618501, -34.762926, 0.0 ], [ -58.3594683, -34.7660725, 0.0 ] ] } },
{ "type": "Feature", "properties": { "Name": "177 - Desde Jujuy y Garay", "Descripci__n": "", "nombre": "" }, "geometry": { "type": "LineString", "coordinates": [ [ -58.3574266, -34.7649861, 0.0 ], [ -58.3578943, -34.7643786, 0.0 ], [ -58.3584549, -34.7637352, 0.0 ], [ -58.3592569, -34.7628406, 0.0 ], [ -58.3606325, -34.760896, 0.0 ], [ -58.3620487, -34.7615747, 0.0 ], [ -58.368977, -34.7520136, 0.0 ], [ -58.3700556, -34.7526667, 0.0 ], [ -58.3709296, -34.7476323, 0.0 ], [ -58.3714339, -34.7448907, 0.0 ], [ -58.3734984, -34.743456, 0.0 ], [ -58.3746303, -34.742645, 0.0 ], [ -58.3751023, -34.7429006, 0.0 ], [ -58.3803917, -34.7386115, 0.0 ], [ -58.380735, -34.7386115, 0.0 ], [ -58.3829157, -34.7379512, 0.0 ], [ -58.3841603, -34.7376074, 0.0 ], [ -58.3860271, -34.7370784, 0.0 ], [ -58.3886771, -34.7366287, 0.0 ] ] } },
{ "type": "Feature", "properties": { "Name": "179 RAMAL 1 - Desde Recondo y Hornos", "Descripci__n": "", "nombre": "" }, "geometry": { "type": "LineString", "coordinates": [ [ -58.4342774, -34.7055189, 0.0 ], [ -58.4370884, -34.7069919, 0.0 ], [ -58.4390556, -34.7044167, 0.0 ], [ -58.439116, -34.7043279, 0.0 ], [ -58.440385, -34.705114, 0.0 ] ] } },
{ "type": "Feature", "properties": { "Name": "179 RAMAL 1 - Desde Murature y Pilcomayo", "Descripci__n": "", "nombre": "" }, "geometry": { "type": "LineString", "coordinates": [ [ -58.4403006, -34.705197, 0.0 ], [ -58.4383316, -34.7078658, 0.0 ], [ -58.4341566, -34.7056752, 0.0 ] ] } },
{ "type": "Feature", "properties": { "Name": "179 RAMAL 2", "Descripci__n": "", "nombre": "" }, "geometry": { "type": "LineString", "coordinates": [ [ -58.4189418, -34.7275026, 0.0 ], [ -58.4182919, -34.7283112, 0.0 ], [ -58.4171546, -34.7276939, 0.0 ] ] } },
{ "type": "Feature", "properties": { "Name": "179 RAMAL 3 - Desde Barcelo y Lynch", "Descripci__n": "", "nombre": "" }, "geometry": { "type": "LineString", "coordinates": [ [ -58.3667907, -34.745595, 0.0 ], [ -58.3656534, -34.7470937, 0.0 ], [ -58.3630624, -34.7506111, 0.0 ], [ -58.3594167, -34.7554722, 0.0 ], [ -58.3583846, -34.7565171, 0.0 ], [ -58.3564964, -34.7591085, 0.0 ], [ -58.3561531, -34.7589499, 0.0 ], [ -58.3546317, -34.7610197, 0.0 ], [ -58.3560533, -34.7614252, 0.0 ], [ -58.3572227, -34.7617777, 0.0 ], [ -58.3578343, -34.7621479, 0.0 ], [ -58.3579308, -34.7622052, 0.0 ], [ -58.3573836, -34.763351, 0.0 ], [ -58.3569867, -34.7640209, 0.0 ], [ -58.3565682, -34.7646423, 0.0 ] ] } },
{ "type": "Feature", "properties": { "Name": "179 RAMAL 3 - Desde La Pampa y Garay", "Descripci__n": "", "nombre": "" }, "geometry": { "type": "LineString", "coordinates": [ [ -58.3564456, -34.7645277, 0.0 ], [ -58.3568962, -34.7638975, 0.0 ], [ -58.3572771, -34.7632276, 0.0 ], [ -58.3577545, -34.7622537, 0.0 ], [ -58.3570556, -34.7619167, 0.0 ], [ -58.3557912, -34.7615397, 0.0 ], [ -58.3545252, -34.7611167, 0.0 ], [ -58.3545091, -34.7609955, 0.0 ], [ -58.3561406, -34.7587124, 0.0 ], [ -58.3564329, -34.7588402, 0.0 ], [ -58.3573797, -34.7574519, 0.0 ], [ -58.3583131, -34.7561826, 0.0 ], [ -58.3593002, -34.7551954, 0.0 ], [ -58.3638154, -34.7491747, 0.0 ], [ -58.3666111, -34.7455833, 0.0 ], [ -58.3703611, -34.7425556, 0.0 ], [ -58.3720278, -34.7412222, 0.0 ] ] } },
{ "type": "Feature", "properties": { "Name": "188 EXPRESS - Desde La Noria", "Descripci__n": "", "nombre": "" }, "geometry": { "type": "LineString", "coordinates": [ [ -58.4568268, -34.7086818, 0.0 ], [ -58.4555957, -34.7099023, 0.0 ], [ -58.455011, -34.7107842, 0.0 ], [ -58.4547857, -34.7110664, 0.0 ], [ -58.4543128, -34.711291, 0.0 ], [ -58.4538061, -34.711801, 0.0 ], [ -58.453472, -34.712222, 0.0 ], [ -58.4517247, -34.7143322, 0.0 ], [ -58.4514619, -34.7150156, 0.0 ], [ -58.4512366, -34.7154654, 0.0 ], [ -58.4492035, -34.7179715, 0.0 ], [ -58.442787, -34.726143, 0.0 ], [ -58.4401398, -34.7296432, 0.0 ], [ -58.4385305, -34.7318034, 0.0 ], [ -58.4351089, -34.7361136, 0.0 ], [ -58.4336685, -34.7387212, 0.0 ], [ -58.4299966, -34.7436428, 0.0 ], [ -58.4301682, -34.745406, 0.0 ], [ -58.4305545, -34.7471603, 0.0 ], [ -58.4314664, -34.7483504, 0.0 ], [ -58.4334459, -34.7494876, 0.0 ], [ -58.4357526, -34.7507086, 0.0 ], [ -58.4363266, -34.7510832, 0.0 ], [ -58.436438, -34.751523, 0.0 ], [ -58.4329262, -34.7567795, 0.0 ], [ -58.432481, -34.7573965, 0.0 ], [ -58.431392, -34.7598645, 0.0 ], [ -58.4306047, -34.7622553, 0.0 ], [ -58.4306047, -34.7624735, 0.0 ], [ -58.4306422, -34.7625903, 0.0 ], [ -58.4307307, -34.7627732, 0.0 ], [ -58.4309533, -34.7629803, 0.0 ], [ -58.4323593, -34.7639084, 0.0 ], [ -58.4330808, -34.7643998, 0.0 ], [ -58.4338104, -34.7650564, 0.0 ], [ -58.4342288, -34.7655059, 0.0 ], [ -58.4350496, -34.766233, 0.0 ], [ -58.4360473, -34.7667795, 0.0 ], [ -58.4370739, -34.767379, 0.0 ], [ -58.4374279, -34.767736, 0.0 ], [ -58.4380877, -34.768137, 0.0 ], [ -58.4389246, -34.7685821, 0.0 ], [ -58.4556541, -34.7771345, 0.0 ], [ -58.4578312, -34.7783598, 0.0 ], [ -58.458453, -34.778268, 0.0 ], [ -58.4591521, -34.7772381, 0.0 ] ] } },
{ "type": "Feature", "properties": { "Name": "188 EXPRESS - Desde Facultad", "Descripci__n": "", "nombre": "" }, "geometry": { "type": "LineString", "coordinates": [ [ -58.4556387, -34.7775171, 0.0 ], [ -58.4383871, -34.7685408, 0.0 ], [ -58.437801, -34.76931, 0.0 ], [ -58.4371512, -34.7690707, 0.0 ], [ -58.4351133, -34.7679661, 0.0 ], [ -58.4347807, -34.7677326, 0.0 ], [ -58.4336756, -34.767098, 0.0 ], [ -58.4342925, -34.7662739, 0.0 ], [ -58.4342387, -34.7659873, 0.0 ], [ -58.4335466, -34.7651368, 0.0 ], [ -58.4328278, -34.7644801, 0.0 ], [ -58.4324201, -34.7642554, 0.0 ], [ -58.4313902, -34.7635723, 0.0 ], [ -58.4306177, -34.763017, 0.0 ], [ -58.430328, -34.7624265, 0.0 ], [ -58.430623, -34.7614922, 0.0 ], [ -58.4309395, -34.7603111, 0.0 ], [ -58.4312399, -34.7595002, 0.0 ], [ -58.4313419, -34.7589603, 0.0 ], [ -58.4315109, -34.758524, 0.0 ], [ -58.4319561, -34.7575104, 0.0 ], [ -58.4324389, -34.7566906, 0.0 ], [ -58.4330826, -34.7558797, 0.0 ], [ -58.4339731, -34.7545619, 0.0 ], [ -58.434638, -34.753457, 0.0 ], [ -58.4351908, -34.7526755, 0.0 ], [ -58.4356, -34.752105, 0.0 ], [ -58.4357541, -34.7517807, 0.0 ], [ -58.4357434, -34.7514766, 0.0 ], [ -58.4355288, -34.751124, 0.0 ], [ -58.4351372, -34.7509565, 0.0 ], [ -58.4341877, -34.750454, 0.0 ], [ -58.4336942, -34.7501675, 0.0 ], [ -58.43103, -34.748781, 0.0 ], [ -58.430497, -34.7482149, 0.0 ], [ -58.430301, -34.748032, 0.0 ], [ -58.4297781, -34.7461873, 0.0 ], [ -58.4296869, -34.7458039, 0.0 ], [ -58.4293544, -34.7444374, 0.0 ], [ -58.4293758, -34.7436087, 0.0 ], [ -58.4293061, -34.7432605, 0.0 ], [ -58.4289413, -34.7426213, 0.0 ], [ -58.4289306, -34.7424847, 0.0 ], [ -58.4292202, -34.7422025, 0.0 ], [ -58.4295126, -34.7422312, 0.0 ], [ -58.4299123, -34.7424802, 0.0 ], [ -58.4301912, -34.7425023, 0.0 ], [ -58.430674, -34.7418477, 0.0 ], [ -58.4307893, -34.741689, 0.0 ], [ -58.4323584, -34.7394937, 0.0 ], [ -58.433305, -34.738206, 0.0 ], [ -58.4342467, -34.7362051, 0.0 ], [ -58.4346973, -34.7355351, 0.0 ], [ -58.435974, -34.7336923, 0.0 ], [ -58.437397, -34.731929, 0.0 ], [ -58.4382593, -34.7308444, 0.0 ], [ -58.4391687, -34.7296059, 0.0 ], [ -58.4406947, -34.7275995, 0.0 ], [ -58.4414803, -34.7265732, 0.0 ], [ -58.4416893, -34.7262553, 0.0 ], [ -58.4431806, -34.7242624, 0.0 ], [ -58.4447498, -34.7220982, 0.0 ], [ -58.445727, -34.721201, 0.0 ], [ -58.4467669, -34.7196291, 0.0 ], [ -58.4477968, -34.7186414, 0.0 ], [ -58.4486873, -34.7174773, 0.0 ], [ -58.4494491, -34.7163838, 0.0 ], [ -58.451061, -34.714589, 0.0 ], [ -58.451745, -34.7141085, 0.0 ], [ -58.453231, -34.7122167, 0.0 ], [ -58.453678, -34.711746, 0.0 ], [ -58.4543146, -34.7105807, 0.0 ], [ -58.4551032, -34.7095797, 0.0 ], [ -58.4552319, -34.709368, 0.0 ], [ -58.4546434, -34.7090187, 0.0 ], [ -58.454191, -34.70861, 0.0 ], [ -58.4541993, -34.7081364, 0.0 ], [ -58.4540571, -34.7077703, 0.0 ], [ -58.45375, -34.7073889, 0.0 ] ] } },
{ "type": "Feature", "properties": { "Name": "188 RAMAL 3 - Desde Recondo", "Descripci__n": "", "nombre": "" }, "geometry": { "type": "LineString", "coordinates": [ [ -58.4364609, -34.7066733, 0.0 ], [ -58.4442018, -34.7108274, 0.0 ], [ -58.4510483, -34.7145384, 0.0 ], [ -58.4511755, -34.7144814, 0.0 ], [ -58.4517924, -34.7137097, 0.0 ], [ -58.4523021, -34.7130395, 0.0 ], [ -58.4525166, -34.7128013, 0.0 ], [ -58.4527259, -34.7127969, 0.0 ], [ -58.4530209, -34.7129998, 0.0 ], [ -58.4530424, -34.7132114, 0.0 ], [ -58.4513526, -34.7152619, 0.0 ], [ -58.4497808, -34.7172858, 0.0 ], [ -58.4454115, -34.722782, 0.0 ], [ -58.4427191, -34.7261457, 0.0 ], [ -58.4385156, -34.7316853, 0.0 ], [ -58.4367587, -34.734013, 0.0 ], [ -58.435836, -34.7352121, 0.0 ], [ -58.4350528, -34.7361071, 0.0 ], [ -58.4337117, -34.7386418, 0.0 ], [ -58.4322249, -34.7406427, 0.0 ], [ -58.4313558, -34.7417491, 0.0 ], [ -58.4299182, -34.743671, 0.0 ], [ -58.4301083, -34.7454384, 0.0 ], [ -58.4305119, -34.747077, 0.0 ], [ -58.4306246, -34.7474781, 0.0 ], [ -58.431344, -34.748356, 0.0 ], [ -58.4345111, -34.7500501, 0.0 ], [ -58.4363109, -34.7510396, 0.0 ], [ -58.4364396, -34.7516346, 0.0 ], [ -58.435236, -34.7534484, 0.0 ], [ -58.4334018, -34.7561057, 0.0 ], [ -58.432481, -34.7573965, 0.0 ], [ -58.4318687, -34.758931, 0.0 ], [ -58.4307595, -34.7618749, 0.0 ], [ -58.4306952, -34.7625624, 0.0 ], [ -58.4309634, -34.7628797, 0.0 ], [ -58.4322208, -34.7637702, 0.0 ], [ -58.4335297, -34.7647001, 0.0 ], [ -58.4345597, -34.7658899, 0.0 ], [ -58.4355145, -34.7664452, 0.0 ], [ -58.4368771, -34.7672472, 0.0 ], [ -58.4374279, -34.767736, 0.0 ], [ -58.4389246, -34.7685821, 0.0 ], [ -58.4572377, -34.7780771, 0.0 ], [ -58.4578868, -34.7783988, 0.0 ], [ -58.458453, -34.778268, 0.0 ], [ -58.4591259, -34.7770725, 0.0 ] ] } },
{ "type": "Feature", "properties": { "Name": "188 RAMAL 3 - Desde Camino", "Descripci__n": "", "nombre": "" }, "geometry": { "type": "LineString", "coordinates": [ [ -58.4576001, -34.7795, 0.0 ], [ -58.4578737, -34.7790814, 0.0 ], [ -58.4578951, -34.778914, 0.0 ], [ -58.4578522, -34.7787818, 0.0 ], [ -58.4576269, -34.7786188, 0.0 ], [ -58.4383753, -34.7685278, 0.0 ], [ -58.4378321, -34.7693414, 0.0 ], [ -58.4337117, -34.7670991, 0.0 ], [ -58.4343283, -34.7662843, 0.0 ], [ -58.4342934, -34.7660992, 0.0 ], [ -58.4340359, -34.7657731, 0.0 ], [ -58.4333037, -34.7649446, 0.0 ], [ -58.4327458, -34.7644532, 0.0 ], [ -58.4307958, -34.7632105, 0.0 ], [ -58.4305437, -34.7629593, 0.0 ], [ -58.4303506, -34.7625715, 0.0 ], [ -58.4303881, -34.7620911, 0.0 ], [ -58.4316675, -34.7581115, 0.0 ], [ -58.4322, -34.7569505, 0.0 ], [ -58.4338647, -34.754684, 0.0 ], [ -58.4341973, -34.7541507, 0.0 ], [ -58.4357162, -34.7519017, 0.0 ], [ -58.4357739, -34.7518036, 0.0 ], [ -58.4357765, -34.7515248, 0.0 ], [ -58.4356988, -34.7513617, 0.0 ], [ -58.4356236, -34.7512141, 0.0 ], [ -58.4355029, -34.7510907, 0.0 ], [ -58.4309451, -34.7487761, 0.0 ], [ -58.4301941, -34.7479739, 0.0 ], [ -58.4292247, -34.7443116, 0.0 ], [ -58.4293427, -34.7434212, 0.0 ], [ -58.428869, -34.7425308, 0.0 ], [ -58.4293427, -34.7419577, 0.0 ], [ -58.4300105, -34.7425109, 0.0 ], [ -58.430437, -34.7421384, 0.0 ], [ -58.4328876, -34.7388571, 0.0 ], [ -58.4344427, -34.7360103, 0.0 ], [ -58.4363658, -34.7331529, 0.0 ], [ -58.4379859, -34.7311514, 0.0 ], [ -58.4404642, -34.7280564, 0.0 ], [ -58.4420038, -34.7258211, 0.0 ], [ -58.4449811, -34.7220867, 0.0 ], [ -58.4463007, -34.7207374, 0.0 ], [ -58.4500405, -34.7157735, 0.0 ], [ -58.451028, -34.714655, 0.0 ], [ -58.4341422, -34.7056354, 0.0 ] ] } },
{ "type": "Feature", "properties": { "Name": "188 RAMAL G Semi - Desde La Noria", "Descripci__n": "", "nombre": "" }, "geometry": { "type": "LineString", "coordinates": [ [ -58.4568394, -34.7086763, 0.0 ], [ -58.456367, -34.708988, 0.0 ], [ -58.4547272, -34.7110415, 0.0 ], [ -58.4543219, -34.7112473, 0.0 ], [ -58.4539598, -34.7116089, 0.0 ], [ -58.4515211, -34.7146689, 0.0 ], [ -58.451564, -34.714832, 0.0 ], [ -58.4520012, -34.7150679, 0.0 ], [ -58.4648551, -34.722236, 0.0 ], [ -58.4628863, -34.72464, 0.0 ], [ -58.465865, -34.7263014, 0.0 ], [ -58.4671079, -34.728236, 0.0 ], [ -58.4666267, -34.7290391, 0.0 ], [ -58.4662223, -34.729586, 0.0 ], [ -58.4547977, -34.7450171, 0.0 ], [ -58.4534012, -34.7443012, 0.0 ], [ -58.439349, -34.762675, 0.0 ], [ -58.439183, -34.7626, 0.0 ], [ -58.4360083, -34.7667004, 0.0 ], [ -58.4370739, -34.767379, 0.0 ], [ -58.4379825, -34.7680753, 0.0 ], [ -58.4403321, -34.769318, 0.0 ], [ -58.4557709, -34.7772671, 0.0 ], [ -58.4577557, -34.7782453, 0.0 ], [ -58.4581956, -34.7782982, 0.0 ], [ -58.4584055, -34.778214, 0.0 ], [ -58.4591896, -34.7772297, 0.0 ] ] } },
{ "type": "Feature", "properties": { "Name": "188 RAMAL G Semi - Desde Facultad", "Descripci__n": "", "nombre": "" }, "geometry": { "type": "LineString", "coordinates": [ [ -58.4556282, -34.7775297, 0.0 ], [ -58.4383722, -34.7685173, 0.0 ], [ -58.4377777, -34.7693236, 0.0 ], [ -58.43529, -34.768059, 0.0 ], [ -58.4349399, -34.7677841, 0.0 ], [ -58.4337283, -34.7670988, 0.0 ], [ -58.434564, -34.765976, 0.0 ], [ -58.4357911, -34.7666671, 0.0 ], [ -58.439111, -34.76243, 0.0 ], [ -58.439304, -34.76247, 0.0 ], [ -58.4533698, -34.7441647, 0.0 ], [ -58.4547673, -34.7448987, 0.0 ], [ -58.4665022, -34.7290236, 0.0 ], [ -58.4667181, -34.7287172, 0.0 ], [ -58.466857, -34.728491, 0.0 ], [ -58.4669106, -34.7282816, 0.0 ], [ -58.4668865, -34.7280722, 0.0 ], [ -58.4668141, -34.7278936, 0.0 ], [ -58.4658381, -34.7263946, 0.0 ], [ -58.4657576, -34.7263285, 0.0 ], [ -58.4628588, -34.7246996, 0.0 ], [ -58.4627743, -34.7246572, 0.0 ], [ -58.4647038, -34.7222608, 0.0 ], [ -58.4515867, -34.7149357, 0.0 ], [ -58.4515398, -34.7149153, 0.0 ], [ -58.4516201, -34.7146887, 0.0 ], [ -58.4527177, -34.7133146, 0.0 ], [ -58.4528732, -34.7130897, 0.0 ], [ -58.452844, -34.713007, 0.0 ], [ -58.45264, -34.712919, 0.0 ], [ -58.4523529, -34.713147, 0.0 ], [ -58.4511995, -34.7145603, 0.0 ], [ -58.4513873, -34.7144876, 0.0 ], [ -58.4518808, -34.7138989, 0.0 ], [ -58.4538435, -34.7113888, 0.0 ], [ -58.4545657, -34.7100745, 0.0 ], [ -58.4551067, -34.709499, 0.0 ], [ -58.4551563, -34.7093028, 0.0 ], [ -58.4542605, -34.7087741, 0.0 ], [ -58.4541344, -34.7085713, 0.0 ], [ -58.4539755, -34.7078071, 0.0 ], [ -58.4537535, -34.7073901, 0.0 ] ] } },
{ "type": "Feature", "properties": { "Name": "188 RAMAL 2 - Desde Recondo", "Descripci__n": "", "nombre": "" }, "geometry": { "type": "LineString", "coordinates": [ [ -58.4364186, -34.7066569, 0.0 ], [ -58.4510233, -34.7145357, 0.0 ], [ -58.4511599, -34.7145761, 0.0 ], [ -58.4513718, -34.7145166, 0.0 ], [ -58.4525454, -34.7128278, 0.0 ], [ -58.4527009, -34.7128278, 0.0 ], [ -58.4530209, -34.7129998, 0.0 ], [ -58.452996, -34.713207, 0.0 ], [ -58.4527653, -34.7134452, 0.0 ], [ -58.4514859, -34.7149885, 0.0 ], [ -58.4511104, -34.7155507, 0.0 ], [ -58.4483802, -34.7189636, 0.0 ], [ -58.4472119, -34.7204058, 0.0 ], [ -58.4456374, -34.7224142, 0.0 ], [ -58.4427085, -34.7261155, 0.0 ], [ -58.4390311, -34.7309344, 0.0 ], [ -58.4366762, -34.7339917, 0.0 ], [ -58.434983, -34.736164, 0.0 ], [ -58.4337117, -34.7386418, 0.0 ], [ -58.4316578, -34.7414396, 0.0 ], [ -58.4299601, -34.7435649, 0.0 ], [ -58.4298662, -34.7439044, 0.0 ], [ -58.4298126, -34.7441159, 0.0 ], [ -58.430502, -34.7471411, 0.0 ], [ -58.430862, -34.7468212, 0.0 ], [ -58.432181, -34.74517, 0.0 ], [ -58.4327181, -34.7445467, 0.0 ], [ -58.4328496, -34.7445203, 0.0 ], [ -58.438219, -34.747651, 0.0 ], [ -58.440349, -34.748771, 0.0 ], [ -58.4429132, -34.750343, 0.0 ], [ -58.4448481, -34.7523789, 0.0 ], [ -58.4451538, -34.7526345, 0.0 ], [ -58.4462589, -34.7531899, 0.0 ], [ -58.4464261, -34.7532694, 0.0 ], [ -58.4431041, -34.7576827, 0.0 ], [ -58.4489107, -34.7606991, 0.0 ], [ -58.4418319, -34.77008, 0.0 ], [ -58.4421699, -34.7703223, 0.0 ], [ -58.4576612, -34.7783098, 0.0 ], [ -58.4579858, -34.7784155, 0.0 ], [ -58.458364, -34.778345, 0.0 ], [ -58.4591896, -34.7772297, 0.0 ] ] } },
{ "type": "Feature", "properties": { "Name": "188 RAMAL 2 - Desde Facultad", "Descripci__n": "", "nombre": "" }, "geometry": { "type": "LineString", "coordinates": [ [ -58.4556509, -34.7775412, 0.0 ], [ -58.4382788, -34.7684809, 0.0 ], [ -58.4388119, -34.7678023, 0.0 ], [ -58.4421767, -34.7694902, 0.0 ], [ -58.4487745, -34.7607198, 0.0 ], [ -58.4465077, -34.7596343, 0.0 ], [ -58.442898, -34.757709, 0.0 ], [ -58.4443604, -34.7556625, 0.0 ], [ -58.4461581, -34.7533689, 0.0 ], [ -58.4461393, -34.7532654, 0.0 ], [ -58.445014, -34.752679, 0.0 ], [ -58.444785, -34.752468, 0.0 ], [ -58.44275, -34.750425, 0.0 ], [ -58.4406992, -34.7492302, 0.0 ], [ -58.4327962, -34.7446108, 0.0 ], [ -58.4321659, -34.7453447, 0.0 ], [ -58.4302293, -34.7455695, 0.0 ], [ -58.4295967, -34.74567, 0.0 ], [ -58.4293258, -34.7443807, 0.0 ], [ -58.4293901, -34.7434506, 0.0 ], [ -58.4291219, -34.7428335, 0.0 ], [ -58.4289583, -34.7425029, 0.0 ], [ -58.4293258, -34.7421018, 0.0 ], [ -58.4299239, -34.7424522, 0.0 ], [ -58.4301599, -34.7425161, 0.0 ], [ -58.4302055, -34.7424324, 0.0 ], [ -58.4322145, -34.7398294, 0.0 ], [ -58.4332619, -34.7383729, 0.0 ], [ -58.43357, -34.737714, 0.0 ], [ -58.4337716, -34.737381, 0.0 ], [ -58.4345977, -34.7357102, 0.0 ], [ -58.4355826, -34.7343143, 0.0 ], [ -58.4358207, -34.7340304, 0.0 ], [ -58.4381596, -34.7310263, 0.0 ], [ -58.4393076, -34.7295626, 0.0 ], [ -58.4417967, -34.7262472, 0.0 ], [ -58.4430198, -34.7245894, 0.0 ], [ -58.4455089, -34.7213443, 0.0 ], [ -58.447532, -34.718911, 0.0 ], [ -58.4510503, -34.7146818, 0.0 ], [ -58.4341647, -34.7056634, 0.0 ] ] } },
{ "type": "Feature", "properties": { "Name": "188 RAMAL 1 - Desde Recondo", "Descripci__n": "", "nombre": "" }, "geometry": { "type": "LineString", "coordinates": [ [ -58.4364006, -34.7066415, 0.0 ], [ -58.464818, -34.7222351, 0.0 ], [ -58.4628808, -34.7246395, 0.0 ], [ -58.4657967, -34.7262736, 0.0 ], [ -58.4670098, -34.7279561, 0.0 ], [ -58.4670198, -34.7283777, 0.0 ], [ -58.4548086, -34.7450265, 0.0 ], [ -58.453398, -34.744291, 0.0 ], [ -58.4393468, -34.7626494, 0.0 ], [ -58.4391671, -34.7625723, 0.0 ], [ -58.4359103, -34.766739, 0.0 ], [ -58.4366423, -34.7671339, 0.0 ], [ -58.4374335, -34.7677674, 0.0 ], [ -58.4566882, -34.7778164, 0.0 ], [ -58.45782, -34.778405, 0.0 ], [ -58.4579403, -34.7784254, 0.0 ], [ -58.4582407, -34.7783924, 0.0 ], [ -58.458458, -34.778313, 0.0 ], [ -58.4585706, -34.7781632, 0.0 ], [ -58.4591896, -34.7772297, 0.0 ] ] } },
{ "type": "Feature", "properties": { "Name": "188 RAMAL 1 - Desde Camino", "Descripci__n": "", "nombre": "" }, "geometry": { "type": "LineString", "coordinates": [ [ -58.4576301, -34.7795036, 0.0 ], [ -58.4579332, -34.779074, 0.0 ], [ -58.4579802, -34.7789781, 0.0 ], [ -58.4579667, -34.7788922, 0.0 ], [ -58.4577548, -34.7786785, 0.0 ], [ -58.4576127, -34.7785882, 0.0 ], [ -58.4560221, -34.7777378, 0.0 ], [ -58.4557271, -34.777566, 0.0 ], [ -58.4383547, -34.7685316, 0.0 ], [ -58.4378037, -34.7693195, 0.0 ], [ -58.4353561, -34.7680836, 0.0 ], [ -58.4351549, -34.7679426, 0.0 ], [ -58.4349216, -34.7677817, 0.0 ], [ -58.4337199, -34.7671128, 0.0 ], [ -58.4345738, -34.7660103, 0.0 ], [ -58.4347374, -34.7661216, 0.0 ], [ -58.4357875, -34.766689, 0.0 ], [ -58.4384241, -34.7634037, 0.0 ], [ -58.4391107, -34.762487, 0.0 ], [ -58.4392824, -34.7625068, 0.0 ], [ -58.4533693, -34.7441822, 0.0 ], [ -58.4547654, -34.744904, 0.0 ], [ -58.4664281, -34.7291349, 0.0 ], [ -58.4668002, -34.7285987, 0.0 ], [ -58.4668552, -34.7285094, 0.0 ], [ -58.4669075, -34.7283485, 0.0 ], [ -58.4669223, -34.7282427, 0.0 ], [ -58.4669008, -34.7280829, 0.0 ], [ -58.4668767, -34.7279969, 0.0 ], [ -58.4668552, -34.727955, 0.0 ], [ -58.4658645, -34.726422, 0.0 ], [ -58.4658068, -34.7263598, 0.0 ], [ -58.4657424, -34.726314, 0.0 ], [ -58.4627696, -34.7246658, 0.0 ], [ -58.4629165, -34.7245016, 0.0 ], [ -58.4630546, -34.7243396, 0.0 ], [ -58.4646881, -34.7222655, 0.0 ], [ -58.4341721, -34.7056398, 0.0 ] ] } }
]
}
