{
"type": "FeatureCollection",
"name": "Recorridos EVG",
"crs": { "type": "name", "properties": { "name": "urn:ogc:def:crs:OGC:1.3:CRS84" } },
"features": [
{ "type": "Feature", "properties": { "Name": "564 RAMAL 3 - Desde Estacion Lomas" }, "geometry": { "type": "LineString", "coordinates": [ [ -58.3966734, -34.7611729, 0.0 ], [ -58.3894368, -34.7622262, 0.0 ], [ -58.3885356, -34.7624024, 0.0 ], [ -58.3776098, -34.75675, 0.0 ], [ -58.3742587, -34.7616992, 0.0 ], [ -58.3723003, -34.7648315, 0.0 ], [ -58.371045, -34.7641616, 0.0 ], [ -58.3696824, -34.7635226, 0.0 ], [ -58.3687007, -34.7649813, 0.0 ], [ -58.368572, -34.7649505, 0.0 ], [ -58.3671316, -34.7668608, 0.0 ], [ -58.3660346, -34.7662968, 0.0 ], [ -58.3639368, -34.7652368, 0.0 ], [ -58.3628076, -34.7646992, 0.0 ], [ -58.3620861, -34.7656467, 0.0 ], [ -58.3612519, -34.7651928, 0.0 ], [ -58.3592725, -34.7642277, 0.0 ], [ -58.3573823, -34.763351, 0.0 ], [ -58.3570483, -34.7640098, 0.0 ], [ -58.3547738, -34.7628948, 0.0 ], [ -58.3536637, -34.7623036, 0.0 ], [ -58.3481277, -34.7595889, 0.0 ], [ -58.3469314, -34.7589939, 0.0 ], [ -58.3458342, -34.7604212, 0.0 ], [ -58.3425196, -34.758619, 0.0 ], [ -58.341318, -34.760135, 0.0 ], [ -58.3582698, -34.7687709, 0.0 ], [ -58.359965, -34.769758, 0.0 ], [ -58.3616802, -34.7701703, 0.0 ], [ -58.3678306, -34.7733642, 0.0 ], [ -58.3767209, -34.778, 0.0 ], [ -58.3771509, -34.7758179, 0.0 ], [ -58.389696, -34.7813923, 0.0 ], [ -58.3899451, -34.7816472, 0.0 ], [ -58.3896876, -34.7830175, 0.0 ], [ -58.3916379, -34.7840711, 0.0 ], [ -58.3954501, -34.7795134, 0.0 ], [ -58.3956183, -34.779295, 0.0 ], [ -58.3953716, -34.7790703, 0.0 ], [ -58.3952475, -34.7789265, 0.0 ], [ -58.3955265, -34.7760833, 0.0 ] ] } },
{ "type": "Feature", "properties": { "Name": "564 RAMAL 3 - Desde Estacion Temperley" }, "geometry": { "type": "LineString", "coordinates": [ [ -58.3955304, -34.7760052, 0.0 ], [ -58.3927658, -34.7757612, 0.0 ], [ -58.3914167, -34.775, 0.0 ], [ -58.387076, -34.7802702, 0.0 ], [ -58.387291, -34.7804152, 0.0 ], [ -58.3860781, -34.781971, 0.0 ], [ -58.3773586, -34.7776733, 0.0 ], [ -58.3770287, -34.7781624, 0.0 ], [ -58.3767937, -34.7782141, 0.0 ], [ -58.3613764, -34.7703708, 0.0 ], [ -58.3595739, -34.7699301, 0.0 ], [ -58.3563768, -34.7681498, 0.0 ], [ -58.3409272, -34.7601117, 0.0 ], [ -58.3424507, -34.7584722, 0.0 ], [ -58.3458625, -34.7602527, 0.0 ], [ -58.3468925, -34.7586485, 0.0 ], [ -58.356968, -34.7637993, 0.0 ], [ -58.3578251, -34.7620772, 0.0 ], [ -58.3670278, -34.7666469, 0.0 ], [ -58.3685278, -34.76475, 0.0 ], [ -58.3691171, -34.7640291, 0.0 ], [ -58.3716599, -34.7653688, 0.0 ], [ -58.3775285, -34.75644, 0.0 ], [ -58.3871845, -34.7614819, 0.0 ], [ -58.3874205, -34.7609971, 0.0 ], [ -58.3959929, -34.7599129, 0.0 ] ] } },
{ "type": "Feature", "properties": { "Name": "564 RAMAL 9 - Desde Estacion Lomas" }, "geometry": { "type": "LineString", "coordinates": [ [ -58.3965088, -34.7615837, 0.0 ], [ -58.396659, -34.7629091, 0.0 ], [ -58.3968092, -34.7648129, 0.0 ], [ -58.3943791, -34.7650553, 0.0 ], [ -58.3937032, -34.7651875, 0.0 ], [ -58.390093, -34.7698454, 0.0 ], [ -58.3850021, -34.7672058, 0.0 ], [ -58.3831782, -34.766298, 0.0 ], [ -58.3817728, -34.7655136, 0.0 ], [ -58.3796377, -34.7644163, 0.0 ], [ -58.377095, -34.7630942, 0.0 ], [ -58.3769823, -34.7630501, 0.0 ], [ -58.3784736, -34.7607717, 0.0 ], [ -58.3768321, -34.7599343, 0.0 ], [ -58.3713176, -34.7571106, 0.0 ], [ -58.3701642, -34.7565343, 0.0 ], [ -58.3697619, -34.7572196, 0.0 ], [ -58.3688446, -34.7585815, 0.0 ], [ -58.368926, -34.7592885, 0.0 ], [ -58.3675626, -34.7586647, 0.0 ], [ -58.3651862, -34.757488, 0.0 ], [ -58.3643332, -34.7586383, 0.0 ], [ -58.3618361, -34.7573888, 0.0 ], [ -58.3607954, -34.7568952, 0.0 ], [ -58.3600873, -34.7566176, 0.0 ], [ -58.3597815, -34.7562562, 0.0 ], [ -58.3593845, -34.7553482, 0.0 ], [ -58.3583117, -34.7564941, 0.0 ], [ -58.3576787, -34.756135, 0.0 ], [ -58.3546585, -34.7546629, 0.0 ], [ -58.350037, -34.7522807, 0.0 ], [ -58.3498868, -34.7522278, 0.0 ], [ -58.3510348, -34.7506983, 0.0 ], [ -58.3526062, -34.7486317, 0.0 ], [ -58.3517827, -34.7482107, 0.0 ], [ -58.3511229, -34.7478229, 0.0 ], [ -58.3491381, -34.7469149, 0.0 ], [ -58.3480437, -34.7463154, 0.0 ], [ -58.3476228, -34.7460883, 0.0 ], [ -58.3475906, -34.74615, 0.0 ], [ -58.3459782, -34.7454255, 0.0 ], [ -58.3456295, -34.7452492, 0.0 ], [ -58.3455213, -34.7451826, 0.0 ], [ -58.3453751, -34.7451572, 0.0 ], [ -58.344895, -34.745177, 0.0 ], [ -58.3448896, -34.7452476, 0.0 ], [ -58.3439428, -34.7450867, 0.0 ], [ -58.3433876, -34.7466779, 0.0 ], [ -58.3426197, -34.7478242, 0.0 ], [ -58.3418633, -34.7499531, 0.0 ], [ -58.3418204, -34.7500391, 0.0 ], [ -58.3403183, -34.7492192, 0.0 ], [ -58.3376334, -34.7531861, 0.0 ], [ -58.3382289, -34.7534968, 0.0 ], [ -58.3389504, -34.7538428, 0.0 ] ] } },
{ "type": "Feature", "properties": { "Name": "564 RAMAL 9 - Hacia Estacion Lomas" }, "geometry": { "type": "LineString", "coordinates": [ [ -58.3395367, -34.7504187, 0.0 ], [ -58.3404165, -34.7506722, 0.0 ], [ -58.3412748, -34.7495923, 0.0 ], [ -58.3417817, -34.7498678, 0.0 ], [ -58.3424898, -34.7476573, 0.0 ], [ -58.3432301, -34.7464143, 0.0 ], [ -58.3438417, -34.7448804, 0.0 ], [ -58.3447697, -34.7451052, 0.0 ], [ -58.3448341, -34.745039, 0.0 ], [ -58.3455556, -34.7450897, 0.0 ], [ -58.347932, -34.7460617, 0.0 ], [ -58.3491659, -34.7466788, 0.0 ], [ -58.3526742, -34.74853, 0.0 ], [ -58.3527895, -34.7486204, 0.0 ], [ -58.3500912, -34.7521928, 0.0 ], [ -58.3557949, -34.7550698, 0.0 ], [ -58.3582598, -34.7563127, 0.0 ], [ -58.3594167, -34.7550833, 0.0 ], [ -58.3599872, -34.7562973, 0.0 ], [ -58.3601642, -34.7565176, 0.0 ], [ -58.3642948, -34.75847, 0.0 ], [ -58.3651156, -34.7573153, 0.0 ], [ -58.3687956, -34.7591289, 0.0 ], [ -58.3687124, -34.7585582, 0.0 ], [ -58.3696803, -34.7571472, 0.0 ], [ -58.3763751, -34.7606069, 0.0 ], [ -58.37652, -34.760695, 0.0 ], [ -58.3754766, -34.7621317, 0.0 ], [ -58.3823994, -34.7656264, 0.0 ], [ -58.3900598, -34.7696013, 0.0 ], [ -58.3935359, -34.7650888, 0.0 ], [ -58.3913204, -34.7639077, 0.0 ], [ -58.3906284, -34.7606664, 0.0 ], [ -58.3959863, -34.7600076, 0.0 ] ] } }
]
}
